{
  "type": "FeatureCollection",
  "features": [
    {
      "type": "Feature",
      "properties": {
        "WardName": "Ashbrow",
        "NoCllrs": 3,
        "Number": 2
      },
      "geometry": {
        "type": "Polygon",
        "coordinates": [
          [
            [
              -1.746711187900521,
              53.69458376224321
            ],
            [
              -1.7459655862147019,
              53.6942912256191
            ],
            [
              -1.7457679568521958,
              53.69375933563976
            ],
            [
              -1.7452649002930887,
              53.6932646719278
            ],
            [
              -1.7438725116027034,
              53.69229660354461
            ],
            [
              -1.7433425055850729,
              53.69204660424663
            ],
            [
              -1.7420848641873055,
              53.69168490050695
            ],
            [
              -1.7415728244753574,
              53.69137106680322
            ],
            [
              -1.7411955320560273,
              53.69091361009567
            ],
            [
              -1.7408272227895383,
              53.68981782149029
            ],
            [
              -1.740863155400903,
              53.68793470066973
            ],
            [
              -1.7405577282043023,
              53.68706226586679
            ],
            [
              -1.7388419460116342,
              53.68539714195537
            ],
            [
              -1.738186175854227,
              53.685168381769046
            ],
            [
              -1.737126163818966,
              53.685019420979636
            ],
            [
              -1.7366500567183825,
              53.68479065874135
            ],
            [
              -1.7363176800632583,
              53.68396072018875
            ],
            [
              -1.736209882229164,
              53.68282218812961
            ],
            [
              -1.7359853034081338,
              53.68247636622287
            ],
            [
              -1.7353744490149328,
              53.68203477412148
            ],
            [
              -1.73234712650745,
              53.68051842864761
            ],
            [
              -1.7319249183239138,
              53.680364130784795
            ],
            [
              -1.7314038954591244,
              53.680364130784795
            ],
            [
              -1.731152367179571,
              53.68019919106499
            ],
            [
              -1.7309367715113824,
              53.679752254384255
            ],
            [
              -1.7314128786119658,
              53.679124406750745
            ],
            [
              -1.7338113804205648,
              53.676980076897074
            ],
            [
              -1.7347186788575255,
              53.676357509073235
            ],
            [
              -1.7365692083428117,
              53.67570832598739
            ],
            [
              -1.7377100687536435,
              53.67543162195909
            ],
            [
              -1.7387161818718573,
              53.675468870684135
            ],
            [
              -1.739165339513917,
              53.67521345019372
            ],
            [
              -1.7393989014877882,
              53.67450571449428
            ],
            [
              -1.7407104418026027,
              53.67442589393244
            ],
            [
              -1.7411236668332977,
              53.673702180603144
            ],
            [
              -1.7423184261611768,
              53.67288798824674
            ],
            [
              -1.7425879207464126,
              53.671993954985346
            ],
            [
              -1.7430101289299487,
              53.67147242682152
            ],
            [
              -1.7433694550435965,
              53.67011003707758
            ],
            [
              -1.744905574179441,
              53.669322385410545
            ],
            [
              -1.7465764406079032,
              53.668045081138594
            ],
            [
              -1.7472322107653104,
              53.66778961563779
            ],
            [
              -1.7482023912721594,
              53.66760865997097
            ],
            [
              -1.7513914105307837,
              53.66767784899418
            ],
            [
              -1.753098209570611,
              53.66752882634153
            ],
            [
              -1.7543199183570135,
              53.66737980316185
            ],
            [
              -1.7572933419474492,
              53.666655968792455
            ],
            [
              -1.7582904719128218,
              53.66656016625302
            ],
            [
              -1.7625934021237541,
              53.66406390109356
            ],
            [
              -1.7643630832334698,
              53.66314838939246
            ],
            [
              -1.7659351349806789,
              53.66278643742033
            ],
            [
              -1.7680102432869949,
              53.662743854630996
            ],
            [
              -1.769160086850668,
              53.66255755442183
            ],
            [
              -1.7701123010518345,
              53.6622062432153
            ],
            [
              -1.7703278967200233,
              53.661626041023084
            ],
            [
              -1.771334009838237,
              53.66217962861064
            ],
            [
              -1.773858275786613,
              53.6606306296655
            ],
            [
              -1.7755560916735988,
              53.65937967831431
            ],
            [
              -1.7765352553332894,
              53.65956066931762
            ],
            [
              -1.776472373263401,
              53.65976827568798
            ],
            [
              -1.7765891542503365,
              53.65979489181534
            ],
            [
              -1.7809639496839984,
              53.66014089994178
            ],
            [
              -1.780478859430574,
              53.662168982764065
            ],
            [
              -1.7817095513698176,
              53.66171120881753
            ],
            [
              -1.7820688774834654,
              53.662222211970054
            ],
            [
              -1.78255396773689,
              53.66245109678972
            ],
            [
              -1.7830839737545205,
              53.6630738701229
            ],
            [
              -1.7842158510125112,
              53.66467600538128
            ],
            [
              -1.7866862180438399,
              53.6642555173048
            ],
            [
              -1.7886984442802676,
              53.6637019569842
            ],
            [
              -1.789363197590516,
              53.66402664228466
            ],
            [
              -1.7894260796604045,
              53.66414906396168
            ],
            [
              -1.7895967595643871,
              53.664122450583875
            ],
            [
              -1.7900279509007646,
              53.66479842517195
            ],
            [
              -1.7902076139575884,
              53.66486761880938
            ],
            [
              -1.790279479180318,
              53.66514439222298
            ],
            [
              -1.789830321538258,
              53.66571922350456
            ],
            [
              -1.7897225237041638,
              53.666831606215716
            ],
            [
              -1.7896147258700694,
              53.66685821788266
            ],
            [
              -1.7902525297217944,
              53.66747560383786
            ],
            [
              -1.7907466031280599,
              53.66747028158378
            ],
            [
              -1.7907016873638542,
              53.667177556575034
            ],
            [
              -1.7912316933814847,
              53.667076432917625
            ],
            [
              -1.7911598281587553,
              53.66681563920749
            ],
            [
              -1.791429322743991,
              53.66671451468154
            ],
            [
              -1.7913574575212614,
              53.66664000171767
            ],
            [
              -1.7922288233468573,
              53.66635791573229
            ],
            [
              -1.7920850929013983,
              53.66620356599761
            ],
            [
              -1.792498317932093,
              53.66615566424086
            ],
            [
              -1.792677980988917,
              53.666022603519735
            ],
            [
              -1.794986651269104,
              53.66667193586118
            ],
            [
              -1.795624455120829,
              53.666544199141924
            ],
            [
              -1.79690904597712,
              53.665006005743386
            ],
            [
              -1.798328384126029,
              53.665266810653016
            ],
            [
              -1.798552962947059,
              53.66487294139215
            ],
            [
              -1.8005921386420098,
              53.66540519627615
            ],
            [
              -1.8010502794369108,
              53.665628741322806
            ],
            [
              -1.8016701169829534,
              53.66572986845435
            ],
            [
              -1.8036823432193814,
              53.66641113964765
            ],
            [
              -1.8049310014643072,
              53.66750221509808
            ],
            [
              -1.8061616934035511,
              53.667991859286964
            ],
            [
              -1.8063952553774223,
              53.6682952229407
            ],
            [
              -1.806197626014916,
              53.669886515803555
            ],
            [
              -1.806341356460375,
              53.66998763271725
            ],
            [
              -1.8062155923205985,
              53.67016857816769
            ],
            [
              -1.8060179629580917,
              53.67029630390014
            ],
            [
              -1.8050298161455605,
              53.67054111047175
            ],
            [
              -1.8044009954466766,
              53.67028566010387
            ],
            [
              -1.8043740459881532,
              53.67044531676531
            ],
            [
              -1.8039787872631405,
              53.67034952284106
            ],
            [
              -1.8037542084421108,
              53.670679478774346
            ],
            [
              -1.8040596356387113,
              53.671004110315955
            ],
            [
              -1.8037003095250637,
              53.67123294744063
            ],
            [
              -1.8037003095250637,
              53.67146710507229
            ],
            [
              -1.8039967535688228,
              53.671658687621125
            ],
            [
              -1.8038889557347284,
              53.67170126140257
            ],
            [
              -1.803987770415982,
              53.671850269298794
            ],
            [
              -1.8041674334728057,
              53.67185559099963
            ],
            [
              -1.8045626921978182,
              53.672233430040684
            ],
            [
              -1.8046255742677066,
              53.6725899792676
            ],
            [
              -1.8056316873859206,
              53.67280284303923
            ],
            [
              -1.8068623793251644,
              53.67279752145803
            ],
            [
              -1.80758103155246,
              53.67270173288179
            ],
            [
              -1.8089015550201155,
              53.67222278673376
            ],
            [
              -1.810302926863342,
              53.672164248497836
            ],
            [
              -1.81043767415596,
              53.672025885071385
            ],
            [
              -1.809934617596853,
              53.671318095820894
            ],
            [
              -1.8101412301122006,
              53.671057328362856
            ],
            [
              -1.8104736067673248,
              53.670977501267316
            ],
            [
              -1.8116593829423626,
              53.67113183351554
            ],
            [
              -1.8131865189253658,
              53.67107861556278
            ],
            [
              -1.814174665737897,
              53.67140856578637
            ],
            [
              -1.8153604419129348,
              53.6719194513572
            ],
            [
              -1.8162767235027368,
              53.6729252392209
            ],
            [
              -1.8174445333720923,
              53.6733828913584
            ],
            [
              -1.8177589437215342,
              53.67330306866909
            ],
            [
              -1.8183697981147353,
              53.67270173288179
            ],
            [
              -1.8187740399925891,
              53.672909274521714
            ],
            [
              -1.8177050448044871,
              53.67383521707428
            ],
            [
              -1.8169594431186675,
              53.67483563787874
            ],
            [
              -1.8152436609259994,
              53.676038239953364
            ],
            [
              -1.8129529569514948,
              53.677251449735614
            ],
            [
              -1.810904798103702,
              53.678022990411534
            ],
            [
              -1.8091081675354632,
              53.67849654975834
            ],
            [
              -1.805514906398985,
              53.67908184047074
            ],
            [
              -1.8042752313069,
              53.679395765774586
            ],
            [
              -1.8037811579006342,
              53.679800140684044
            ],
            [
              -1.803430814939828,
              53.67985334761995
            ],
            [
              -1.8031074214375447,
              53.680161946522766
            ],
            [
              -1.802011476790919,
              53.68030028322797
            ],
            [
              -1.801095195201117,
              53.68055567287464
            ],
            [
              -1.7998285706505082,
              53.680507787433854
            ],
            [
              -1.7980858389993164,
              53.680773816971545
            ],
            [
              -1.7955166572867347,
              53.68134843503836
            ],
            [
              -1.7951393648674046,
              53.68135375553939
            ],
            [
              -1.7919144129974154,
              53.68216246387967
            ],
            [
              -1.79059388952976,
              53.682588093610946
            ],
            [
              -1.7902435465689532,
              53.68249232729646
            ],
            [
              -1.78931828182631,
              53.6827955865453
            ],
            [
              -1.7881864045683196,
              53.682715781691535
            ],
            [
              -1.7871353756858994,
              53.68248700693926
            ],
            [
              -1.7842068678596699,
              53.683024359621314
            ],
            [
              -1.7800297017885143,
              53.68358830654752
            ],
            [
              -1.7797691903561197,
              53.683822395506446
            ],
            [
              -1.779149352810077,
              53.68406712348134
            ],
            [
              -1.7789607066004118,
              53.684274609128664
            ],
            [
              -1.7784037511242579,
              53.684529974675854
            ],
            [
              -1.7768137330713663,
              53.684897059936986
            ],
            [
              -1.774639810083797,
              53.68557270125558
            ],
            [
              -1.7741187872190076,
              53.68595573718823
            ],
            [
              -1.773615730659901,
              53.686062135440075
            ],
            [
              -1.7734181012973944,
              53.68625365161595
            ],
            [
              -1.771872999008709,
              53.68666860034219
            ],
            [
              -1.7712262120041429,
              53.68703566696079
            ],
            [
              -1.7708668858904952,
              53.68711546362837
            ],
            [
              -1.7699595874535343,
              53.687721913360186
            ],
            [
              -1.7695014466586334,
              53.687785749665935
            ],
            [
              -1.7692589015319211,
              53.687940020338694
            ],
            [
              -1.7683875357063252,
              53.68812620832894
            ],
            [
              -1.7678844791472181,
              53.68834431321328
            ],
            [
              -1.7666627703608155,
              53.68858369532247
            ],
            [
              -1.7665280230681977,
              53.688525179821454
            ],
            [
              -1.7665280230681977,
              53.68861029325057
            ],
            [
              -1.7659800507448848,
              53.688764560902335
            ],
            [
              -1.7650278365437182,
              53.68882307607067
            ],
            [
              -1.7648751229454178,
              53.6889560647872
            ],
            [
              -1.7646235946658644,
              53.68890818889765
            ],
            [
              -1.7640576560368693,
              53.68902521875378
            ],
            [
              -1.764012740272663,
              53.689126289731384
            ],
            [
              -1.7634647679493503,
              53.68904649687448
            ],
            [
              -1.7633659532680972,
              53.689232679972015
            ],
            [
              -1.7628000146391019,
              53.689296513987394
            ],
            [
              -1.762719166263531,
              53.68950929333959
            ],
            [
              -1.7623778064555655,
              53.68957844639755
            ],
            [
              -1.7623059412328361,
              53.689482695979365
            ],
            [
              -1.7620903455646475,
              53.68957844639755
            ],
            [
              -1.7621352613288535,
              53.68966355769755
            ],
            [
              -1.7617939015208879,
              53.68964227988869
            ],
            [
              -1.7617849183680467,
              53.68977526601772
            ],
            [
              -1.7615244069356522,
              53.68981250205859
            ],
            [
              -1.7612638955032573,
              53.690216776953946
            ],
            [
              -1.7607249063327857,
              53.69042423230104
            ],
            [
              -1.7608955862367683,
              53.69094020655196
            ],
            [
              -1.7607338894856268,
              53.69099871869668
            ],
            [
              -1.760823721014039,
              53.691115742742134
            ],
            [
              -1.7606979568742622,
              53.69150936668979
            ],
            [
              -1.7604284622890263,
              53.69164766612206
            ],
            [
              -1.7599613383412842,
              53.69166362371963
            ],
            [
              -1.7598984562713955,
              53.69181788018424
            ],
            [
              -1.7596738774503657,
              53.69191362529181
            ],
            [
              -1.7598535405071896,
              53.692679578313545
            ],
            [
              -1.7585958991094224,
              53.69289234056868
            ],
            [
              -1.7564848581917414,
              53.692748726164396
            ],
            [
              -1.7519663323126204,
              53.69296148807008
            ],
            [
              -1.750214617508587,
              53.69344551739979
            ],
            [
              -1.7486605320670605,
              53.69422208030183
            ],
            [
              -1.7477352673244175,
              53.69453057391729
            ],
            [
              -1.746711187900521,
              53.69458376224321
            ]
          ]
        ]
      }
    }
  ]
}
