{
  "type": "FeatureCollection",
  "features": [
    {
      "type": "Feature",
      "properties": {
        "WardName": "Batley West",
        "NoCllrs": 3,
        "Number": 4
      },
      "geometry": {
        "type": "Polygon",
        "coordinates": [
          [
            [
              -1.6608771625029009,
              53.72891343492074
            ],
            [
              -1.6560801588857026,
              53.72690450942383
            ],
            [
              -1.6509238291548565,
              53.72531005578769
            ],
            [
              -1.6495494067701537,
              53.72457658681188
            ],
            [
              -1.6478246414246442,
              53.72344978346114
            ],
            [
              -1.6464951348041474,
              53.72434803951667
            ],
            [
              -1.6472407364899666,
              53.72478918783175
            ],
            [
              -1.6465849663325594,
              53.72517186695881
            ],
            [
              -1.646207673913229,
              53.725698045072
            ],
            [
              -1.646845477764954,
              53.726431494486256
            ],
            [
              -1.644959015668303,
              53.727388148408565
            ],
            [
              -1.644590706401814,
              53.727505071284114
            ],
            [
              -1.644402060192149,
              53.72731905746563
            ],
            [
              -1.6438451047159948,
              53.727499756615
            ],
            [
              -1.6426772948466393,
              53.727388148408565
            ],
            [
              -1.6419945752307086,
              53.72746255391243
            ],
            [
              -1.641734063798314,
              53.72764325244514
            ],
            [
              -1.6406650686102116,
              53.727249966409154
            ],
            [
              -1.6394613261294915,
              53.72699485998638
            ],
            [
              -1.6396499723391567,
              53.72592658502974
            ],
            [
              -1.6395960734221093,
              53.725294110945974
            ],
            [
              -1.638563010845372,
              53.72459784696222
            ],
            [
              -1.6377545270896645,
              53.72314681703238
            ],
            [
              -1.6375389314214757,
              53.723008621094394
            ],
            [
              -1.6390481010987965,
              53.72196682171481
            ],
            [
              -1.64193169316082,
              53.72052101654992
            ],
            [
              -1.642704244305163,
              53.72000540489037
            ],
            [
              -1.6404404897891818,
              53.71900605707735
            ],
            [
              -1.6348978844861644,
              53.71701260620869
            ],
            [
              -1.6375029988101109,
              53.7151838641904
            ],
            [
              -1.638284533107295,
              53.714843624345235
            ],
            [
              -1.640233877273834,
              53.71372719302323
            ],
            [
              -1.6407459169857823,
              53.71303605402278
            ],
            [
              -1.6420125415363909,
              53.70902190689231
            ],
            [
              -1.6419496594665026,
              53.708569959055815
            ],
            [
              -1.64155440074149,
              53.70780961233009
            ],
            [
              -1.6414016871431896,
              53.70678870560645
            ],
            [
              -1.6421023730648028,
              53.70452879793576
            ],
            [
              -1.6424078002614035,
              53.70392790794152
            ],
            [
              -1.6426862779994806,
              53.702720784411405
            ],
            [
              -1.6426233959295922,
              53.70218900094452
            ],
            [
              -1.64275814322221,
              53.70173166178854
            ],
            [
              -1.6421742382875324,
              53.70108286980865
            ],
            [
              -1.6478336245774854,
              53.70057765601262
            ],
            [
              -1.6535289434788032,
              53.69962039218849
            ],
            [
              -1.655397439269772,
              53.6988652020308
            ],
            [
              -1.6576971263971179,
              53.69750901667635
            ],
            [
              -1.6594308748954683,
              53.69691334498408
            ],
            [
              -1.660059695594352,
              53.697588793495036
            ],
            [
              -1.6611915728523428,
              53.699322572336015
            ],
            [
              -1.6624402310972688,
              53.700848876804464
            ],
            [
              -1.660419021708,
              53.70176356933279
            ],
            [
              -1.6605268195420941,
              53.7018220664344
            ],
            [
              -1.660059695594352,
              53.70215177585018
            ],
            [
              -1.657158137226646,
              53.703417410585814
            ],
            [
              -1.660419021708,
              53.70564015593398
            ],
            [
              -1.6601315608170817,
              53.706873782112815
            ],
            [
              -1.6601585102756053,
              53.707405506380525
            ],
            [
              -1.6589278183363616,
              53.70908571090169
            ],
            [
              -1.658397812318731,
              53.70918141673435
            ],
            [
              -1.6591164645460266,
              53.71005339318192
            ],
            [
              -1.6593500265198975,
              53.70998959064002
            ],
            [
              -1.6598530830790046,
              53.71048937462878
            ],
            [
              -1.6596195211051337,
              53.7107020468658
            ],
            [
              -1.6598620662318457,
              53.71103700345914
            ],
            [
              -1.6605537690006178,
              53.71356770041557
            ],
            [
              -1.6637068556478773,
              53.71866053236237
            ],
            [
              -1.6643805921109671,
              53.72105788382821
            ],
            [
              -1.664515339403585,
              53.721254556264476
            ],
            [
              -1.666222138443412,
              53.72240267969738
            ],
            [
              -1.6658268797183995,
              53.7226790751018
            ],
            [
              -1.6670665548104844,
              53.723253121291044
            ],
            [
              -1.6661951889848883,
              53.725065567550615
            ],
            [
              -1.6654136546877043,
              53.72596378909135
            ],
            [
              -1.6633744789927531,
              53.727446609886975
            ],
            [
              -1.661344286450643,
              53.72909944168553
            ],
            [
              -1.6608771625029009,
              53.72891343492074
            ]
          ]
        ]
      }
    }
  ]
}
