{
  "type": "FeatureCollection",
  "features": [
    {
      "type": "Feature",
      "properties": {
        "WardName": "Colne Valley East",
        "NoCllrs": 3,
        "Number": 7
      },
      "geometry": {
        "type": "Polygon",
        "coordinates": [
          [
            [
              -1.8583538114108953,
              53.6554349460531
            ],
            [
              -1.8577249907120115,
              53.6553018514828
            ],
            [
              -1.8574015972097286,
              53.655339118004825
            ],
            [
              -1.8566020966068622,
              53.65505695637553
            ],
            [
              -1.856323618868785,
              53.65513148981965
            ],
            [
              -1.8563775177858322,
              53.6550463087299
            ],
            [
              -1.8558205623096782,
              53.654694934915405
            ],
            [
              -1.8552276742221592,
              53.65446600797581
            ],
            [
              -1.854571904064752,
              53.65437017772502
            ],
            [
              -1.8542844431738337,
              53.6541146293246
            ],
            [
              -1.8528201892607192,
              53.654002826412345
            ],
            [
              -1.852595610439689,
              53.65383245949968
            ],
            [
              -1.852083570727741,
              53.65377921969829
            ],
            [
              -1.8509606766225917,
              53.653422511294686
            ],
            [
              -1.8503677885350724,
              53.65310839244024
            ],
            [
              -1.850062361338472,
              53.65307644801883
            ],
            [
              -1.8496311700020946,
              53.65317760527021
            ],
            [
              -1.8484004780628507,
              53.65311904057532
            ],
            [
              -1.8474572470145254,
              53.65332667867194
            ],
            [
              -1.8461367235468698,
              53.65335862290371
            ],
            [
              -1.8472147018878133,
              53.65404009408271
            ],
            [
              -1.8473224997219078,
              53.65443406458307
            ],
            [
              -1.8435855081399704,
              53.65244820281271
            ],
            [
              -1.8419326080171905,
              53.65144725043326
            ],
            [
              -1.8378901892386525,
              53.64971150008294
            ],
            [
              -1.8370188234130567,
              53.6503078395491
            ],
            [
              -1.8357162662510833,
              53.650366408148976
            ],
            [
              -1.8330842024686131,
              53.65014810659051
            ],
            [
              -1.8317097800839102,
              53.64991383049001
            ],
            [
              -1.8312696055946915,
              53.6499351283711
            ],
            [
              -1.831889443140734,
              53.6483856794437
            ],
            [
              -1.8322847018657469,
              53.64795970412495
            ],
            [
              -1.8288890700917748,
              53.64717163844094
            ],
            [
              -1.8283141483099385,
              53.64755502358628
            ],
            [
              -1.8286105923536977,
              53.64620783538881
            ],
            [
              -1.828242283087209,
              53.64640485769344
            ],
            [
              -1.8279458390434495,
              53.64640485769344
            ],
            [
              -1.8272002373576304,
              53.64598418733291
            ],
            [
              -1.8258347981257685,
              53.64546766228997
            ],
            [
              -1.8257000508331505,
              53.64556883779663
            ],
            [
              -1.8261132758638459,
              53.646431482258606
            ],
            [
              -1.824846651313237,
              53.64676695033942
            ],
            [
              -1.8246849545620956,
              53.64656992972648
            ],
            [
              -1.8245591904223188,
              53.64652733055401
            ],
            [
              -1.8244064768240185,
              53.64662317863156
            ],
            [
              -1.8240471507103706,
              53.64650603095163
            ],
            [
              -1.8232386669546634,
              53.64537713663089
            ],
            [
              -1.8227266272427152,
              53.64497775640349
            ],
            [
              -1.822448149504638,
              53.64482865348234
            ],
            [
              -1.8212983059409649,
              53.644589022683235
            ],
            [
              -1.8203640580454805,
              53.64585638791129
            ],
            [
              -1.8185404780187182,
              53.645414411925806
            ],
            [
              -1.818217084516435,
              53.645717938100816
            ],
            [
              -1.8174624996777746,
              53.64551026253289
            ],
            [
              -1.817336735537998,
              53.64576586308666
            ],
            [
              -1.816007228917501,
              53.64567533806769
            ],
            [
              -1.8154233239828235,
              53.645457012222515
            ],
            [
              -1.8126565129077352,
              53.64527596066434
            ],
            [
              -1.8125217656151171,
              53.64557948783584
            ],
            [
              -1.8109676801735906,
              53.64539311176133
            ],
            [
              -1.810904798103702,
              53.64555286273275
            ],
            [
              -1.8101502132650416,
              53.64541973696526
            ],
            [
              -1.8100873311951533,
              53.645574162816565
            ],
            [
              -1.8081020544172492,
              53.64560611292208
            ],
            [
              -1.8077786609149662,
              53.64544103711629
            ],
            [
              -1.8081918859456612,
              53.64516945938467
            ],
            [
              -1.8076888293865543,
              53.645073608003
            ],
            [
              -1.8064761037529928,
              53.644514470601344
            ],
            [
              -1.8057125357614912,
              53.64433874017263
            ],
            [
              -1.8056137210802383,
              53.6437369910368
            ],
            [
              -1.8041225177086,
              53.64391804920195
            ],
            [
              -1.8023797860574078,
              53.6439659762332
            ],
            [
              -1.8007897680045164,
              53.64384882117176
            ],
            [
              -1.797924142248175,
              53.643476052902066
            ],
            [
              -1.7951842806316107,
              53.643481378186245
            ],
            [
              -1.795292078465705,
              53.64343877589388
            ],
            [
              -1.7948069882122801,
              53.643353571180015
            ],
            [
              -1.795902932858906,
              53.64301275060325
            ],
            [
              -1.7970437932697378,
              53.64249618916608
            ],
            [
              -1.7998195874976672,
              53.6407387678296
            ],
            [
              -1.8050298161455605,
              53.64043520581867
            ],
            [
              -1.811767180776457,
              53.639753514744825
            ],
            [
              -1.814174665737897,
              53.63965765105399
            ],
            [
              -1.8149382337293987,
              53.63946592301872
            ],
            [
              -1.814866368506669,
              53.63913572269292
            ],
            [
              -1.815728751179424,
              53.63861911377188
            ],
            [
              -1.8157557006379477,
              53.63837412176263
            ],
            [
              -1.8162138414328484,
              53.6381930397978
            ],
            [
              -1.8156658691095358,
              53.63823032144232
            ],
            [
              -1.8153784082186173,
              53.63782554753844
            ],
            [
              -1.8173277523851565,
              53.63735153105567
            ],
            [
              -1.8179206404726758,
              53.637042618571044
            ],
            [
              -1.8175433480533452,
              53.637074575139884
            ],
            [
              -1.8199867656261504,
              53.63633956793208
            ],
            [
              -1.8203640580454805,
              53.636760334495
            ],
            [
              -1.8208491482989053,
              53.63653131017743
            ],
            [
              -1.8212623733296,
              53.63649935319705
            ],
            [
              -1.823319515330234,
              53.63582292476664
            ],
            [
              -1.824550207269478,
              53.635162464495735
            ],
            [
              -1.8258797138899743,
              53.63411316360946
            ],
            [
              -1.8262929389206697,
              53.633585840113064
            ],
            [
              -1.8279188895849257,
              53.63317569505914
            ],
            [
              -1.8293202614281525,
              53.632424639884846
            ],
            [
              -1.8313504539702625,
              53.631780106699814
            ],
            [
              -1.8324643649225707,
              53.63156170892443
            ],
            [
              -1.8354737211243712,
              53.63066147201453
            ],
            [
              -1.8380249365312704,
              53.629335052457485
            ],
            [
              -1.837360183221022,
              53.62887159483111
            ],
            [
              -1.8377015430289874,
              53.6285999104077
            ],
            [
              -1.8401090279904277,
              53.62796064604088
            ],
            [
              -1.8410971748029594,
              53.62916458587637
            ],
            [
              -1.8381596838238885,
              53.630768009928985
            ],
            [
              -1.8387885045227719,
              53.631188832061184
            ],
            [
              -1.8383483300335537,
              53.631423212188466
            ],
            [
              -1.83869867299436,
              53.63199317661075
            ],
            [
              -1.8387615550642484,
              53.63285077212104
            ],
            [
              -1.8389052855097077,
              53.63286675199618
            ],
            [
              -1.838689689841519,
              53.6329732843424
            ],
            [
              -1.8390220664966432,
              53.63317569505914
            ],
            [
              -1.8394981735972262,
              53.632829465611465
            ],
            [
              -1.8400191964620158,
              53.63311710258312
            ],
            [
              -1.8398754660165568,
              53.63325026718369
            ],
            [
              -1.8399563143921274,
              53.633351471999035
            ],
            [
              -1.840306657352934,
              53.63332483917644
            ],
            [
              -1.8409264948989765,
              53.63377226836495
            ],
            [
              -1.8413936188467186,
              53.63372432975028
            ],
            [
              -1.841600231362066,
              53.63382553342849
            ],
            [
              -1.8420044732399201,
              53.63363910541194
            ],
            [
              -1.8431453336507517,
              53.63473102921953
            ],
            [
              -1.8430375358166573,
              53.6350665903712
            ],
            [
              -1.844959930524673,
              53.634715050050495
            ],
            [
              -1.8453821387082092,
              53.634842883233304
            ],
            [
              -1.846594864341771,
              53.63307448982215
            ],
            [
              -1.8471787692764485,
              53.632600419953775
            ],
            [
              -1.8475291122372548,
              53.63256313333369
            ],
            [
              -1.848130983477615,
              53.63267499309511
            ],
            [
              -1.8493526922640176,
              53.63255780667099
            ],
            [
              -1.8511762722907803,
              53.63198784987608
            ],
            [
              -1.8514547500288574,
              53.63226483918665
            ],
            [
              -1.8509516934697503,
              53.63265368649675
            ],
            [
              -1.8508618619413384,
              53.632941324666774
            ],
            [
              -1.8515715310157927,
              53.63360181970979
            ],
            [
              -1.8519218739765995,
              53.63345267657162
            ],
            [
              -1.8524249305357063,
              53.633766941854915
            ],
            [
              -1.852586627286848,
              53.63368171760262
            ],
            [
              -1.852766290343672,
              53.63392673686391
            ],
            [
              -1.853601723557903,
              53.63440611825955
            ],
            [
              -1.8538891844488212,
              53.63468841808863
            ],
            [
              -1.8550030954011296,
              53.63512518013986
            ],
            [
              -1.8560990400477555,
              53.63575368344924
            ],
            [
              -1.8562517536460554,
              53.63596140706052
            ],
            [
              -1.8564403998557206,
              53.63599869067737
            ],
            [
              -1.8567009112881154,
              53.63585488225942
            ],
            [
              -1.8576890581006467,
              53.636440765336836
            ],
            [
              -1.858793985900114,
              53.63677631288935
            ],
            [
              -1.8589826321097789,
              53.63671772541378
            ],
            [
              -1.860590616468353,
              53.6374473999875
            ],
            [
              -1.8603480713416405,
              53.63758587694883
            ],
            [
              -1.8601504419791344,
              53.637958697277625
            ],
            [
              -1.861048757263254,
              53.63801728302972
            ],
            [
              -1.8615428306695196,
              53.6381557581203
            ],
            [
              -1.8631418318752524,
              53.63813978024845
            ],
            [
              -1.863222680250823,
              53.638709653936935
            ],
            [
              -1.8631148824167287,
              53.638730957476966
            ],
            [
              -1.8632406465565052,
              53.63897062156071
            ],
            [
              -1.8646510015525732,
              53.64120209510794
            ],
            [
              -1.8648665972207619,
              53.64125002522554
            ],
            [
              -1.8646240520940494,
              53.6414470706924
            ],
            [
              -1.864309641744608,
              53.64146304731152
            ],
            [
              -1.8642108270633546,
              53.64161216213159
            ],
            [
              -1.863078949805364,
              53.64167606832166
            ],
            [
              -1.8630879329582053,
              53.64173464891082
            ],
            [
              -1.861974022005897,
              53.641899739224364
            ],
            [
              -1.8620189377701026,
              53.641974295928364
            ],
            [
              -1.8612284203200777,
              53.64212873439594
            ],
            [
              -1.8608421447479062,
              53.64238968086651
            ],
            [
              -1.8593868739876327,
              53.64265062572265
            ],
            [
              -1.8587760195944316,
              53.64322043847
            ],
            [
              -1.8582280472711186,
              53.64417898460203
            ],
            [
              -1.8567907428165273,
              53.644386666725794
            ],
            [
              -1.8564853156199266,
              53.64459967296986
            ],
            [
              -1.8559642927551374,
              53.64470085055893
            ],
            [
              -1.8565841303011799,
              53.644833978595734
            ],
            [
              -1.8575093950438228,
              53.64473812645158
            ],
            [
              -1.857644142336441,
              53.64500438186965
            ],
            [
              -1.8578597380046296,
              53.64505763275155
            ],
            [
              -1.8586772049131783,
              53.645685988080004
            ],
            [
              -1.8586502554546545,
              53.645920287670506
            ],
            [
              -1.8588119522057964,
              53.646106661415196
            ],
            [
              -1.8579046537688353,
              53.64646343171461
            ],
            [
              -1.8581202494370244,
              53.64670837673984
            ],
            [
              -1.8588299185114787,
              53.64707579160999
            ],
            [
              -1.8599258631581042,
              53.64682552385765
            ],
            [
              -1.8602762061189109,
              53.64688409729451
            ],
            [
              -1.8597731495598042,
              53.64727280985952
            ],
            [
              -1.8596923011842332,
              53.647682817860165
            ],
            [
              -1.860410953411529,
              53.6478478848907
            ],
            [
              -1.860509768092782,
              53.64832178342021
            ],
            [
              -1.8603031555774348,
              53.648508146551436
            ],
            [
              -1.860599599621194,
              53.64880632584816
            ],
            [
              -1.860958925734842,
              53.64881697506979
            ],
            [
              -1.8607882458308591,
              53.64924294172848
            ],
            [
              -1.8590544973325083,
              53.65117571138165
            ],
            [
              -1.8591892446251264,
              53.65157503291125
            ],
            [
              -1.8598899305467396,
              53.652442878660786
            ],
            [
              -1.8595216212802508,
              53.65269311307425
            ],
            [
              -1.8588838174285258,
              53.65281024356597
            ],
            [
              -1.860455869175735,
              53.65333200271224
            ],
            [
              -1.8608421447479062,
              53.65294334600252
            ],
            [
              -1.8627825057616043,
              53.65324681798656
            ],
            [
              -1.8641838776048312,
              53.65360885188204
            ],
            [
              -1.8644623553429078,
              53.65390699510869
            ],
            [
              -1.861345201307013,
              53.65475349742118
            ],
            [
              -1.8612194371672364,
              53.65493983212568
            ],
            [
              -1.861596729586567,
              53.65520602313197
            ],
            [
              -1.861596729586567,
              53.65534444179101
            ],
            [
              -1.8612733360842835,
              53.65522199453892
            ],
            [
              -1.8609319762763181,
              53.65521667073726
            ],
            [
              -1.8607612963723357,
              53.65509954693114
            ],
            [
              -1.8601684082848167,
              53.655312499063896
            ],
            [
              -1.8590724636381908,
              53.65541365095008
            ],
            [
              -1.8586233059961312,
              53.65534444179101
            ],
            [
              -1.8583538114108953,
              53.6554349460531
            ]
          ]
        ]
      }
    }
  ]
}
