{
  "type": "FeatureCollection",
  "features": [
    {
      "type": "Feature",
      "properties": {
        "WardName": "Crosland Moor",
        "NoCllrs": 3,
        "Number": 9
      },
      "geometry": {
        "type": "Polygon",
        "coordinates": [
          [
            [
              -1.7887343768916324,
              53.64707579160999
            ],
            [
              -1.7884109833893493,
              53.647043842617926
            ],
            [
              -1.7880516572757015,
              53.64685747301513
            ],
            [
              -1.7878630110660363,
              53.64661785374408
            ],
            [
              -1.7876024996336417,
              53.6466072039671
            ],
            [
              -1.7876384322450065,
              53.64504165749404
            ],
            [
              -1.787018594698964,
              53.643950000562164
            ],
            [
              -1.786183161484733,
              53.64321511315288
            ],
            [
              -1.785491458715961,
              53.642922219674574
            ],
            [
              -1.7845482276676354,
              53.642687903427436
            ],
            [
              -1.7842428004710347,
              53.64251216538781
            ],
            [
              -1.7842787330823995,
              53.64228849773282
            ],
            [
              -1.78480873910003,
              53.64179322941861
            ],
            [
              -1.7859495995108619,
              53.64003577879152
            ],
            [
              -1.784161952095464,
              53.639146374356685
            ],
            [
              -1.7854645092574373,
              53.63913572269292
            ],
            [
              -1.7861292625676857,
              53.63821434359871
            ],
            [
              -1.7870365610046464,
              53.6379320673634
            ],
            [
              -1.7874497860353415,
              53.63766044127818
            ],
            [
              -1.787845044760354,
              53.63706392295296
            ],
            [
              -1.7905579569183951,
              53.6343635068005
            ],
            [
              -1.791896446691733,
              53.63377759487433
            ],
            [
              -1.7932529027707538,
              53.63293067143619
            ],
            [
              -1.7948519039764863,
              53.63231277945966
            ],
            [
              -1.796397006265172,
              53.63092248942709
            ],
            [
              -1.7972683720907678,
              53.630384472178086
            ],
            [
              -1.7974839677589565,
              53.63009148960304
            ],
            [
              -1.7995411097595901,
              53.6287330892652
            ],
            [
              -1.7999902674016501,
              53.628168408022326
            ],
            [
              -1.8022899545289959,
              53.62807251800415
            ],
            [
              -1.8030714888261798,
              53.62784344652315
            ],
            [
              -1.8044728606694063,
              53.627204170696615
            ],
            [
              -1.8044818438222476,
              53.625787074755074
            ],
            [
              -1.803960820957458,
              53.62538218146014
            ],
            [
              -1.803269118188686,
              53.62511047457107
            ],
            [
              -1.8025235165028668,
              53.62499326713768
            ],
            [
              -1.8027391121710559,
              53.62376256943454
            ],
            [
              -1.8028828426165149,
              53.62360273593101
            ],
            [
              -1.8030445393676564,
              53.623693308323986
            ],
            [
              -1.8031074214375447,
              53.62356011356115
            ],
            [
              -1.8025414828085493,
              53.62287814978983
            ],
            [
              -1.8034397980926689,
              53.62218019108303
            ],
            [
              -1.8035565790796046,
              53.62145558051996
            ],
            [
              -1.8056316873859206,
              53.62151951724648
            ],
            [
              -1.8050926982154487,
              53.620746941982254
            ],
            [
              -1.8051196476739726,
              53.62015551274134
            ],
            [
              -1.8054250748705731,
              53.61924437580242
            ],
            [
              -1.8061616934035511,
              53.6188181061543
            ],
            [
              -1.8086769761990855,
              53.61835986148168
            ],
            [
              -1.8102490279462948,
              53.61879146415837
            ],
            [
              -1.8107341181997192,
              53.61834920456965
            ],
            [
              -1.8114258209684913,
              53.61851971483943
            ],
            [
              -1.811686332400886,
              53.618343876112604
            ],
            [
              -1.814030935292438,
              53.619500135525094
            ],
            [
              -1.814228564654944,
              53.619409554133874
            ],
            [
              -1.8147046717555275,
              53.6197825350854
            ],
            [
              -1.8156029870396473,
              53.62001165032164
            ],
            [
              -1.8180553877652934,
              53.61997435257723
            ],
            [
              -1.8186303095471301,
              53.62004894803308
            ],
            [
              -1.8185943769357653,
              53.62014485628263
            ],
            [
              -1.8190255682721426,
              53.62037929775302
            ],
            [
              -1.8208850809102701,
              53.62034200033345
            ],
            [
              -1.8209299966744759,
              53.62094408322106
            ],
            [
              -1.8212444070239178,
              53.621482220834444
            ],
            [
              -1.8204898221852577,
              53.62239863741534
            ],
            [
              -1.821756446735866,
              53.62274495245446
            ],
            [
              -1.821756446735866,
              53.62285683824442
            ],
            [
              -1.8221067896966727,
              53.6229367564842
            ],
            [
              -1.822223570683608,
              53.622824870906115
            ],
            [
              -1.82524191003825,
              53.62383183043146
            ],
            [
              -1.8254305562479147,
              53.62418346143159
            ],
            [
              -1.8259875117240691,
              53.62404494047822
            ],
            [
              -1.8264366693661287,
              53.6236187193086
            ],
            [
              -1.8277392265281018,
              53.62283552668824
            ],
            [
              -1.828062620030385,
              53.62303798603739
            ],
            [
              -1.828538727130968,
              53.623091264652054
            ],
            [
              -1.828646524965063,
              53.62341093492773
            ],
            [
              -1.8294190761094054,
              53.62328839494158
            ],
            [
              -1.8293831434980408,
              53.623219133052864
            ],
            [
              -1.8344855743118396,
              53.62259044301886
            ],
            [
              -1.8346203216044574,
              53.622670361763056
            ],
            [
              -1.8350245634823112,
              53.62245191683709
            ],
            [
              -1.8351143950107232,
              53.62253716377195
            ],
            [
              -1.837584762042052,
              53.62220150297009
            ],
            [
              -1.8404953035625993,
              53.624087562358454
            ],
            [
              -1.8408725959819294,
              53.62467893650478
            ],
            [
              -1.8408276802177233,
              53.62574978211403
            ],
            [
              -1.8406120845495346,
              53.6262079465625
            ],
            [
              -1.8407558149949936,
              53.62676732664534
            ],
            [
              -1.8400102133091745,
              53.62785410103822
            ],
            [
              -1.8401090279904277,
              53.62796064604088
            ],
            [
              -1.8377015430289874,
              53.6285999104077
            ],
            [
              -1.837360183221022,
              53.62887159483111
            ],
            [
              -1.8380249365312704,
              53.629335052457485
            ],
            [
              -1.8355455863471009,
              53.6306348374939
            ],
            [
              -1.8324643649225707,
              53.63156170892443
            ],
            [
              -1.8313953697344687,
              53.63176945317601
            ],
            [
              -1.8293202614281525,
              53.632424639884846
            ],
            [
              -1.8279188895849257,
              53.63317569505914
            ],
            [
              -1.8262929389206697,
              53.633585840113064
            ],
            [
              -1.8258797138899743,
              53.63411316360946
            ],
            [
              -1.8244244431297008,
              53.63524768575688
            ],
            [
              -1.823454262622852,
              53.63576966222488
            ],
            [
              -1.8225020484216852,
              53.63613184618282
            ],
            [
              -1.8212623733296,
              53.63649935319705
            ],
            [
              -1.8208491482989053,
              53.63653131017743
            ],
            [
              -1.8203640580454805,
              53.636760334495
            ],
            [
              -1.8199867656261504,
              53.63633956793208
            ],
            [
              -1.8175433480533452,
              53.637074575139884
            ],
            [
              -1.8179206404726758,
              53.637042618571044
            ],
            [
              -1.8173277523851565,
              53.63735153105567
            ],
            [
              -1.8153784082186173,
              53.63782554753844
            ],
            [
              -1.8156658691095358,
              53.63823032144232
            ],
            [
              -1.8162138414328484,
              53.6381930397978
            ],
            [
              -1.8157557006379477,
              53.63837412176263
            ],
            [
              -1.815728751179424,
              53.63861911377188
            ],
            [
              -1.814866368506669,
              53.63913572269292
            ],
            [
              -1.8149382337293987,
              53.63946592301872
            ],
            [
              -1.8137794070128845,
              53.6396896056418
            ],
            [
              -1.811767180776457,
              53.639753514744825
            ],
            [
              -1.8050298161455605,
              53.64043520581867
            ],
            [
              -1.8024067355159314,
              53.64063225509209
            ],
            [
              -1.8008436669215637,
              53.64062692944815
            ],
            [
              -1.7996848402050492,
              53.64077072159841
            ],
            [
              -1.7988224575322946,
              53.64143641960961
            ],
            [
              -1.798552962947059,
              53.64150032606596
            ],
            [
              -1.7970797258811024,
              53.64247488752768
            ],
            [
              -1.795902932858906,
              53.64301275060325
            ],
            [
              -1.7948069882122801,
              53.643353571180015
            ],
            [
              -1.795292078465705,
              53.64343877589388
            ],
            [
              -1.7951393648674046,
              53.64378491827379
            ],
            [
              -1.7948249545179626,
              53.64396065101019
            ],
            [
              -1.795202246937293,
              53.64475410182408
            ],
            [
              -1.7952202132429755,
              53.646202510448866
            ],
            [
              -1.7928396777400584,
              53.64648473133851
            ],
            [
              -1.7915281374252439,
              53.64689474700157
            ],
            [
              -1.7896506584814342,
              53.646873447584774
            ],
            [
              -1.7887343768916324,
              53.64707579160999
            ]
          ]
        ]
      }
    }
  ]
}
