{
  "type": "FeatureCollection",
  "features": [
    {
      "type": "Feature",
      "properties": {
        "WardName": "Dewsbury South",
        "NoCllrs": 3,
        "Number": 13
      },
      "geometry": {
        "type": "Polygon",
        "coordinates": [
          [
            [
              -1.6337839735338562,
              53.688998621087755
            ],
            [
              -1.63253531528893,
              53.688817756513274
            ],
            [
              -1.629319346571782,
              53.687562322172326
            ],
            [
              -1.6282952671478859,
              53.687471886897335
            ],
            [
              -1.626696265942153,
              53.68753040386215
            ],
            [
              -1.6251511636534675,
              53.687317614509446
            ],
            [
              -1.6231299542641984,
              53.68663668135458
            ],
            [
              -1.622222655827238,
              53.6861685334231
            ],
            [
              -1.6215040035999422,
              53.68548758168629
            ],
            [
              -1.6212434921675476,
              53.684801298873005
            ],
            [
              -1.6214590878357362,
              53.683120124725974
            ],
            [
              -1.622186723215873,
              53.68127394795345
            ],
            [
              -1.6221238411459846,
              53.680773816971545
            ],
            [
              -1.62186332971359,
              53.68043861947882
            ],
            [
              -1.6209290818181057,
              53.67973097156688
            ],
            [
              -1.620075682298192,
              53.67949685986592
            ],
            [
              -1.6193570300708966,
              53.679486218394054
            ],
            [
              -1.6172010733890099,
              53.6799012338048
            ],
            [
              -1.6165902189958086,
              53.67985334761995
            ],
            [
              -1.6160961455895426,
              53.67962987803747
            ],
            [
              -1.6157997015457832,
              53.679230822262596
            ],
            [
              -1.6152157966111056,
              53.67758135161617
            ],
            [
              -1.614775622121887,
              53.67586264090601
            ],
            [
              -1.6147217232048399,
              53.67475581794204
            ],
            [
              -1.614317481326986,
              53.67397889599121
            ],
            [
              -1.6135000144184373,
              53.67343078489937
            ],
            [
              -1.6112362599024561,
              53.67276559195683
            ],
            [
              -1.6093497978058051,
              53.67239840095358
            ],
            [
              -1.608020291185308,
              53.67235582787659
            ],
            [
              -1.6075801166960897,
              53.67198331161797
            ],
            [
              -1.6084963982858915,
              53.67096153583006
            ],
            [
              -1.6070590938313003,
              53.66973750096209
            ],
            [
              -1.6067177340233347,
              53.66913611428246
            ],
            [
              -1.603726344127217,
              53.6693010973233
            ],
            [
              -1.6025585342578614,
              53.669109504054084
            ],
            [
              -1.5991179867196836,
              53.66739576995631
            ],
            [
              -1.5971776257059855,
              53.665969379113655
            ],
            [
              -1.5951384500110342,
              53.66471858621836
            ],
            [
              -1.5912307785251143,
              53.66287160286989
            ],
            [
              -1.5914823068046677,
              53.66261610600487
            ],
            [
              -1.5914104415819383,
              53.66234996179011
            ],
            [
              -1.5905570420620248,
              53.66175379265021
            ],
            [
              -1.5904672105336128,
              53.66123746077709
            ],
            [
              -1.590341446393836,
              53.66118423032742
            ],
            [
              -1.5904402610750892,
              53.6610990614681
            ],
            [
              -1.590305513782471,
              53.66105647697389
            ],
            [
              -1.5908804355643076,
              53.66049222836386
            ],
            [
              -1.591850616071157,
              53.660811615297284
            ],
            [
              -1.592641133521182,
              53.65947017391312
            ],
            [
              -1.5926590998268644,
              53.659331768801
            ],
            [
              -1.5924704536171994,
              53.65925724278315
            ],
            [
              -1.5925962177569761,
              53.65908689710468
            ],
            [
              -1.5932699542200657,
              53.65920933313066
            ],
            [
              -1.5943209831024854,
              53.65972036661636
            ],
            [
              -1.5952282815394463,
              53.65983747758419
            ],
            [
              -1.5953270962206993,
              53.6596937504419
            ],
            [
              -1.5954259109019526,
              53.65977892214095
            ],
            [
              -1.5961176136707245,
              53.65949679022872
            ],
            [
              -1.5960996473650422,
              53.659331768801
            ],
            [
              -1.5963511756445956,
              53.65922530302087
            ],
            [
              -1.5966386365355139,
              53.65893784407129
            ],
            [
              -1.5965667713127845,
              53.65887928737827
            ],
            [
              -1.5971416930946207,
              53.65894316740302
            ],
            [
              -1.5976896654179338,
              53.65873555696869
            ],
            [
              -1.5977435643349809,
              53.658586502692906
            ],
            [
              -1.5984622165622764,
              53.65838421390415
            ],
            [
              -1.5994593465276492,
              53.65835227348035
            ],
            [
              -1.599441380221967,
              53.65858117931617
            ],
            [
              -1.5996120601259496,
              53.658645059792676
            ],
            [
              -1.6003576618117688,
              53.658613119566525
            ],
            [
              -1.60036664496461,
              53.65852262212764
            ],
            [
              -1.6000971503793742,
              53.658464064857796
            ],
            [
              -1.6001690156021036,
              53.658245805226194
            ],
            [
              -1.6006181732441633,
              53.658171277288275
            ],
            [
              -1.6009774993578112,
              53.65821386469751
            ],
            [
              -1.602253107061261,
              53.65789978154298
            ],
            [
              -1.6031514223453804,
              53.65803819135713
            ],
            [
              -1.6035736305289165,
              53.65783057646548
            ],
            [
              -1.6040048218652938,
              53.657819929520386
            ],
            [
              -1.6044449963545124,
              53.65759101955063
            ],
            [
              -1.6046246594113363,
              53.65757504904123
            ],
            [
              -1.6047504235511132,
              53.65767619549854
            ],
            [
              -1.6054241600142027,
              53.65738340245653
            ],
            [
              -1.606035014407404,
              53.65729822591696
            ],
            [
              -1.60630450899264,
              53.657010753825354
            ],
            [
              -1.606502138355146,
              53.65719175500051
            ],
            [
              -1.6069153633858413,
              53.65696284161947
            ],
            [
              -1.6077507966000724,
              53.65709060738077
            ],
            [
              -1.6079035101983727,
              53.656968165200595
            ],
            [
              -1.6081280890194025,
              53.65696284161947
            ],
            [
              -1.6084874151330504,
              53.65714916655862
            ],
            [
              -1.6087299602597627,
              53.65709593094577
            ],
            [
              -1.6087838591768098,
              53.65697881236082
            ],
            [
              -1.6095025114041053,
              53.65699478309612
            ],
            [
              -1.6098618375177531,
              53.656781839461395
            ],
            [
              -1.6102481130899247,
              53.656936223703795
            ],
            [
              -1.6104816750637958,
              53.656925576532835
            ],
            [
              -1.6104367592995898,
              53.65674989782343
            ],
            [
              -1.6108499843302846,
              53.65655292385437
            ],
            [
              -1.6107601528018727,
              53.65635062530651
            ],
            [
              -1.6111284620683617,
              53.65619623891944
            ],
            [
              -1.611739316461563,
              53.65625479933972
            ],
            [
              -1.6167429325941087,
              53.65575969504119
            ],
            [
              -1.617677180489593,
              53.65559465898282
            ],
            [
              -1.6177670120180052,
              53.65541365095008
            ],
            [
              -1.6199589013112567,
              53.655312499063896
            ],
            [
              -1.6201385643680806,
              53.65538170827541
            ],
            [
              -1.6213243405431184,
              53.655365736928985
            ],
            [
              -1.621593835128354,
              53.65463104845266
            ],
            [
              -1.622375369425538,
              53.65443938848355
            ],
            [
              -1.6226538471636154,
              53.654460684078686
            ],
            [
              -1.6228784259846452,
              53.65425837549045
            ],
            [
              -1.6231299542641984,
              53.65435952990594
            ],
            [
              -1.6232736847096578,
              53.65426369941309
            ],
            [
              -1.623237752098293,
              53.65406671382707
            ],
            [
              -1.6233994488494345,
              53.65403477013182
            ],
            [
              -1.6254745571557505,
              53.654167868702444
            ],
            [
              -1.6273700024052429,
              53.65385375540142
            ],
            [
              -1.6289600204581343,
              53.653736627808755
            ],
            [
              -1.6290498519865462,
              53.65361417588672
            ],
            [
              -1.6296876558382711,
              53.6537419517973
            ],
            [
              -1.6298583357422538,
              53.653651443900635
            ],
            [
              -1.6300290156462365,
              53.6538111635872
            ],
            [
              -1.6301637629388546,
              53.65361417588672
            ],
            [
              -1.6305500385110256,
              53.65369403587622
            ],
            [
              -1.6306758026508024,
              53.653843107451884
            ],
            [
              -1.6308195330962618,
              53.654844002951954
            ],
            [
              -1.6311788592099095,
              53.65563192524603
            ],
            [
              -1.6311968255155918,
              53.65634530164739
            ],
            [
              -1.6309003814718324,
              53.657138519441425
            ],
            [
              -1.6310351287644504,
              53.65809142578002
            ],
            [
              -1.631295640196845,
              53.65797963341428
            ],
            [
              -1.631619033699128,
              53.65797963341428
            ],
            [
              -1.6316998820746988,
              53.65786251728459
            ],
            [
              -1.6319873429656169,
              53.6579423692265
            ],
            [
              -1.6323826016906295,
              53.65791042846789
            ],
            [
              -1.6322478543980117,
              53.658011574120465
            ],
            [
              -1.6324365006076769,
              53.658160630429244
            ],
            [
              -1.633182102293496,
              53.65805416169104
            ],
            [
              -1.633541428407144,
              53.658219188120626
            ],
            [
              -1.6340714344247742,
              53.658011574120465
            ],
            [
              -1.634287030092963,
              53.65819257099826
            ],
            [
              -1.6342600806344394,
              53.65833097985102
            ],
            [
              -1.6345116089139928,
              53.65834695007402
            ],
            [
              -1.6353380589753828,
              53.65873023361076
            ],
            [
              -1.6357153513947131,
              53.65870361681108
            ],
            [
              -1.6356434861719835,
              53.65857053256067
            ],
            [
              -1.6362902731765496,
              53.65853859227805
            ],
            [
              -1.6365507846089442,
              53.658645059792676
            ],
            [
              -1.6372155379191926,
              53.658469388249316
            ],
            [
              -1.6379880890635354,
              53.658565209181894
            ],
            [
              -1.6381408026618356,
              53.658687646723244
            ],
            [
              -1.6385899603038956,
              53.658671676629304
            ],
            [
              -1.638886404347655,
              53.658554562422374
            ],
            [
              -1.639398444059603,
              53.65868232335926
            ],
            [
              -1.6398206522431393,
              53.65859182606898
            ],
            [
              -1.6405123550119114,
              53.658639736423325
            ],
            [
              -1.6407010012215764,
              53.658469388249316
            ],
            [
              -1.64132982192046,
              53.658485358419874
            ],
            [
              -1.6415813502000134,
              53.65859182606898
            ],
            [
              -1.6419855920778672,
              53.658527945511786
            ],
            [
              -1.6420754236062793,
              53.658325656442024
            ],
            [
              -1.6424078002614035,
              53.65829903938688
            ],
            [
              -1.64380917210463,
              53.658565209181894
            ],
            [
              -1.6447164705415906,
              53.658458741465594
            ],
            [
              -1.6451746113364918,
              53.658517298742844
            ],
            [
              -1.6462256402189115,
              53.658842023985805
            ],
            [
              -1.6464951348041474,
              53.65878346715966
            ],
            [
              -1.646656831555289,
              53.658565209181894
            ],
            [
              -1.6468275114592714,
              53.65865570652935
            ],
            [
              -1.6470520902803014,
              53.65855988580249
            ],
            [
              -1.6473575174769022,
              53.65859714944439
            ],
            [
              -1.6474024332411081,
              53.65874088032591
            ],
            [
              -1.647770742507597,
              53.65880476056039
            ],
            [
              -1.6489475355297936,
              53.65988006331001
            ],
            [
              -1.649055333363888,
              53.66013557676135
            ],
            [
              -1.6492619458792355,
              53.66014089994178
            ],
            [
              -1.6493877100190122,
              53.66073709189595
            ],
            [
              -1.6501243285519902,
              53.66057739844942
            ],
            [
              -1.6502141600804021,
              53.660726445685015
            ],
            [
              -1.65057348619405,
              53.66183363722053
            ],
            [
              -1.649621271992883,
              53.661977357065915
            ],
            [
              -1.6497021203684539,
              53.662094461762756
            ],
            [
              -1.650115345399149,
              53.662014617686566
            ],
            [
              -1.6503668736787025,
              53.66246706545167
            ],
            [
              -1.6498728002724368,
              53.66256287729637
            ],
            [
              -1.6499626318008487,
              53.66291418553014
            ],
            [
              -1.6514897677838518,
              53.6632495224761
            ],
            [
              -1.6530348700725375,
              53.6630951613562
            ],
            [
              -1.6543643766930343,
              53.663654052383826
            ],
            [
              -1.6567089795845864,
              53.664361970379005
            ],
            [
              -1.6610119097955187,
              53.66323355411059
            ],
            [
              -1.6613173369921193,
              53.663877606719616
            ],
            [
              -1.662035989219415,
              53.66471326361608
            ],
            [
              -1.6621168375949857,
              53.66513906967446
            ],
            [
              -1.661892258773956,
              53.66629404694511
            ],
            [
              -1.662404298485904,
              53.66723077945513
            ],
            [
              -1.6625390457785219,
              53.667715104574974
            ],
            [
              -1.6624402310972688,
              53.66785880436385
            ],
            [
              -1.6627007425296634,
              53.66857197384253
            ],
            [
              -1.6634014284512766,
              53.67006213976155
            ],
            [
              -1.663976350233113,
              53.67084977759989
            ],
            [
              -1.6635990578137831,
              53.671754478568864
            ],
            [
              -1.6639853333859544,
              53.67288798824674
            ],
            [
              -1.6648836486700738,
              53.67344674940093
            ],
            [
              -1.6621258207478269,
              53.67523473529376
            ],
            [
              -1.660562752153459,
              53.67600099173176
            ],
            [
              -1.6539960674265455,
              53.678235826731715
            ],
            [
              -1.6521814705526239,
              53.67916697298776
            ],
            [
              -1.6505016209713204,
              53.68036945141017
            ],
            [
              -1.649612288840042,
              53.680704649453396
            ],
            [
              -1.648273799066704,
              53.68081106097273
            ],
            [
              -1.6458573309524225,
              53.68071529061743
            ],
            [
              -1.6445637569432905,
              53.680550352272796
            ],
            [
              -1.6431623851000638,
              53.679943799256726
            ],
            [
              -1.641608299658537,
              53.67895414137261
            ],
            [
              -1.6406471023045293,
              53.67856040004943
            ],
            [
              -1.6395511576579034,
              53.67829435653124
            ],
            [
              -1.6381408026618356,
              53.67829967741806
            ],
            [
              -1.6366945150544032,
              53.67864021277724
            ],
            [
              -1.6362992563293908,
              53.6792893506795
            ],
            [
              -1.6360567112026785,
              53.68043329886217
            ],
            [
              -1.6361824753424552,
              53.68121010177581
            ],
            [
              -1.637458083045905,
              53.68484385937278
            ],
            [
              -1.6375389314214757,
              53.686211092541036
            ],
            [
              -1.6374311335873812,
              53.68706226586679
            ],
            [
              -1.636999942251004,
              53.68788682361884
            ],
            [
              -1.6361824753424552,
              53.68848262304236
            ],
            [
              -1.6349966991674174,
              53.68888159115769
            ],
            [
              -1.6337839735338562,
              53.688998621087755
            ]
          ]
        ]
      }
    }
  ]
}
