{
  "type": "FeatureCollection",
  "features": [
    {
      "type": "Feature",
      "properties": {
        "WardName": "Dewsbury East",
        "NoCllrs": 3,
        "Number": 12
      },
      "geometry": {
        "type": "Polygon",
        "coordinates": [
          [
            [
              -1.5979052610861222,
              53.70960677335667
            ],
            [
              -1.596827282745179,
              53.709489800714216
            ],
            [
              -1.596782366980973,
              53.7092824393215
            ],
            [
              -1.5957313380985532,
              53.709309024172555
            ],
            [
              -1.5946264102990861,
              53.708867713470156
            ],
            [
              -1.5931352069274478,
              53.70815522618148
            ],
            [
              -1.5929375775649415,
              53.70773517205205
            ],
            [
              -1.592587234604135,
              53.70744272682764
            ],
            [
              -1.5922368916433283,
              53.70732574816875
            ],
            [
              -1.591805700306951,
              53.70728321039396
            ],
            [
              -1.5914194247347795,
              53.707405506380525
            ],
            [
              -1.5913206100535264,
              53.70732574816875
            ],
            [
              -1.5888322767165153,
              53.70693758937973
            ],
            [
              -1.587170393440894,
              53.706879099388765
            ],
            [
              -1.5864786906721222,
              53.706304829705
            ],
            [
              -1.586065465641427,
              53.70506586934136
            ],
            [
              -1.5841969698504583,
              53.70309302884001
            ],
            [
              -1.584448498130012,
              53.70301326245395
            ],
            [
              -1.5850324030646896,
              53.703108982099096
            ],
            [
              -1.5852120661215137,
              53.7030451690265
            ],
            [
              -1.5864697075192808,
              53.7030451690265
            ],
            [
              -1.5882034560176315,
              53.702539978786625
            ],
            [
              -1.5899192382102998,
              53.702290040320314
            ],
            [
              -1.5903594126995184,
              53.702072007680016
            ],
            [
              -1.5912307785251143,
              53.70135940531818
            ],
            [
              -1.5933238531371128,
              53.70051383910171
            ],
            [
              -1.5950216690240986,
              53.699997982186055
            ],
            [
              -1.5953270962206993,
              53.70013625373213
            ],
            [
              -1.595812186474124,
              53.70062020056616
            ],
            [
              -1.5983723850338645,
              53.69977993767117
            ],
            [
              -1.5985250986321649,
              53.69926407176022
            ],
            [
              -1.5995761275145848,
              53.69807808800875
            ],
            [
              -1.6005013922572278,
              53.69741860276571
            ],
            [
              -1.6013727580828239,
              53.69646126709122
            ],
            [
              -1.601893780947613,
              53.69625916010982
            ],
            [
              -1.6021542923800078,
              53.69624852287338
            ],
            [
              -1.602064460851596,
              53.695987909741184
            ],
            [
              -1.6025046353408143,
              53.69551986577933
            ],
            [
              -1.6025315847993378,
              53.69531243554109
            ],
            [
              -1.6022890396726257,
              53.69529116058705
            ],
            [
              -1.6022351407555786,
              53.69518478565564
            ],
            [
              -1.602262090214102,
              53.69439228395545
            ],
            [
              -1.6024148038124024,
              53.69424867466809
            ],
            [
              -1.6023159891311494,
              53.694179529280895
            ],
            [
              -1.6023878543538788,
              53.693668913674934
            ],
            [
              -1.6025585342578614,
              53.69333913780444
            ],
            [
              -1.6019027641004542,
              53.69270085458744
            ],
            [
              -1.6024687027294495,
              53.692323199127244
            ],
            [
              -1.6024956521879732,
              53.6921689445141
            ],
            [
              -1.596917114273591,
              53.691615750908774
            ],
            [
              -1.5969530468849558,
              53.691493409033754
            ],
            [
              -1.595497776124682,
              53.69128063970867
            ],
            [
              -1.5947521744388629,
              53.69146681292692
            ],
            [
              -1.5922997737132165,
              53.691562558832885
            ],
            [
              -1.5921650264205987,
              53.691498728253094
            ],
            [
              -1.5923446894774225,
              53.69095616441766
            ],
            [
              -1.592093161197869,
              53.69016890249791
            ],
            [
              -1.5921201106563927,
              53.689636960434775
            ],
            [
              -1.5919224812938864,
              53.68933375045165
            ],
            [
              -1.5930813080104005,
              53.688961384327115
            ],
            [
              -1.5935394488053014,
              53.6886262519994
            ],
            [
              -1.5942401347269146,
              53.6877804299775
            ],
            [
              -1.5958840516968535,
              53.686785636423146
            ],
            [
              -1.596926097426432,
              53.685753579769056
            ],
            [
              -1.5975010192082686,
              53.68542906188259
            ],
            [
              -1.5978244127105516,
              53.684450173108694
            ],
            [
              -1.5980579746844228,
              53.684498054067134
            ],
            [
              -1.5984532334094352,
              53.684045842844355
            ],
            [
              -1.5987317111475123,
              53.684083083952046
            ],
            [
              -1.5988395089816068,
              53.68370003098567
            ],
            [
              -1.6022261576027372,
              53.683976680699786
            ],
            [
              -1.602756163620368,
              53.68350318296709
            ],
            [
              -1.6027022647033207,
              53.68310416389032
            ],
            [
              -1.6035287147647106,
              53.68238592002494
            ],
            [
              -1.6034927821533458,
              53.682087978234456
            ],
            [
              -1.603879057725517,
              53.68171022757694
            ],
            [
              -1.6041844849221178,
              53.68101324211879
            ],
            [
              -1.6045258447300832,
              53.680592917068736
            ],
            [
              -1.6046965246340659,
              53.67961391587906
            ],
            [
              -1.6050468675948726,
              53.679390445026215
            ],
            [
              -1.6060170481017215,
              53.679177614540286
            ],
            [
              -1.607499268320519,
              53.67908716125809
            ],
            [
              -1.6096821744609293,
              53.678480587170434
            ],
            [
              -1.6108140517189198,
              53.67787400434752
            ],
            [
              -1.6115866028632628,
              53.678022990411534
            ],
            [
              -1.6123591540076057,
              53.677730338715286
            ],
            [
              -1.613760525850832,
              53.677836757749176
            ],
            [
              -1.6141108688116386,
              53.67758667259306
            ],
            [
              -1.6144342623139216,
              53.67771437583703
            ],
            [
              -1.6152517292224704,
              53.67757603063856
            ],
            [
              -1.6157997015457832,
              53.679230822262596
            ],
            [
              -1.6163207244105724,
              53.679752254384255
            ],
            [
              -1.6167249662884264,
              53.67987463037549
            ],
            [
              -1.6172729386117393,
              53.67989591312029
            ],
            [
              -1.6193570300708966,
              53.679486218394054
            ],
            [
              -1.620075682298192,
              53.67949685986592
            ],
            [
              -1.6209739975823116,
              53.679752254384255
            ],
            [
              -1.6220250264647316,
              53.680603558261
            ],
            [
              -1.622186723215873,
              53.68127394795345
            ],
            [
              -1.6214590878357362,
              53.683120124725974
            ],
            [
              -1.6212434921675476,
              53.684801298873005
            ],
            [
              -1.621584851975513,
              53.6855993010857
            ],
            [
              -1.6224831672596325,
              53.68633344976546
            ],
            [
              -1.624019286395477,
              53.68696650972657
            ],
            [
              -1.6254745571557505,
              53.68739209090523
            ],
            [
              -1.6267591480120416,
              53.68753572358219
            ],
            [
              -1.6282952671478859,
              53.687471886897335
            ],
            [
              -1.6292654476547348,
              53.68755168273828
            ],
            [
              -1.63268802888723,
              53.68886031295364
            ],
            [
              -1.6337031251582854,
              53.68899330155254
            ],
            [
              -1.6347541540407051,
              53.6889135084436
            ],
            [
              -1.6348170361105934,
              53.68920076292806
            ],
            [
              -1.6346822888179755,
              53.689355028416436
            ],
            [
              -1.6358411155344899,
              53.68954652961569
            ],
            [
              -1.6350056823202588,
              53.69005719522213
            ],
            [
              -1.6353380589753828,
              53.69063168662595
            ],
            [
              -1.6367843465828151,
              53.68966355769755
            ],
            [
              -1.6375299482686343,
              53.689753988265295
            ],
            [
              -1.638158768967518,
              53.68964759934192
            ],
            [
              -1.63847317931696,
              53.68990825172671
            ],
            [
              -1.6381138532033122,
              53.69007315342253
            ],
            [
              -1.6382306341902477,
              53.690264651355555
            ],
            [
              -1.6381228363561533,
              53.69070083784043
            ],
            [
              -1.6376557124084112,
              53.691248724217175
            ],
            [
              -1.6391379326272084,
              53.69245085768999
            ],
            [
              -1.6368023128884976,
              53.693535939844416
            ],
            [
              -1.636999942251004,
              53.693892308764624
            ],
            [
              -1.6379701227578531,
              53.694519936244056
            ],
            [
              -1.6385360613868483,
              53.69428590675257
            ],
            [
              -1.6394972587408563,
              53.69466886342488
            ],
            [
              -1.6408447316670354,
              53.69492416593763
            ],
            [
              -1.6410064284181771,
              53.69511032304372
            ],
            [
              -1.6411142262522715,
              53.69538157906741
            ],
            [
              -1.639398444059603,
              53.69583898722689
            ],
            [
              -1.639209797849938,
              53.695987909741184
            ],
            [
              -1.6375658808799993,
              53.69659423168139
            ],
            [
              -1.6386528423737838,
              53.69726968531303
            ],
            [
              -1.6398386185488216,
              53.698583331809246
            ],
            [
              -1.6378533417709176,
              53.69906729649944
            ],
            [
              -1.637592830338523,
              53.69874819952648
            ],
            [
              -1.6372335042248751,
              53.6987854276313
            ],
            [
              -1.6367034982072444,
              53.69894497627909
            ],
            [
              -1.636901127569751,
              53.69919493461127
            ],
            [
              -1.6356704356305072,
              53.69956189202662
            ],
            [
              -1.6352482274469708,
              53.69888647517845
            ],
            [
              -1.634287030092963,
              53.69929066294112
            ],
            [
              -1.6330293886951956,
              53.69939702749669
            ],
            [
              -1.6326251468173418,
              53.69890243003214
            ],
            [
              -1.6314932695593514,
              53.698487601870625
            ],
            [
              -1.6306668194979612,
              53.69843441847732
            ],
            [
              -1.6306219037337553,
              53.6982216842321
            ],
            [
              -1.6302176618559017,
              53.698200410748434
            ],
            [
              -1.6300739314104427,
              53.698620560059915
            ],
            [
              -1.6298403694365713,
              53.698620560059915
            ],
            [
              -1.6288252731655164,
              53.70050320294048
            ],
            [
              -1.6281425535495855,
              53.70055638371975
            ],
            [
              -1.627612547531955,
              53.700455340181705
            ],
            [
              -1.6285557785802804,
              53.69937575460707
            ],
            [
              -1.62840306498198,
              53.69906729649944
            ],
            [
              -1.6280886546325384,
              53.699056659972655
            ],
            [
              -1.6281515367024266,
              53.698248276071546
            ],
            [
              -1.6277023790603669,
              53.6982323209699
            ],
            [
              -1.6266244007194235,
              53.698439736819694
            ],
            [
              -1.626786097470565,
              53.69900879556885
            ],
            [
              -1.626741181706359,
              53.699423618593585
            ],
            [
              -1.6253308267102915,
              53.69931725410522
            ],
            [
              -1.6248367533040258,
              53.69966293770966
            ],
            [
              -1.623525212989211,
              53.70060424636362
            ],
            [
              -1.6226358808579329,
              53.70145512872503
            ],
            [
              -1.6221418074516671,
              53.70219963667971
            ],
            [
              -1.6218812960192726,
              53.70338550429546
            ],
            [
              -1.6197702551015916,
              53.70430545929377
            ],
            [
              -1.618548546315189,
              53.7046830072587
            ],
            [
              -1.6178119277822112,
              53.70477872310593
            ],
            [
              -1.616203943423637,
              53.70460324388633
            ],
            [
              -1.6160961455895426,
              53.704815945876604
            ],
            [
              -1.6154044428207706,
              53.704901026371665
            ],
            [
              -1.6152696955281527,
              53.70519348926149
            ],
            [
              -1.6129250926366008,
              53.70548595011863
            ],
            [
              -1.611281175666662,
              53.705459362851975
            ],
            [
              -1.6107062538848256,
              53.70532110879458
            ],
            [
              -1.6092509831245518,
              53.705331743738185
            ],
            [
              -1.6081280890194025,
              53.7058103134192
            ],
            [
              -1.60811012271372,
              53.70549126756996
            ],
            [
              -1.606358407909687,
              53.705517854816435
            ],
            [
              -1.6062775595341163,
              53.70537428348579
            ],
            [
              -1.6057745029750095,
              53.70538491841599
            ],
            [
              -1.6057475535164858,
              53.7055763466996
            ],
            [
              -1.6048582213852076,
              53.70560293389236
            ],
            [
              -1.6038071925027877,
              53.705475315214
            ],
            [
              -1.6042653332976886,
              53.70725130703465
            ],
            [
              -1.6015434379868065,
              53.707017348327305
            ],
            [
              -1.6014985222226006,
              53.70732574816875
            ],
            [
              -1.5995581612089023,
              53.70716623129157
            ],
            [
              -1.598120856754311,
              53.70951106849159
            ],
            [
              -1.5979052610861222,
              53.70960677335667
            ]
          ]
        ]
      }
    }
  ]
}
