{
  "type": "FeatureCollection",
  "features": [
    {
      "type": "Feature",
      "properties": {
        "WardName": "Heckmondwike",
        "NoCllrs": 3,
        "Number": 16
      },
      "geometry": {
        "type": "Polygon",
        "coordinates": [
          [
            [
              -1.6669677401292313,
              53.72322654525157
            ],
            [
              -1.6658268797183995,
              53.7226790751018
            ],
            [
              -1.666222138443412,
              53.72240267969738
            ],
            [
              -1.664515339403585,
              53.721254556264476
            ],
            [
              -1.6643805921109671,
              53.72105788382821
            ],
            [
              -1.6637068556478773,
              53.71866053236237
            ],
            [
              -1.6605537690006178,
              53.71356770041557
            ],
            [
              -1.6598620662318457,
              53.71103700345914
            ],
            [
              -1.6596195211051337,
              53.7107020468658
            ],
            [
              -1.6598530830790046,
              53.71048937462878
            ],
            [
              -1.6593500265198975,
              53.70998959064002
            ],
            [
              -1.6591164645460266,
              53.71005339318192
            ],
            [
              -1.658397812318731,
              53.70918141673435
            ],
            [
              -1.6589278183363616,
              53.70908571090169
            ],
            [
              -1.6601585102756053,
              53.707405506380525
            ],
            [
              -1.6601315608170817,
              53.706873782112815
            ],
            [
              -1.6604100385551588,
              53.70560293389236
            ],
            [
              -1.657158137226646,
              53.703417410585814
            ],
            [
              -1.660059695594352,
              53.70215177585018
            ],
            [
              -1.6605268195420941,
              53.7018220664344
            ],
            [
              -1.660419021708,
              53.70176356933279
            ],
            [
              -1.662494130014316,
              53.70082228660804
            ],
            [
              -1.6631319338660409,
              53.701035007709095
            ],
            [
              -1.6633565126870706,
              53.700923329265095
            ],
            [
              -1.6632487148529764,
              53.70049256677658
            ],
            [
              -1.6646950024604088,
              53.699880982830685
            ],
            [
              -1.6655663682860047,
              53.699646983144255
            ],
            [
              -1.6651890758666745,
              53.69899815902725
            ],
            [
              -1.6654675536047516,
              53.69895029455691
            ],
            [
              -1.665710098731464,
              53.69928002647079
            ],
            [
              -1.6664197678059183,
              53.698556740181466
            ],
            [
              -1.666913841212184,
              53.69825359443743
            ],
            [
              -1.666913841212184,
              53.69748774283247
            ],
            [
              -1.6673180830900378,
              53.696434674122806
            ],
            [
              -1.6661502732206823,
              53.69374869777164
            ],
            [
              -1.6663209531246652,
              53.693743378836565
            ],
            [
              -1.6664736667229656,
              53.693913584425644
            ],
            [
              -1.6674348640769734,
              53.693780611367956
            ],
            [
              -1.6676953755093682,
              53.6938391195651
            ],
            [
              -1.668252330985522,
              53.693535939844416
            ],
            [
              -1.669024882129865,
              53.69354657776633
            ],
            [
              -1.6697255680514782,
              53.69339764661515
            ],
            [
              -1.6704621865844562,
              53.69349338812997
            ],
            [
              -1.671189821964593,
              53.69341360354939
            ],
            [
              -1.673031368297038,
              53.69388167093009
            ],
            [
              -1.6742081613192346,
              53.69448802320818
            ],
            [
              -1.6755466510925727,
              53.694652906966404
            ],
            [
              -1.675879027747697,
              53.69461567520649
            ],
            [
              -1.6763551348482801,
              53.694727370387454
            ],
            [
              -1.6776666751630946,
              53.694679501060484
            ],
            [
              -1.6781068496523133,
              53.69454653042213
            ],
            [
              -1.6787536366568794,
              53.694599718727865
            ],
            [
              -1.6803616210154533,
              53.694977353766205
            ],
            [
              -1.6835147076627128,
              53.695275204364464
            ],
            [
              -1.6855628665105054,
              53.69504649784293
            ],
            [
              -1.6859850746940415,
              53.69489225320821
            ],
            [
              -1.6865240638645131,
              53.694902890787375
            ],
            [
              -1.6867666089912254,
              53.69478055846471
            ],
            [
              -1.6885991721708293,
              53.69491352836383
            ],
            [
              -1.6896322347475667,
              53.69470609513775
            ],
            [
              -1.6896591842060904,
              53.69461567520649
            ],
            [
              -1.6908539435339691,
              53.69441887821416
            ],
            [
              -1.6920037870976423,
              53.694493342049164
            ],
            [
              -1.6938632997357697,
              53.69369018944885
            ],
            [
              -1.694752631867048,
              53.69350934502792
            ],
            [
              -1.6966750265750639,
              53.69484970286468
            ],
            [
              -1.6977170723046424,
              53.69502522275449
            ],
            [
              -1.6978069038330545,
              53.69555177803294
            ],
            [
              -1.6987052191171739,
              53.696806974152004
            ],
            [
              -1.6972140157455355,
              53.69810467993893
            ],
            [
              -1.6962797678500512,
              53.699301299408766
            ],
            [
              -1.695632980845485,
              53.700396841180385
            ],
            [
              -1.6954084020244553,
              53.701258363708035
            ],
            [
              -1.695111957980696,
              53.70511372685675
            ],
            [
              -1.694851446548301,
              53.705703965071585
            ],
            [
              -1.6938453334300874,
              53.70643244586759
            ],
            [
              -1.6928482034647145,
              53.70693758937973
            ],
            [
              -1.69010834184815,
              53.70753843639755
            ],
            [
              -1.6895603695248373,
              53.707814929487746
            ],
            [
              -1.6875301769827271,
              53.709149514814314
            ],
            [
              -1.6865330470173543,
              53.71021821596736
            ],
            [
              -1.684350140876944,
              53.7113347404144
            ],
            [
              -1.6814665488149203,
              53.714306677741135
            ],
            [
              -1.6795890698711105,
              53.71558257925677
            ],
            [
              -1.6803167052512473,
              53.71601318728358
            ],
            [
              -1.6811701047711607,
              53.716853126057636
            ],
            [
              -1.6808736607274015,
              53.716959446225516
            ],
            [
              -1.6815294308848088,
              53.71778341841446
            ],
            [
              -1.6809275596444486,
              53.717953526791646
            ],
            [
              -1.6812599362995726,
              53.71837879472471
            ],
            [
              -1.6803885704739767,
              53.71862863763021
            ],
            [
              -1.6804784020023888,
              53.71872432175418
            ],
            [
              -1.6803346715569296,
              53.71887316329213
            ],
            [
              -1.6805053514609123,
              53.719059214473845
            ],
            [
              -1.6799933117489643,
              53.719266527678286
            ],
            [
              -1.67966093509384,
              53.71955357504358
            ],
            [
              -1.6791219459233682,
              53.71972899191349
            ],
            [
              -1.6789422828665443,
              53.72017550428091
            ],
            [
              -1.6762742864727094,
              53.72039875868693
            ],
            [
              -1.6755736005510962,
              53.72018081987577
            ],
            [
              -1.6753580048829075,
              53.72007982345838
            ],
            [
              -1.6752052912846074,
              53.719303737632444
            ],
            [
              -1.6741722287078697,
              53.718373478902066
            ],
            [
              -1.6716030469952878,
              53.719511049631606
            ],
            [
              -1.6697525175100019,
              53.72061138082892
            ],
            [
              -1.6685308087235993,
              53.72157879800262
            ],
            [
              -1.6670665548104844,
              53.723253121291044
            ],
            [
              -1.6669677401292313,
              53.72322654525157
            ]
          ]
        ]
      }
    }
  ]
}
