{
  "type": "FeatureCollection",
  "features": [
    {
      "type": "Feature",
      "properties": {
        "WardName": "Kirkburton",
        "NoCllrs": 3,
        "Number": 19
      },
      "geometry": {
        "type": "Polygon",
        "coordinates": [
          [
            [
              -1.6567089795845864,
              53.664361970379005
            ],
            [
              -1.6543643766930343,
              53.663654052383826
            ],
            [
              -1.6530348700725375,
              53.6630951613562
            ],
            [
              -1.6514897677838518,
              53.6632495224761
            ],
            [
              -1.6499626318008487,
              53.66291418553014
            ],
            [
              -1.6498728002724368,
              53.66256287729637
            ],
            [
              -1.6503668736787025,
              53.66246706545167
            ],
            [
              -1.650115345399149,
              53.662014617686566
            ],
            [
              -1.6497021203684539,
              53.662094461762756
            ],
            [
              -1.649621271992883,
              53.661977357065915
            ],
            [
              -1.65057348619405,
              53.66183363722053
            ],
            [
              -1.6502141600804021,
              53.660726445685015
            ],
            [
              -1.6501243285519902,
              53.66057739844942
            ],
            [
              -1.6493877100190122,
              53.66073709189595
            ],
            [
              -1.6492619458792355,
              53.66014089994178
            ],
            [
              -1.649055333363888,
              53.66013557676135
            ],
            [
              -1.6489475355297936,
              53.65988006331001
            ],
            [
              -1.647770742507597,
              53.65880476056039
            ],
            [
              -1.6474024332411081,
              53.65874088032591
            ],
            [
              -1.6473754837825845,
              53.65860247281911
            ],
            [
              -1.6470520902803014,
              53.65855988580249
            ],
            [
              -1.6468275114592714,
              53.65865570652935
            ],
            [
              -1.646656831555289,
              53.658565209181894
            ],
            [
              -1.6464951348041474,
              53.65878346715966
            ],
            [
              -1.6462256402189115,
              53.658842023985805
            ],
            [
              -1.6451746113364918,
              53.658517298742844
            ],
            [
              -1.6447164705415906,
              53.658458741465594
            ],
            [
              -1.64380917210463,
              53.658565209181894
            ],
            [
              -1.6424078002614035,
              53.65829903938688
            ],
            [
              -1.6420754236062793,
              53.658325656442024
            ],
            [
              -1.6419855920778672,
              53.658527945511786
            ],
            [
              -1.6415813502000134,
              53.65859182606898
            ],
            [
              -1.64132982192046,
              53.658485358419874
            ],
            [
              -1.6407010012215764,
              53.658469388249316
            ],
            [
              -1.6405123550119114,
              53.658639736423325
            ],
            [
              -1.6398206522431393,
              53.65859182606898
            ],
            [
              -1.639398444059603,
              53.65868232335926
            ],
            [
              -1.638886404347655,
              53.658554562422374
            ],
            [
              -1.6385899603038956,
              53.658671676629304
            ],
            [
              -1.6381408026618356,
              53.658687646723244
            ],
            [
              -1.6379880890635354,
              53.658565209181894
            ],
            [
              -1.6372155379191926,
              53.658469388249316
            ],
            [
              -1.6365507846089442,
              53.658645059792676
            ],
            [
              -1.6362902731765496,
              53.65853859227805
            ],
            [
              -1.6356434861719835,
              53.65857053256067
            ],
            [
              -1.6357153513947131,
              53.65870361681108
            ],
            [
              -1.6353380589753828,
              53.65873023361076
            ],
            [
              -1.6345116089139928,
              53.65834695007402
            ],
            [
              -1.6342600806344394,
              53.65833097985102
            ],
            [
              -1.634287030092963,
              53.65819257099826
            ],
            [
              -1.6340714344247742,
              53.658011574120465
            ],
            [
              -1.633541428407144,
              53.658219188120626
            ],
            [
              -1.633182102293496,
              53.65805416169104
            ],
            [
              -1.6324365006076769,
              53.658160630429244
            ],
            [
              -1.6322478543980117,
              53.658011574120465
            ],
            [
              -1.6323826016906295,
              53.65791042846789
            ],
            [
              -1.6319873429656169,
              53.6579423692265
            ],
            [
              -1.6316998820746988,
              53.65786251728459
            ],
            [
              -1.631619033699128,
              53.65797963341428
            ],
            [
              -1.631295640196845,
              53.65797963341428
            ],
            [
              -1.6310620782229739,
              53.65809674921861
            ],
            [
              -1.6309452972360385,
              53.6579956037704
            ],
            [
              -1.6310620782229739,
              53.65791042846789
            ],
            [
              -1.6309183477775149,
              53.65777201823421
            ],
            [
              -1.6309003814718324,
              53.657138519441425
            ],
            [
              -1.6311968255155918,
              53.65634530164739
            ],
            [
              -1.6311788592099095,
              53.65563192524603
            ],
            [
              -1.6308195330962618,
              53.654844002951954
            ],
            [
              -1.6305500385110256,
              53.65369403587622
            ],
            [
              -1.6301637629388546,
              53.65361417588672
            ],
            [
              -1.6300290156462365,
              53.6538111635872
            ],
            [
              -1.6298583357422538,
              53.653651443900635
            ],
            [
              -1.6296876558382711,
              53.6537419517973
            ],
            [
              -1.6290498519865462,
              53.65361417588672
            ],
            [
              -1.6289600204581343,
              53.653736627808755
            ],
            [
              -1.6273700024052429,
              53.65385375540142
            ],
            [
              -1.6254745571557505,
              53.654167868702444
            ],
            [
              -1.6241001347710478,
              53.654098657498146
            ],
            [
              -1.6247469217756136,
              53.65395491078774
            ],
            [
              -1.6246750565528842,
              53.65379519164576
            ],
            [
              -1.6248816690682317,
              53.65359820387065
            ],
            [
              -1.6245133598017425,
              53.653156309026926
            ],
            [
              -1.6239833537841122,
              53.65306579987299
            ],
            [
              -1.624019286395477,
              53.65275700247371
            ],
            [
              -1.6236689434346703,
              53.6525706581213
            ],
            [
              -1.6236779265875114,
              53.652432230354925
            ],
            [
              -1.6238935222557003,
              53.652421582046365
            ],
            [
              -1.623920471714224,
              53.652224587853155
            ],
            [
              -1.6237318255045585,
              53.652054213754596
            ],
            [
              -1.6233455499323872,
              53.65204888955293
            ],
            [
              -1.623336566779546,
              53.65177735437605
            ],
            [
              -1.6235072466835287,
              53.651676193765
            ],
            [
              -1.6233724993909109,
              53.65137803476262
            ],
            [
              -1.6228604596789626,
              53.65128219749265
            ],
            [
              -1.6227526618448684,
              53.651127792543946
            ],
            [
              -1.6224562178011088,
              53.65103195470517
            ],
            [
              -1.622042992770414,
              53.65020135097729
            ],
            [
              -1.6216207845868778,
              53.650100186584936
            ],
            [
              -1.621584851975513,
              53.64963163254972
            ],
            [
              -1.6218184139493839,
              53.64950916870498
            ],
            [
              -1.6213423068488007,
              53.64900333601245
            ],
            [
              -1.6213692563073243,
              53.648710482732746
            ],
            [
              -1.6210548459578824,
              53.648603990126766
            ],
            [
              -1.6208302671368526,
              53.647773338569834
            ],
            [
              -1.620390092647634,
              53.64726748505406
            ],
            [
              -1.6195007605163556,
              53.646868122728904
            ],
            [
              -1.6194378784464674,
              53.64671902649127
            ],
            [
              -1.6195726257390852,
              53.64661785374408
            ],
            [
              -1.619195333319755,
              53.64631965897195
            ],
            [
              -1.6198600866300035,
              53.645355836447585
            ],
            [
              -1.6198600866300035,
              53.645073608003
            ],
            [
              -1.620111614909557,
              53.644924505420725
            ],
            [
              -1.6205428062459344,
              53.644248212090254
            ],
            [
              -1.6205068736345696,
              53.6440618301323
            ],
            [
              -1.6207763682198055,
              53.643635811135354
            ],
            [
              -1.6210009470408353,
              53.64362516060532
            ],
            [
              -1.6211985764033416,
              53.64336422177867
            ],
            [
              -1.6214680709885774,
              53.64332694467163
            ],
            [
              -1.6218273971022252,
              53.64296482248873
            ],
            [
              -1.6221957063687142,
              53.64294352108705
            ],
            [
              -1.6227167292335036,
              53.64222459247068
            ],
            [
              -1.622599948246568,
              53.64145239623278
            ],
            [
              -1.623058089041469,
              53.641026350877326
            ],
            [
              -1.6233006341681813,
              53.63993991574221
            ],
            [
              -1.6237677581159233,
              53.6393966876807
            ],
            [
              -1.6234174151551168,
              53.6392688682966
            ],
            [
              -1.6231658868755632,
              53.63810782448653
            ],
            [
              -1.6226538471636154,
              53.63790543743238
            ],
            [
              -1.6223035042028087,
              53.63746337812163
            ],
            [
              -1.6220340096175727,
              53.637394139496735
            ],
            [
              -1.620758401914123,
              53.63836879583359
            ],
            [
              -1.6194378784464674,
              53.63913572269292
            ],
            [
              -1.618548546315189,
              53.638427381016136
            ],
            [
              -1.6171920902361685,
              53.637713701432745
            ],
            [
              -1.617165140777645,
              53.637356857113154
            ],
            [
              -1.6157997015457832,
              53.634720376440846
            ],
            [
              -1.6148564704974577,
              53.63417708116116
            ],
            [
              -1.613580862794008,
              53.633761615344184
            ],
            [
              -1.6121435583394168,
              53.632706952972484
            ],
            [
              -1.6124849181473824,
              53.63254715334354
            ],
            [
              -1.6156380047946417,
              53.63183337427841
            ],
            [
              -1.615691903711689,
              53.630235317666816
            ],
            [
              -1.6153954596679294,
              53.63021933679504
            ],
            [
              -1.6153325775980412,
              53.62995831503278
            ],
            [
              -1.613760525850832,
              53.629510845397995
            ],
            [
              -1.611559653404739,
              53.628418786486975
            ],
            [
              -1.6106972707319844,
              53.628232334580055
            ],
            [
              -1.6103109951598131,
              53.627918028072095
            ],
            [
              -1.6119549121297516,
              53.62675667185589
            ],
            [
              -1.6145690096065395,
              53.625925589990516
            ],
            [
              -1.615467324890659,
              53.626080087216785
            ],
            [
              -1.615880549921354,
              53.62600550241953
            ],
            [
              -1.6160512298253367,
              53.626122707041716
            ],
            [
              -1.6160512298253367,
              53.626405062294886
            ],
            [
              -1.6165812358429672,
              53.62647431895523
            ],
            [
              -1.6166261516071732,
              53.626602177106534
            ],
            [
              -1.6171831070833274,
              53.626548902923915
            ],
            [
              -1.6170932755549154,
              53.62679396360719
            ],
            [
              -1.618090405520288,
              53.62687387439188
            ],
            [
              -1.6189527881930428,
              53.62725211671953
            ],
            [
              -1.619653474114656,
              53.62722548004686
            ],
            [
              -1.619931951852733,
              53.62743857295748
            ],
            [
              -1.620668570385711,
              53.627651664792054
            ],
            [
              -1.6212345090147064,
              53.62744390026645
            ],
            [
              -1.6218992623249548,
              53.627497173319234
            ],
            [
              -1.6221148579931435,
              53.627875410060255
            ],
            [
              -1.622959274360216,
              53.62795531879713
            ],
            [
              -1.6231479205698809,
              53.62807251800415
            ],
            [
              -1.6238575896443352,
              53.62786475555058
            ],
            [
              -1.6247648880812962,
              53.627971300526355
            ],
            [
              -1.6253487930159738,
              53.627800828436
            ],
            [
              -1.625447607697227,
              53.62785410103822
            ],
            [
              -1.625357776168815,
              53.627971300526355
            ],
            [
              -1.6256721865182568,
              53.627992609489205
            ],
            [
              -1.6262740577586168,
              53.62847205830907
            ],
            [
              -1.627244238265466,
              53.62846140395003
            ],
            [
              -1.6274418676279723,
              53.62825364341111
            ],
            [
              -1.6283761155234566,
              53.628722434972055
            ],
            [
              -1.6284569638990274,
              53.62891421183685
            ],
            [
              -1.629085784597911,
              53.6289088847135
            ],
            [
              -1.6299571504235069,
              53.628546638747004
            ],
            [
              -1.6313675054195744,
              53.62839215055072
            ],
            [
              -1.6315381853235573,
              53.62826429782262
            ],
            [
              -1.6312597075854802,
              53.628093826915915
            ],
            [
              -1.6313046233496862,
              53.628013918441326
            ],
            [
              -1.6322478543980117,
              53.6277315739526
            ],
            [
              -1.6322478543980117,
              53.6276463375093
            ],
            [
              -1.6325173489832476,
              53.62767830119571
            ],
            [
              -1.6325622647474536,
              53.62758241006386
            ],
            [
              -1.6333348158917962,
              53.627342681280865
            ],
            [
              -1.6341612659531863,
              53.62691649341519
            ],
            [
              -1.6342960132458042,
              53.62697509450194
            ],
            [
              -1.6346643225122932,
              53.62682060055223
            ],
            [
              -1.6347541540407051,
              53.626692743062684
            ],
            [
              -1.6356884019361895,
              53.62655423034522
            ],
            [
              -1.6358411155344899,
              53.62635178786341
            ],
            [
              -1.6360926438140433,
              53.62631449572136
            ],
            [
              -1.6364429867748498,
              53.62609074217705
            ],
            [
              -1.6369819759453217,
              53.626016157398645
            ],
            [
              -1.6427491600693689,
              53.624321981930315
            ],
            [
              -1.6434767954495058,
              53.62402362952197
            ],
            [
              -1.6447793526114791,
              53.62326175576706
            ],
            [
              -1.648004304481468,
              53.62232937406651
            ],
            [
              -1.6488397376956994,
              53.62245191683709
            ],
            [
              -1.6488846534599053,
              53.62257445925184
            ],
            [
              -1.6485792262633048,
              53.62296872373776
            ],
            [
              -1.648740923014446,
              53.62350150773235
            ],
            [
              -1.6490643165167291,
              53.623730602782274
            ],
            [
              -1.6522443526225123,
              53.62279290354362
            ],
            [
              -1.6542655620117812,
              53.62266503385148
            ],
            [
              -1.6549392984748708,
              53.62252117998478
            ],
            [
              -1.6558106643004666,
              53.62212691131828
            ],
            [
              -1.6565203333749212,
              53.62210559939354
            ],
            [
              -1.6569066089470925,
              53.62211092737575
            ],
            [
              -1.657795941078371,
              53.622681017584206
            ],
            [
              -1.658307980790319,
              53.62316585459962
            ],
            [
              -1.6593500265198975,
              53.623293722774456
            ],
            [
              -1.6625120963199984,
              53.62237199767925
            ],
            [
              -1.6659167112468114,
              53.62219617499934
            ],
            [
              -1.6673090999371967,
              53.622286750410765
            ],
            [
              -1.6675336787582264,
              53.622206830940186
            ],
            [
              -1.6676953755093682,
              53.622563803403814
            ],
            [
              -1.6674977461468616,
              53.622952740113995
            ],
            [
              -1.666868925447978,
              53.623485524310354
            ],
            [
              -1.666500616181489,
              53.623656013832765
            ],
            [
              -1.6683152130554104,
              53.62416215054526
            ],
            [
              -1.6721240698600772,
              53.62390641907022
            ],
            [
              -1.6740195151095696,
              53.62364535825779
            ],
            [
              -1.6740374814152519,
              53.623272411438876
            ],
            [
              -1.6768492082545459,
              53.622297406328734
            ],
            [
              -1.677136669145464,
              53.62192977560395
            ],
            [
              -1.6785290578358494,
              53.62099203635616
            ],
            [
              -1.6788075355739265,
              53.6205604561792
            ],
            [
              -1.6797238171637283,
              53.62033134392181
            ],
            [
              -1.6800382275131702,
              53.62040593874679
            ],
            [
              -1.68048738515523,
              53.62035798494586
            ],
            [
              -1.6801370421944235,
              53.62018748210135
            ],
            [
              -1.6788434681852913,
              53.61994771131105
            ],
            [
              -1.6778553213727596,
              53.61909518191521
            ],
            [
              -1.6770558207698933,
              53.618786135757176
            ],
            [
              -1.6768312419488636,
              53.617981539456785
            ],
            [
              -1.6764090337653272,
              53.617555257056424
            ],
            [
              -1.6748639314766418,
              53.61681458114858
            ],
            [
              -1.6749807124635774,
              53.616713336669605
            ],
            [
              -1.6738757846641104,
              53.61599396101145
            ],
            [
              -1.6746124031970884,
              53.61408622398461
            ],
            [
              -1.6754298701056372,
              53.61421411966549
            ],
            [
              -1.6767863261846576,
              53.61427806736063
            ],
            [
              -1.6770558207698933,
              53.612396898845525
            ],
            [
              -1.6740374814152519,
              53.61197588931486
            ],
            [
              -1.6719533899560945,
              53.61146960647181
            ],
            [
              -1.6715581312310819,
              53.61128840903185
            ],
            [
              -1.6707676137810568,
              53.610558282056544
            ],
            [
              -1.6698333658855726,
              53.609940062484455
            ],
            [
              -1.669581837606019,
              53.609289856272405
            ],
            [
              -1.6692674272565773,
              53.60909799023124
            ],
            [
              -1.6688811516844058,
              53.6084051333802
            ],
            [
              -1.6686835223218994,
              53.60777622270382
            ],
            [
              -1.6687374212389467,
              53.60726988950615
            ],
            [
              -1.6681714826099514,
              53.60665695172334
            ],
            [
              -1.6669677401292313,
              53.60634248453846
            ],
            [
              -1.6665994308627423,
              53.60535642818322
            ],
            [
              -1.6661862058320471,
              53.60508992251359
            ],
            [
              -1.666078407997953,
              53.60474346262893
            ],
            [
              -1.6656112840502109,
              53.60444497183384
            ],
            [
              -1.6655484019803222,
              53.6040878461465
            ],
            [
              -1.6645243225564261,
              53.603821332471895
            ],
            [
              -1.6640841480672075,
              53.60352283515977
            ],
            [
              -1.6635631252024183,
              53.60163052633827
            ],
            [
              -1.6625390457785219,
              53.60031918655311
            ],
            [
              -1.661443101131896,
              53.599780779161925
            ],
            [
              -1.661110724476772,
              53.59947692245642
            ],
            [
              -1.6610747918654072,
              53.59915707093148
            ],
            [
              -1.6605807184591415,
              53.59917306356525
            ],
            [
              -1.6605717353063,
              53.598981151560466
            ],
            [
              -1.6599159651488928,
              53.59870394379216
            ],
            [
              -1.6597273189392279,
              53.598506698695495
            ],
            [
              -1.660607667917665,
              53.59827213576013
            ],
            [
              -1.6610478424068835,
              53.59792028891507
            ],
            [
              -1.66139818536769,
              53.59793628201704
            ],
            [
              -1.6620090397608913,
              53.59756310805981
            ],
            [
              -1.6633475295342295,
              53.59721658643358
            ],
            [
              -1.664470423639379,
              53.59663015874482
            ],
            [
              -1.664757884530297,
              53.59658217793732
            ],
            [
              -1.6655484019803222,
              53.596129023178726
            ],
            [
              -1.6662401047490942,
              53.59551059237114
            ],
            [
              -1.666994689587755,
              53.59523869320289
            ],
            [
              -1.667973853247445,
              53.594476299928715
            ],
            [
              -1.6680906342343806,
              53.59424704611397
            ],
            [
              -1.6637966871762893,
              53.591933112392546
            ],
            [
              -1.665440604146228,
              53.59040819279083
            ],
            [
              -1.6695279386889719,
              53.58906451173045
            ],
            [
              -1.674046464568093,
              53.58800873235268
            ],
            [
              -1.6759688592761088,
              53.5881793651502
            ],
            [
              -1.6806400987535304,
              53.58721421431669
            ],
            [
              -1.6815653634961734,
              53.58684627808546
            ],
            [
              -1.6823648640990398,
              53.58673429685754
            ],
            [
              -1.683020634256447,
              53.58617971878399
            ],
            [
              -1.6831194489377002,
              53.58569445700006
            ],
            [
              -1.6835596234269188,
              53.58552914676838
            ],
            [
              -1.6840447136803434,
              53.58516652851157
            ],
            [
              -1.684305225112738,
              53.584606597151144
            ],
            [
              -1.6850777762570808,
              53.58367336173267
            ],
            [
              -1.6862276198207538,
              53.583316060432026
            ],
            [
              -1.6867216932270195,
              53.582697442083415
            ],
            [
              -1.6875481432884094,
              53.5823134675201
            ],
            [
              -1.6896502010532493,
              53.58356137209773
            ],
            [
              -1.6899466450970084,
              53.58347071360452
            ],
            [
              -1.6900724092367851,
              53.583204069850424
            ],
            [
              -1.6903868195862273,
              53.583001419472325
            ],
            [
              -1.6905395331845274,
              53.58258011689248
            ],
            [
              -1.6909527582152224,
              53.58246279137586
            ],
            [
              -1.690880892992493,
              53.58227080346444
            ],
            [
              -1.6912222528004583,
              53.582265470454445
            ],
            [
              -1.6920127702504835,
              53.58140151395277
            ],
            [
              -1.6929739676044915,
              53.5808148667561
            ],
            [
              -1.6930188833686974,
              53.580158878885335
            ],
            [
              -1.6944472046704475,
              53.578660201735275
            ],
            [
              -1.6952197558147901,
              53.57830819156791
            ],
            [
              -1.6968367233262052,
              53.57818552066939
            ],
            [
              -1.6972409652040592,
              53.578062849414906
            ],
            [
              -1.6983818256148908,
              53.577257477121925
            ],
            [
              -1.698516572907509,
              53.577006795197825
            ],
            [
              -1.6989477642438862,
              53.57669744098721
            ],
            [
              -1.6992981072046929,
              53.57612672986562
            ],
            [
              -1.7004479507683656,
              53.57585470596573
            ],
            [
              -1.7017864405417038,
              53.57534265622976
            ],
            [
              -1.702442210699111,
              53.57524131231771
            ],
            [
              -1.7040681613633675,
              53.57476659286411
            ],
            [
              -1.7093682215396726,
              53.57378513349761
            ],
            [
              -1.714488618659154,
              53.573438416862814
            ],
            [
              -1.715422866554638,
              53.57406783880331
            ],
            [
              -1.7167613563279762,
              53.574691917408735
            ],
            [
              -1.7181447618655203,
              53.575753363281045
            ],
            [
              -1.7221242985741698,
              53.577070799234654
            ],
            [
              -1.721998534434393,
              53.57749749033724
            ],
            [
              -1.7222231132554229,
              53.57795084491518
            ],
            [
              -1.7228519339543067,
              53.577364149830295
            ],
            [
              -1.7240017775179797,
              53.57667077241479
            ],
            [
              -1.723741266085585,
              53.57649475941496
            ],
            [
              -1.725591795570871,
              53.5749639487899
            ],
            [
              -1.7260768858242956,
              53.57438254625993
            ],
            [
              -1.7272716451521748,
              53.57518263941549
            ],
            [
              -1.728852680052225,
              53.57430253611167
            ],
            [
              -1.7295084502096323,
              53.57476125890738
            ],
            [
              -1.7306762600789878,
              53.575257314004176
            ],
            [
              -1.7306582937733053,
              53.575438666027615
            ],
            [
              -1.73152067644606,
              53.57599338503534
            ],
            [
              -1.7306762600789878,
              53.57679878140897
            ],
            [
              -1.7308649062886527,
              53.5772894789627
            ],
            [
              -1.7302091361312455,
              53.5786442013367
            ],
            [
              -1.7298677763232801,
              53.5797482146307
            ],
            [
              -1.7286460675368776,
              53.58079353397735
            ],
            [
              -1.729724045877821,
              53.58078820078097
            ],
            [
              -1.7303887991880693,
              53.58093219684677
            ],
            [
              -1.7313949123062833,
              53.580873531842144
            ],
            [
              -1.7323650928131322,
              53.58106552609994
            ],
            [
              -1.7324100085773384,
              53.581673502163376
            ],
            [
              -1.7328142504551922,
              53.58230813451549
            ],
            [
              -1.732670520009733,
              53.5836520303965
            ],
            [
              -1.7324369580358618,
              53.58418531057074
            ],
            [
              -1.7329220482892864,
              53.584499942717635
            ],
            [
              -1.733317307014299,
              53.585054542832914
            ],
            [
              -1.7337484983506763,
              53.58510786938357
            ],
            [
              -1.734089858158642,
              53.58478257637804
            ],
            [
              -1.7348174935387788,
              53.584766578296765
            ],
            [
              -1.7348534261501434,
              53.58455326996804
            ],
            [
              -1.7355002131547095,
              53.584334627813824
            ],
            [
              -1.7354103816262976,
              53.584217307167265
            ],
            [
              -1.7356978425172158,
              53.58414798117757
            ],
            [
              -1.7359583539496104,
              53.58429196579822
            ],
            [
              -1.7362008990763227,
              53.58420664163779
            ],
            [
              -1.736353612674623,
              53.58397733210314
            ],
            [
              -1.7367039556354298,
              53.58395066812304
            ],
            [
              -1.7369105681507773,
              53.584217307167265
            ],
            [
              -1.737548372002502,
              53.584478611798644
            ],
            [
              -1.7382580410769564,
              53.58446794633512
            ],
            [
              -1.7405307787457789,
              53.58515053057564
            ],
            [
              -1.7412404478202332,
              53.58519319172468
            ],
            [
              -1.741465026641263,
              53.585113202034954
            ],
            [
              -1.742560971287889,
              53.58509720407884
            ],
            [
              -1.74256995444073,
              53.58524651810038
            ],
            [
              -1.7443935344674928,
              53.58514519792901
            ],
            [
              -1.7491635886261674,
              53.58440395349737
            ],
            [
              -1.7505829267750763,
              53.58428130028757
            ],
            [
              -1.7507625898319001,
              53.58439862075653
            ],
            [
              -1.7513195453080543,
              53.584435949928356
            ],
            [
              -1.7513464947665778,
              53.58455326996804
            ],
            [
              -1.752226843745015,
              53.58485190132685
            ],
            [
              -1.7514992083648782,
              53.58585443402797
            ],
            [
              -1.7523436247319504,
              53.58609973096136
            ],
            [
              -1.7525682035529804,
              53.58673429685754
            ],
            [
              -1.7530712601120872,
              53.58692093207257
            ],
            [
              -1.7534036367672117,
              53.58646767369204
            ],
            [
              -1.75572129020024,
              53.587160890423704
            ],
            [
              -1.7566465549428831,
              53.58604640566216
            ],
            [
              -1.7580030110219036,
              53.58632369648325
            ],
            [
              -1.7596559111446834,
              53.58703824521445
            ],
            [
              -1.7614076259487166,
              53.5886752628073
            ],
            [
              -1.7605362601231205,
              53.58918715105937
            ],
            [
              -1.759503197546383,
              53.589549734819705
            ],
            [
              -1.7571765609605134,
              53.58968303689066
            ],
            [
              -1.7575089376156379,
              53.590365536905864
            ],
            [
              -1.7573652071701786,
              53.59063213548039
            ],
            [
              -1.7581467414673626,
              53.590973379201436
            ],
            [
              -1.7590091241401173,
              53.5911066767815
            ],
            [
              -1.7588025116247699,
              53.591367938818664
            ],
            [
              -1.7591887871969412,
              53.59213571994623
            ],
            [
              -1.757607752296891,
              53.59229567259187
            ],
            [
              -1.75775148274235,
              53.592482283246454
            ],
            [
              -1.7575718196855261,
              53.59281284866873
            ],
            [
              -1.756781302235501,
              53.59326070737347
            ],
            [
              -1.7568172348468658,
              53.59343665056582
            ],
            [
              -1.7565387571087887,
              53.59368723505983
            ],
            [
              -1.7550206042786267,
              53.59399646494005
            ],
            [
              -1.7550116211257853,
              53.59414574752048
            ],
            [
              -1.7544366993439489,
              53.59434834446457
            ],
            [
              -1.754849924374644,
              53.59584113410139
            ],
            [
              -1.7559099364099051,
              53.59723791092342
            ],
            [
              -1.7559099364099051,
              53.59734453321119
            ],
            [
              -1.7551823010297682,
              53.59744582413528
            ],
            [
              -1.7552451830996567,
              53.59953556163997
            ],
            [
              -1.7553709472394334,
              53.59966883220891
            ],
            [
              -1.7549038232916911,
              53.600052649098366
            ],
            [
              -1.7549128064445323,
              53.60031918655311
            ],
            [
              -1.7565746897201535,
              53.602344816248504
            ],
            [
              -1.7565118076502653,
              53.602488738872765
            ],
            [
              -1.7572663924889256,
              53.603240326832
            ],
            [
              -1.7583623371355512,
              53.60484473581226
            ],
            [
              -1.7591798040441,
              53.60450360412081
            ],
            [
              -1.7603476139134555,
              53.60486072629269
            ],
            [
              -1.7602218497736788,
              53.60538840875057
            ],
            [
              -1.7603476139134555,
              53.60669426123395
            ],
            [
              -1.7606260916515326,
              53.60668893130588
            ],
            [
              -1.7612998281146222,
              53.60693943719799
            ],
            [
              -1.761380676490193,
              53.6073551671014
            ],
            [
              -1.7616771205339523,
              53.60758967960045
            ],
            [
              -1.7631503575999083,
              53.60788814817033
            ],
            [
              -1.7636264647004918,
              53.60818128489099
            ],
            [
              -1.7637162962289037,
              53.60842112251259
            ],
            [
              -1.7640307065783456,
              53.608389144241755
            ],
            [
              -1.7643451169277873,
              53.60901804579015
            ],
            [
              -1.764327150622105,
              53.60988676726997
            ],
            [
              -1.7649200387096238,
              53.61012659520535
            ],
            [
              -1.7656027583255547,
              53.61089403544522
            ],
            [
              -1.7656386909369195,
              53.61122445680857
            ],
            [
              -1.7667436187363863,
              53.611597510078944
            ],
            [
              -1.7673365068239053,
              53.612343606731926
            ],
            [
              -1.7682438052608662,
              53.612391569637175
            ],
            [
              -1.7702470483444526,
              53.612173071516416
            ],
            [
              -1.7716933359518852,
              53.61211444987698
            ],
            [
              -1.7727174153757812,
              53.61213043760491
            ],
            [
              -1.7735528485900123,
              53.61241288646649
            ],
            [
              -1.7762747439008946,
              53.6139796439546
            ],
            [
              -1.777029328739555,
              53.61493352565156
            ],
            [
              -1.7771550928793318,
              53.615647590581894
            ],
            [
              -1.7767688173071603,
              53.61570087852525
            ],
            [
              -1.776481356416242,
              53.61595665971713
            ],
            [
              -1.7759064346344056,
              53.61614316585922
            ],
            [
              -1.7742894671229905,
              53.61639894437142
            ],
            [
              -1.7734630170616004,
              53.61709167005997
            ],
            [
              -1.7689085585711146,
              53.61761919969089
            ],
            [
              -1.768657030291561,
              53.617608542591874
            ],
            [
              -1.768558215610308,
              53.61742737149693
            ],
            [
              -1.7681180411210893,
              53.617384742891
            ],
            [
              -1.7678575296886947,
              53.61758189983256
            ],
            [
              -1.767049045932987,
              53.6176671566032
            ],
            [
              -1.7665459893738802,
              53.61794956842606
            ],
            [
              -1.7662854779414856,
              53.617992196461636
            ],
            [
              -1.7661507306488677,
              53.61786431222579
            ],
            [
              -1.7658273371465845,
              53.617874969260264
            ],
            [
              -1.7646774935829115,
              53.618125408795336
            ],
            [
              -1.764228335940852,
              53.61842913134436
            ],
            [
              -1.7619555982720294,
              53.619073868459715
            ],
            [
              -1.7616322047697464,
              53.61928700253048
            ],
            [
              -1.7597457426730954,
              53.61993172654327
            ],
            [
              -1.7594223491708123,
              53.61991041351015
            ],
            [
              -1.7588474273889758,
              53.620134199821216
            ],
            [
              -1.758712680096358,
              53.62004361979061
            ],
            [
              -1.7584252192054397,
              53.62015551274134
            ],
            [
              -1.7582275898429334,
              53.619963696072794
            ],
            [
              -1.7580658930917918,
              53.61996902432534
            ],
            [
              -1.7580389436332684,
              53.62010223042085
            ],
            [
              -1.7578233479650796,
              53.620171497424366
            ],
            [
              -1.7574819881571142,
              53.620160840969696
            ],
            [
              -1.7572124935718785,
              53.62001165032164
            ],
            [
              -1.756826217999707,
              53.620294046459875
            ],
            [
              -1.756502824497424,
              53.620224779657455
            ],
            [
              -1.75609858261957,
              53.62031003109046
            ],
            [
              -1.755631458671828,
              53.62072030120369
            ],
            [
              -1.754805008610438,
              53.6210240050826
            ],
            [
              -1.7546882276235025,
              53.621279754022616
            ],
            [
              -1.7542839857456487,
              53.62124778548983
            ],
            [
              -1.7540055080075716,
              53.621471564710674
            ],
            [
              -1.7536731313524474,
              53.621439596323206
            ],
            [
              -1.753475501989941,
              53.6217965752757
            ],
            [
              -1.7531521084876582,
              53.62170599881241
            ],
            [
              -1.7527748160683279,
              53.621935103608315
            ],
            [
              -1.752047180688191,
              53.6220629755118
            ],
            [
              -1.7516698882688608,
              53.62228142245075
            ],
            [
              -1.7515171746705605,
              53.62257978717486
            ],
            [
              -1.751068017028501,
              53.62273429664946
            ],
            [
              -1.7510590338756598,
              53.62283552668824
            ],
            [
              -1.750708690914853,
              53.62289413344179
            ],
            [
              -1.7505200447051878,
              53.62305929749131
            ],
            [
              -1.7502415669671108,
              53.6230486417657
            ],
            [
              -1.749873257700622,
              53.62324044441535
            ],
            [
              -1.7498642745477806,
              53.62332568975765
            ],
            [
              -1.7500978365216517,
              53.62338429583058
            ],
            [
              -1.7499900386875573,
              53.62351749114829
            ],
            [
              -1.748921043499455,
              53.62355478576192
            ],
            [
              -1.7490198581807084,
              53.623730602782274
            ],
            [
              -1.7489030771937726,
              53.62386379700706
            ],
            [
              -1.7475645874204346,
              53.62474819599786
            ],
            [
              -1.7472411939181516,
              53.624737540698646
            ],
            [
              -1.7472322107653104,
              53.62482278301715
            ],
            [
              -1.7474657727391816,
              53.624817455377276
            ],
            [
              -1.7474567895863402,
              53.62495597379516
            ],
            [
              -1.746980682485757,
              53.62501990521932
            ],
            [
              -1.7468639014988214,
              53.62512112977614
            ],
            [
              -1.7465854237607443,
              53.62501457760433
            ],
            [
              -1.7461182998130023,
              53.6252543196126
            ],
            [
              -1.7449235404851233,
              53.6255793010495
            ],
            [
              -1.7446720122055697,
              53.625430129553116
            ],
            [
              -1.7445013323015872,
              53.62568052426461
            ],
            [
              -1.7437736969214503,
              53.62569117932576
            ],
            [
              -1.7435581012532617,
              53.62580838482089
            ],
            [
              -1.7429921626242664,
              53.62567519673303
            ],
            [
              -1.7420668978816232,
              53.625957554980296
            ],
            [
              -1.7418423190605934,
              53.62649030124533
            ],
            [
              -1.7414829929469455,
              53.62652226580739
            ],
            [
              -1.7411775657503448,
              53.626405062294886
            ],
            [
              -1.7409260374707916,
              53.6265861948588
            ],
            [
              -1.740908071165109,
              53.6267353622689
            ],
            [
              -1.7405936608156671,
              53.626836582711185
            ],
            [
              -1.7406206102741908,
              53.62692182079006
            ],
            [
              -1.7399378906582599,
              53.627193516017456
            ],
            [
              -1.7393539857235822,
              53.62730006268798
            ],
            [
              -1.7394977161690415,
              53.62748651871407
            ],
            [
              -1.7391833058195996,
              53.627822137484955
            ],
            [
              -1.7385904177320806,
              53.628269625027364
            ],
            [
              -1.7373327763343132,
              53.62881832351341
            ],
            [
              -1.737224978500219,
              53.629042062595836
            ],
            [
              -1.736766837705318,
              53.62936168779858
            ],
            [
              -1.7364254778973527,
              53.6294629019414
            ],
            [
              -1.7359224213382456,
              53.62935636073171
            ],
            [
              -1.7351947859581087,
              53.62949486425185
            ],
            [
              -1.733919178254659,
              53.63011279749529
            ],
            [
              -1.7330028966648572,
              53.630176721107425
            ],
            [
              -1.733083745040428,
              53.63043241458762
            ],
            [
              -1.7328591662193982,
              53.63045372230769
            ],
            [
              -1.7328142504551922,
              53.63057091457576
            ],
            [
              -1.7319608509352786,
              53.63067745271886
            ],
            [
              -1.732068648769373,
              53.630437741518634
            ],
            [
              -1.7316015248216308,
              53.630389799115186
            ],
            [
              -1.7313679628477598,
              53.63062951058777
            ],
            [
              -1.7307211758431937,
              53.63082660566726
            ],
            [
              -1.7306493106204641,
              53.630933143164725
            ],
            [
              -1.7303618497295459,
              53.630890528198
            ],
            [
              -1.7302271024369278,
              53.63105033410127
            ],
            [
              -1.7299755741573746,
              53.63093847003254
            ],
            [
              -1.729957607851692,
              53.63110360260121
            ],
            [
              -1.7301732035198807,
              53.63117285155054
            ],
            [
              -1.7300564225329453,
              53.63130602228757
            ],
            [
              -1.7296431975022502,
              53.63126873452356
            ],
            [
              -1.7295264165153146,
              53.63110360260121
            ],
            [
              -1.729220989318714,
              53.63106098780664
            ],
            [
              -1.729086242026096,
              53.63138592452804
            ],
            [
              -1.7280801289078822,
              53.631732165821575
            ],
            [
              -1.728116061519247,
              53.63193990923387
            ],
            [
              -1.7278914826982172,
              53.63201448354265
            ],
            [
              -1.7278555500868524,
              53.63214765162333
            ],
            [
              -1.7275321565845694,
              53.63214765162333
            ],
            [
              -1.727478257667522,
              53.63241398652379
            ],
            [
              -1.727136897859557,
              53.63236604636578
            ],
            [
              -1.726867403274321,
              53.632541826678825
            ],
            [
              -1.7265799423834027,
              53.63252052001322
            ],
            [
              -1.7266338413004498,
              53.632712279616364
            ],
            [
              -1.7262924814924843,
              53.63269629968272
            ],
            [
              -1.7261218015885016,
              53.63289338510796
            ],
            [
              -1.7262565488811197,
              53.6329732843424
            ],
            [
              -1.7260589195186133,
              53.633053183425545
            ],
            [
              -1.7261667173527075,
              53.63325026718369
            ],
            [
              -1.7258882396146307,
              53.63323428745381
            ],
            [
              -1.725816374391901,
              53.63342604381291
            ],
            [
              -1.7252414526100646,
              53.63367639108116
            ],
            [
              -1.7253672167498413,
              53.63330353290624
            ],
            [
              -1.7250617895532407,
              53.632275492585364
            ],
            [
              -1.7252414526100646,
              53.63204111719242
            ],
            [
              -1.724900092802099,
              53.63189196853721
            ],
            [
              -1.7244599183128806,
              53.63207840427384
            ],
            [
              -1.724253305797533,
              53.63176945317601
            ],
            [
              -1.7239927943651385,
              53.6317055319768
            ],
            [
              -1.7238490639196793,
              53.63136461727871
            ],
            [
              -1.7243341541731037,
              53.630879874449604
            ],
            [
              -1.724019743823662,
              53.63080529813548
            ],
            [
              -1.723876013378203,
              53.63062951058777
            ],
            [
              -1.7232921084435253,
              53.630464376163694
            ],
            [
              -1.7230675296224953,
              53.63013943234543
            ],
            [
              -1.7227082035088475,
              53.629931680068296
            ],
            [
              -1.722914816024195,
              53.629723926768264
            ],
            [
              -1.723884996531044,
              53.62949486425185
            ],
            [
              -1.7239119459895678,
              53.629388323122875
            ],
            [
              -1.723606518792967,
              53.62926047341299
            ],
            [
              -1.7236334682514904,
              53.62887692195917
            ],
            [
              -1.7229507486355597,
              53.62793400981544
            ],
            [
              -1.7219266692116635,
              53.62715622461924
            ],
            [
              -1.7213876800411918,
              53.626298513364674
            ],
            [
              -1.7209295392462907,
              53.62623991133839
            ],
            [
              -1.7207678424951494,
              53.62600550241953
            ],
            [
              -1.7208666571764024,
              53.625755109636195
            ],
            [
              -1.7216481914735866,
              53.625280957529455
            ],
            [
              -1.7210642865389087,
              53.62465762586865
            ],
            [
              -1.7206061457440078,
              53.624646970546564
            ],
            [
              -1.720381566922978,
              53.62493466329892
            ],
            [
              -1.7200851228792184,
              53.62487073174568
            ],
            [
              -1.718683751035992,
              53.624199444589244
            ],
            [
              -1.7185040879791682,
              53.62421010002433
            ],
            [
              -1.718261542852456,
              53.62365068604562
            ],
            [
              -1.7175967895422075,
              53.623767897207586
            ],
            [
              -1.7176237390007312,
              53.623837158195734
            ],
            [
              -1.717264412887083,
              53.62397567983106
            ],
            [
              -1.7169140699262766,
              53.623996990811534
            ],
            [
              -1.7172374634285597,
              53.624423208161076
            ],
            [
              -1.7169050867734355,
              53.6244338635397
            ],
            [
              -1.716752373175135,
              53.62460967689804
            ],
            [
              -1.7165367775069464,
              53.624481812710044
            ],
            [
              -1.7161774513932986,
              53.62451377879337
            ],
            [
              -1.71611456932341,
              53.62436460353076
            ],
            [
              -1.7155306643887327,
              53.62416747826786
            ],
            [
              -1.7147940458557545,
              53.62430599881905
            ],
            [
              -1.714353871366536,
              53.62403428500146
            ],
            [
              -1.7139675957943645,
              53.624087562358454
            ],
            [
              -1.7138777642659526,
              53.62418878915148
            ],
            [
              -1.7140125115585705,
              53.62426870486924
            ],
            [
              -1.7138328485017467,
              53.624321981930315
            ],
            [
              -1.7136531854449228,
              53.624215427740864
            ],
            [
              -1.7133297919426396,
              53.62422075545674
            ],
            [
              -1.713159112038657,
              53.624087562358454
            ],
            [
              -1.7128986006062623,
              53.624178133711034
            ],
            [
              -1.7125302913397733,
              53.62402895726205
            ],
            [
              -1.7125841902568204,
              53.623842485959344
            ],
            [
              -1.7122158809903316,
              53.62385846924612
            ],
            [
              -1.7120002853221428,
              53.62369863610576
            ],
            [
              -1.7118924874880483,
              53.623821174900854
            ],
            [
              -1.7115780771386067,
              53.62381051936758
            ],
            [
              -1.7113445151647355,
              53.62408223462578
            ],
            [
              -1.7107246776186933,
              53.62379453606263
            ],
            [
              -1.7103743346578866,
              53.623954368839826
            ],
            [
              -1.710257553670951,
              53.623842485959344
            ],
            [
              -1.7100239916970799,
              53.6238265026665
            ],
            [
              -1.7097814465703676,
              53.62397567983106
            ],
            [
              -1.709251440552737,
              53.62393305783783
            ],
            [
              -1.7090897438015955,
              53.6238265026665
            ],
            [
              -1.7089010975919305,
              53.62408223462578
            ],
            [
              -1.708424990491347,
              53.62411420101172
            ],
            [
              -1.7080117654606521,
              53.623959696588656
            ],
            [
              -1.708424990491347,
              53.62374125833573
            ],
            [
              -1.7083531252686175,
              53.623640030469296
            ],
            [
              -1.70754464151291,
              53.62341626274516
            ],
            [
              -1.7072392143163093,
              53.62342159056192
            ],
            [
              -1.7070326018009618,
              53.623256427930116
            ],
            [
              -1.7062959832679838,
              53.623219133052864
            ],
            [
              -1.7061522528225248,
              53.62297405161099
            ],
            [
              -1.7056491962634177,
              53.62306995321424
            ],
            [
              -1.7054874995122764,
              53.622606426779804
            ],
            [
              -1.70528987014977,
              53.62258511509719
            ],
            [
              -1.7050742744815812,
              53.62224412671194
            ],
            [
              -1.7044274874770151,
              53.62205231953465
            ],
            [
              -1.7039783298349556,
              53.622563803403814
            ],
            [
              -1.704328672795762,
              53.62313921534777
            ],
            [
              -1.7047239315207747,
              53.623448229635535
            ],
            [
              -1.704652066298045,
              53.62409821782178
            ],
            [
              -1.7040142624463204,
              53.623996990811534
            ],
            [
              -1.7034393406644839,
              53.623522818952225
            ],
            [
              -1.7028105199656,
              53.623485524310354
            ],
            [
              -1.7027386547428707,
              53.62418346143159
            ],
            [
              -1.7022535644894459,
              53.62444984660252
            ],
            [
              -1.701705592166133,
              53.62516375056954
            ],
            [
              -1.7033674754417543,
              53.62585100492024
            ],
            [
              -1.7047688472849807,
              53.62687387439188
            ],
            [
              -1.7025410253803643,
              53.62822168016051
            ],
            [
              -1.6997203153882288,
              53.62885028631209
            ],
            [
              -1.7000167594319884,
              53.62957476992205
            ],
            [
              -1.6991364104535513,
              53.62992102607779
            ],
            [
              -1.6996394670126582,
              53.631183505224975
            ],
            [
              -1.6982650446279552,
              53.63138059771671
            ],
            [
              -1.6986513202001268,
              53.632243532381175
            ],
            [
              -1.6984357245319381,
              53.63217961190016
            ],
            [
              -1.6985525055188737,
              53.63229147267836
            ],
            [
              -1.6981752130995433,
              53.632419313204636
            ],
            [
              -1.6982201288637493,
              53.632829465611465
            ],
            [
              -1.69852555606035,
              53.63285609874678
            ],
            [
              -1.6994148881916282,
              53.63396402227892
            ],
            [
              -1.6993699724274223,
              53.634171754702216
            ],
            [
              -1.6989028484796802,
              53.63469374448236
            ],
            [
              -1.6996484501654994,
              53.635013326874535
            ],
            [
              -1.7004210013098422,
              53.6351731171628
            ],
            [
              -1.6997831974581175,
              53.63545541185963
            ],
            [
              -1.6997921806109586,
              53.635545958815115
            ],
            [
              -1.7005916812138249,
              53.636233044085856
            ],
            [
              -1.701651693249086,
              53.63661120252244
            ],
            [
              -1.6995765849427698,
              53.637298270443836
            ],
            [
              -1.6999269279035765,
              53.63763913719755
            ],
            [
              -1.6992172588291221,
              53.63787880748454
            ],
            [
              -1.7005647317553014,
              53.63899192496891
            ],
            [
              -1.7014360975808973,
              53.639455271435665
            ],
            [
              -1.7034303575116425,
              53.639790795010185
            ],
            [
              -1.7050383418702164,
              53.63976416625258
            ],
            [
              -1.7052449543855641,
              53.639833400987435
            ],
            [
              -1.70611632021116,
              53.64147902392461
            ],
            [
              -1.7076973551112102,
              53.64338552296787
            ],
            [
              -1.705235971232723,
              53.644935155622676
            ],
            [
              -1.7061792022810482,
              53.645574162816565
            ],
            [
              -1.7069248039668676,
              53.64567533806769
            ],
            [
              -1.7073380289975626,
              53.645590137872354
            ],
            [
              -1.7076614224998454,
              53.645632737991534
            ],
            [
              -1.7079848160021287,
              53.64579781304694
            ],
            [
              -1.707868035015193,
              53.64613328616863
            ],
            [
              -1.7082183779759996,
              53.646191860567
            ],
            [
              -1.7082453274345233,
              53.646032112016165
            ],
            [
              -1.7088471986748834,
              53.646197185508264
            ],
            [
              -1.7087034682294242,
              53.646468756621594
            ],
            [
              -1.7089370302032953,
              53.64675097572942
            ],
            [
              -1.709619749819226,
              53.64679357467597
            ],
            [
              -1.7094670362209259,
              53.64720891214972
            ],
            [
              -1.7102755199766333,
              53.647560348355434
            ],
            [
              -1.7100778906141272,
              53.64822061451836
            ],
            [
              -1.7090897438015955,
              53.650196026541636
            ],
            [
              -1.710347385199363,
              53.65074443988179
            ],
            [
              -1.711326548859053,
              53.651026630374396
            ],
            [
              -1.7101497558368566,
              53.65146322326418
            ],
            [
              -1.7098982275573031,
              53.651788002847304
            ],
            [
              -1.7094490699152434,
              53.65197967486998
            ],
            [
              -1.7093233057754667,
              53.652176670207524
            ],
            [
              -1.7085327883254413,
              53.65207551055455
            ],
            [
              -1.708101596989064,
              53.65290075326856
            ],
            [
              -1.7079488833907637,
              53.653630147896735
            ],
            [
              -1.7067361577572024,
              53.65520602313197
            ],
            [
              -1.7063588653378723,
              53.656190915240835
            ],
            [
              -1.7054605500537527,
              53.65658486564162
            ],
            [
              -1.7045622347696332,
              53.65574372383797
            ],
            [
              -1.7042478244201913,
              53.65559998273672
            ],
            [
              -1.703403408053119,
              53.65545091737331
            ],
            [
              -1.7006455801308722,
              53.655695810192
            ],
            [
              -1.698624370741603,
              53.65614300210315
            ],
            [
              -1.6968996053960936,
              53.65588214073148
            ],
            [
              -1.6956778966096913,
              53.655291203899026
            ],
            [
              -1.6933602431766628,
              53.65269311307425
            ],
            [
              -1.6928212540061909,
              53.652240560389586
            ],
            [
              -1.6920307365561658,
              53.65197435065889
            ],
            [
              -1.6909886908265872,
              53.651915784292584
            ],
            [
              -1.690746145699875,
              53.65184124516323
            ],
            [
              -1.6906922467828278,
              53.65168684226179
            ],
            [
              -1.6895154537606314,
              53.65120765724319
            ],
            [
              -1.6854910012877757,
              53.651521790259146
            ],
            [
              -1.682697240754164,
              53.65202226853446
            ],
            [
              -1.682275032570628,
              53.651931756946006
            ],
            [
              -1.681960622221186,
              53.65166554526551
            ],
            [
              -1.6813946835921907,
              53.65163892400501
            ],
            [
              -1.680909593338766,
              53.65119700862538
            ],
            [
              -1.6806221324478479,
              53.65111181958595
            ],
            [
              -1.680208907417153,
              53.65122895447076
            ],
            [
              -1.6779631192068543,
              53.65105325202149
            ],
            [
              -1.677549894176159,
              53.65162827549611
            ],
            [
              -1.6774241300363826,
              53.65285283639138
            ],
            [
              -1.6761305560272504,
              53.6538111635872
            ],
            [
              -1.6752771565073368,
              53.653949586826094
            ],
            [
              -1.6744237569874232,
              53.65434888208416
            ],
            [
              -1.6746034200442472,
              53.65441809287765
            ],
            [
              -1.6746034200442472,
              53.65483867910256
            ],
            [
              -1.674145279249346,
              53.655200699328326
            ],
            [
              -1.6745315548215176,
              53.655589335228235
            ],
            [
              -1.672887637851579,
              53.6561110599811
            ],
            [
              -1.673588323773192,
              53.65722369630368
            ],
            [
              -1.6728247557816904,
              53.65774540082949
            ],
            [
              -1.6723306823754247,
              53.65729822591696
            ],
            [
              -1.6704801528901385,
              53.658203217849234
            ],
            [
              -1.6704711697372974,
              53.65834162666703
            ],
            [
              -1.6691596294224829,
              53.65887928737827
            ],
            [
              -1.6690877641997532,
              53.659140130203134
            ],
            [
              -1.6670306221991196,
              53.65998120423637
            ],
            [
              -1.6663209531246652,
              53.660162192656784
            ],
            [
              -1.664659069849044,
              53.66110438452683
            ],
            [
              -1.6623953153330628,
              53.661961388218415
            ],
            [
              -1.6622515848876038,
              53.6622754411088
            ],
            [
              -1.6611017413239308,
              53.662935476844126
            ],
            [
              -1.6610119097955187,
              53.66323355411059
            ],
            [
              -1.6567089795845864,
              53.664361970379005
            ]
          ]
        ]
      }
    }
  ]
}
