{
  "type": "FeatureCollection",
  "features": [
    {
      "type": "Feature",
      "properties": {
        "WardName": "Almondbury",
        "NoCllrs": 3,
        "Number": 1
      },
      "geometry": {
        "type": "Polygon",
        "coordinates": [
          [
            [
              -1.7246485645225458,
              53.651788002847304
            ],
            [
              -1.723516687264555,
              53.65160697847023
            ],
            [
              -1.7232471926793194,
              53.65146322326418
            ],
            [
              -1.7230405801639719,
              53.651079873651796
            ],
            [
              -1.722546506757706,
              53.650866900138844
            ],
            [
              -1.7218368376832516,
              53.65070716929817
            ],
            [
              -1.721495477875286,
              53.650717818039716
            ],
            [
              -1.7212798822070974,
              53.65041965226006
            ],
            [
              -1.7209025897877672,
              53.650377056976566
            ],
            [
              -1.7209475055519732,
              53.650233297577074
            ],
            [
              -1.7207229267309434,
              53.65022264871317
            ],
            [
              -1.7203636006172955,
              53.6499244794319
            ],
            [
              -1.7188364646342924,
              53.649674228586264
            ],
            [
              -1.7184322227564386,
              53.649668904084045
            ],
            [
              -1.717848317821761,
              53.64998304856427
            ],
            [
              -1.7176057726950487,
              53.649839287821415
            ],
            [
              -1.7174261096382246,
              53.64987123469552
            ],
            [
              -1.7158989736552215,
              53.649253590839805
            ],
            [
              -1.7158630410438567,
              53.64915242417356
            ],
            [
              -1.71611456932341,
              53.6490672310032
            ],
            [
              -1.7158540578910155,
              53.64874243046211
            ],
            [
              -1.7153510013319087,
              53.64858801621267
            ],
            [
              -1.715279136109179,
              53.64844957537038
            ],
            [
              -1.7147221806330248,
              53.64820996514612
            ],
            [
              -1.714452686047789,
              53.64823126388787
            ],
            [
              -1.7139496294886822,
              53.648050224240244
            ],
            [
              -1.7134645392352577,
              53.648337757435165
            ],
            [
              -1.7131860614971806,
              53.64822593920345
            ],
            [
              -1.7129435163704683,
              53.64830580939922
            ],
            [
              -1.712512325034091,
              53.64783191069018
            ],
            [
              -1.7126830049380737,
              53.64774671485187
            ],
            [
              -1.7125841902568204,
              53.64753904927482
            ],
            [
              -1.7116499423613363,
              53.647634895052846
            ],
            [
              -1.7118116391124778,
              53.64742190413918
            ],
            [
              -1.7116229929028126,
              53.647160988803826
            ],
            [
              -1.7114702793045125,
              53.647192937707125
            ],
            [
              -1.711182818413594,
              53.647624245532704
            ],
            [
              -1.7112187510249588,
              53.64820996514612
            ],
            [
              -1.710203654753904,
              53.64772009111708
            ],
            [
              -1.7102755199766333,
              53.647560348355434
            ],
            [
              -1.7094670362209259,
              53.64720891214972
            ],
            [
              -1.709619749819226,
              53.64679357467597
            ],
            [
              -1.7089370302032953,
              53.64675097572942
            ],
            [
              -1.7087034682294242,
              53.646468756621594
            ],
            [
              -1.7088471986748834,
              53.646197185508264
            ],
            [
              -1.7082453274345233,
              53.646032112016165
            ],
            [
              -1.7082183779759996,
              53.646191860567
            ],
            [
              -1.707868035015193,
              53.64613328616863
            ],
            [
              -1.7079848160021287,
              53.64579781304694
            ],
            [
              -1.7076614224998454,
              53.645632737991534
            ],
            [
              -1.7073380289975626,
              53.645590137872354
            ],
            [
              -1.7069248039668676,
              53.64567533806769
            ],
            [
              -1.7061792022810482,
              53.645574162816565
            ],
            [
              -1.705235971232723,
              53.644935155622676
            ],
            [
              -1.7076973551112102,
              53.64338552296787
            ],
            [
              -1.70611632021116,
              53.64147902392461
            ],
            [
              -1.7052449543855641,
              53.639833400987435
            ],
            [
              -1.7050383418702164,
              53.63976416625258
            ],
            [
              -1.7034303575116425,
              53.639790795010185
            ],
            [
              -1.7014360975808973,
              53.639455271435665
            ],
            [
              -1.7005647317553014,
              53.63899192496891
            ],
            [
              -1.6992172588291221,
              53.63787880748454
            ],
            [
              -1.6999269279035765,
              53.63763913719755
            ],
            [
              -1.6995765849427698,
              53.637298270443836
            ],
            [
              -1.701651693249086,
              53.63661120252244
            ],
            [
              -1.7005916812138249,
              53.636233044085856
            ],
            [
              -1.6997921806109586,
              53.635545958815115
            ],
            [
              -1.6997831974581175,
              53.63545541185963
            ],
            [
              -1.7004210013098422,
              53.6351731171628
            ],
            [
              -1.6996484501654994,
              53.635013326874535
            ],
            [
              -1.6989028484796802,
              53.63469374448236
            ],
            [
              -1.6994148881916282,
              53.633995981179844
            ],
            [
              -1.69852555606035,
              53.63285609874678
            ],
            [
              -1.6982201288637493,
              53.632829465611465
            ],
            [
              -1.6981752130995433,
              53.632419313204636
            ],
            [
              -1.6985525055188737,
              53.63229147267836
            ],
            [
              -1.6984357245319381,
              53.63217961190016
            ],
            [
              -1.6986513202001268,
              53.632243532381175
            ],
            [
              -1.6982650446279552,
              53.63138059771671
            ],
            [
              -1.6996394670126582,
              53.631183505224975
            ],
            [
              -1.6991364104535513,
              53.62992102607779
            ],
            [
              -1.7000167594319884,
              53.62957476992205
            ],
            [
              -1.6997203153882288,
              53.62885028631209
            ],
            [
              -1.7025410253803643,
              53.62822168016051
            ],
            [
              -1.7047688472849807,
              53.62687387439188
            ],
            [
              -1.7033674754417543,
              53.62585100492024
            ],
            [
              -1.701705592166133,
              53.62516375056954
            ],
            [
              -1.7022535644894459,
              53.62444984660252
            ],
            [
              -1.7027386547428707,
              53.62418346143159
            ],
            [
              -1.7028105199656,
              53.623485524310354
            ],
            [
              -1.7034393406644839,
              53.623522818952225
            ],
            [
              -1.7040142624463204,
              53.623996990811534
            ],
            [
              -1.704652066298045,
              53.62409821782178
            ],
            [
              -1.7047239315207747,
              53.623448229635535
            ],
            [
              -1.704328672795762,
              53.62313921534777
            ],
            [
              -1.7039783298349556,
              53.622563803403814
            ],
            [
              -1.7044274874770151,
              53.62205231953465
            ],
            [
              -1.7050742744815812,
              53.62224412671194
            ],
            [
              -1.70528987014977,
              53.62258511509719
            ],
            [
              -1.7054874995122764,
              53.622606426779804
            ],
            [
              -1.7056491962634177,
              53.62306995321424
            ],
            [
              -1.7061522528225248,
              53.62297405161099
            ],
            [
              -1.7062959832679838,
              53.623219133052864
            ],
            [
              -1.7070326018009618,
              53.623256427930116
            ],
            [
              -1.7072392143163093,
              53.62342159056192
            ],
            [
              -1.70754464151291,
              53.62341626274516
            ],
            [
              -1.7083531252686175,
              53.623640030469296
            ],
            [
              -1.708424990491347,
              53.62374125833573
            ],
            [
              -1.7080117654606521,
              53.623959696588656
            ],
            [
              -1.708424990491347,
              53.62411420101172
            ],
            [
              -1.7089010975919305,
              53.62408223462578
            ],
            [
              -1.7090897438015955,
              53.6238265026665
            ],
            [
              -1.709251440552737,
              53.62393305783783
            ],
            [
              -1.7097814465703676,
              53.62397567983106
            ],
            [
              -1.7100239916970799,
              53.6238265026665
            ],
            [
              -1.710257553670951,
              53.623842485959344
            ],
            [
              -1.7103743346578866,
              53.623954368839826
            ],
            [
              -1.7107246776186933,
              53.62379453606263
            ],
            [
              -1.7113445151647355,
              53.62408223462578
            ],
            [
              -1.7115780771386067,
              53.62381051936758
            ],
            [
              -1.7118924874880483,
              53.623821174900854
            ],
            [
              -1.7120002853221428,
              53.62369863610576
            ],
            [
              -1.7122158809903316,
              53.62385846924612
            ],
            [
              -1.7125841902568204,
              53.623842485959344
            ],
            [
              -1.7125302913397733,
              53.62402895726205
            ],
            [
              -1.7128986006062623,
              53.624178133711034
            ],
            [
              -1.713159112038657,
              53.624087562358454
            ],
            [
              -1.7133297919426396,
              53.62422075545674
            ],
            [
              -1.7136531854449228,
              53.624215427740864
            ],
            [
              -1.7138328485017467,
              53.624321981930315
            ],
            [
              -1.7140125115585705,
              53.62426870486924
            ],
            [
              -1.7138777642659526,
              53.62418878915148
            ],
            [
              -1.7139675957943645,
              53.624087562358454
            ],
            [
              -1.714353871366536,
              53.62403428500146
            ],
            [
              -1.7147940458557545,
              53.62430599881905
            ],
            [
              -1.7155306643887327,
              53.62416747826786
            ],
            [
              -1.71611456932341,
              53.62436460353076
            ],
            [
              -1.7161774513932986,
              53.62451377879337
            ],
            [
              -1.7165367775069464,
              53.624481812710044
            ],
            [
              -1.716752373175135,
              53.62460967689804
            ],
            [
              -1.7169050867734355,
              53.6244338635397
            ],
            [
              -1.7172374634285597,
              53.624423208161076
            ],
            [
              -1.7169140699262766,
              53.623996990811534
            ],
            [
              -1.717264412887083,
              53.62397567983106
            ],
            [
              -1.7176237390007312,
              53.623837158195734
            ],
            [
              -1.7175967895422075,
              53.623767897207586
            ],
            [
              -1.718261542852456,
              53.62365068604562
            ],
            [
              -1.7185040879791682,
              53.62421010002433
            ],
            [
              -1.718683751035992,
              53.624199444589244
            ],
            [
              -1.7200851228792184,
              53.62487073174568
            ],
            [
              -1.720381566922978,
              53.62493466329892
            ],
            [
              -1.7206061457440078,
              53.624646970546564
            ],
            [
              -1.7210642865389087,
              53.62465762586865
            ],
            [
              -1.7216481914735866,
              53.625280957529455
            ],
            [
              -1.7208666571764024,
              53.625755109636195
            ],
            [
              -1.7207678424951494,
              53.62600550241953
            ],
            [
              -1.7209295392462907,
              53.62623991133839
            ],
            [
              -1.7213876800411918,
              53.626298513364674
            ],
            [
              -1.7219266692116635,
              53.62715622461924
            ],
            [
              -1.7229507486355597,
              53.62793400981544
            ],
            [
              -1.7236334682514904,
              53.62887692195917
            ],
            [
              -1.723606518792967,
              53.62926047341299
            ],
            [
              -1.7239119459895678,
              53.629388323122875
            ],
            [
              -1.723884996531044,
              53.62949486425185
            ],
            [
              -1.722914816024195,
              53.629723926768264
            ],
            [
              -1.7227082035088475,
              53.629931680068296
            ],
            [
              -1.7230675296224953,
              53.63013943234543
            ],
            [
              -1.7232921084435253,
              53.630464376163694
            ],
            [
              -1.723876013378203,
              53.63062951058777
            ],
            [
              -1.724019743823662,
              53.63080529813548
            ],
            [
              -1.7243341541731037,
              53.630879874449604
            ],
            [
              -1.7238490639196793,
              53.63136461727871
            ],
            [
              -1.7239927943651385,
              53.6317055319768
            ],
            [
              -1.724253305797533,
              53.63176945317601
            ],
            [
              -1.7244599183128806,
              53.63207840427384
            ],
            [
              -1.724900092802099,
              53.63189196853721
            ],
            [
              -1.7252414526100646,
              53.63204111719242
            ],
            [
              -1.7250617895532407,
              53.632275492585364
            ],
            [
              -1.7253672167498413,
              53.63330353290624
            ],
            [
              -1.7252414526100646,
              53.63367639108116
            ],
            [
              -1.725816374391901,
              53.63342604381291
            ],
            [
              -1.7258882396146307,
              53.63323428745381
            ],
            [
              -1.7261667173527075,
              53.63325026718369
            ],
            [
              -1.7260589195186133,
              53.633053183425545
            ],
            [
              -1.7262565488811197,
              53.6329732843424
            ],
            [
              -1.7261218015885016,
              53.63289338510796
            ],
            [
              -1.7262924814924843,
              53.63269629968272
            ],
            [
              -1.7266338413004498,
              53.632712279616364
            ],
            [
              -1.7265799423834027,
              53.63252052001322
            ],
            [
              -1.726867403274321,
              53.632541826678825
            ],
            [
              -1.727136897859557,
              53.63236604636578
            ],
            [
              -1.727478257667522,
              53.63241398652379
            ],
            [
              -1.7275321565845694,
              53.63214765162333
            ],
            [
              -1.7278555500868524,
              53.63214765162333
            ],
            [
              -1.7278914826982172,
              53.63201448354265
            ],
            [
              -1.728116061519247,
              53.63193990923387
            ],
            [
              -1.7280801289078822,
              53.631732165821575
            ],
            [
              -1.729086242026096,
              53.63138592452804
            ],
            [
              -1.729220989318714,
              53.63106098780664
            ],
            [
              -1.7295264165153146,
              53.63110360260121
            ],
            [
              -1.7296431975022502,
              53.63126873452356
            ],
            [
              -1.7300564225329453,
              53.63130602228757
            ],
            [
              -1.7301732035198807,
              53.63117285155054
            ],
            [
              -1.729957607851692,
              53.63110360260121
            ],
            [
              -1.7299755741573746,
              53.63093847003254
            ],
            [
              -1.7302271024369278,
              53.63105033410127
            ],
            [
              -1.7303618497295459,
              53.630890528198
            ],
            [
              -1.7306493106204641,
              53.630933143164725
            ],
            [
              -1.7307211758431937,
              53.63082660566726
            ],
            [
              -1.7313679628477598,
              53.63062951058777
            ],
            [
              -1.7316015248216308,
              53.630389799115186
            ],
            [
              -1.732068648769373,
              53.630437741518634
            ],
            [
              -1.7319608509352786,
              53.63067745271886
            ],
            [
              -1.7328142504551922,
              53.63057091457576
            ],
            [
              -1.7328591662193982,
              53.63045372230769
            ],
            [
              -1.733083745040428,
              53.63043241458762
            ],
            [
              -1.7330028966648572,
              53.630176721107425
            ],
            [
              -1.733919178254659,
              53.63011279749529
            ],
            [
              -1.7351947859581087,
              53.62949486425185
            ],
            [
              -1.7359224213382456,
              53.62935636073171
            ],
            [
              -1.7364254778973527,
              53.6294629019414
            ],
            [
              -1.736766837705318,
              53.62936168779858
            ],
            [
              -1.737224978500219,
              53.629042062595836
            ],
            [
              -1.7373327763343132,
              53.62881832351341
            ],
            [
              -1.7385904177320806,
              53.628269625027364
            ],
            [
              -1.7391833058195996,
              53.627822137484955
            ],
            [
              -1.7394977161690415,
              53.62748651871407
            ],
            [
              -1.7393539857235822,
              53.62730006268798
            ],
            [
              -1.7399378906582599,
              53.627193516017456
            ],
            [
              -1.7406206102741908,
              53.62692182079006
            ],
            [
              -1.7405936608156671,
              53.626836582711185
            ],
            [
              -1.740908071165109,
              53.6267353622689
            ],
            [
              -1.7409260374707916,
              53.6265861948588
            ],
            [
              -1.7411775657503448,
              53.626405062294886
            ],
            [
              -1.7414829929469455,
              53.62652226580739
            ],
            [
              -1.7418423190605934,
              53.62649030124533
            ],
            [
              -1.7420668978816232,
              53.625957554980296
            ],
            [
              -1.7429921626242664,
              53.62567519673303
            ],
            [
              -1.7435581012532617,
              53.62580838482089
            ],
            [
              -1.7437736969214503,
              53.62569117932576
            ],
            [
              -1.7445013323015872,
              53.62568052426461
            ],
            [
              -1.7446720122055697,
              53.625430129553116
            ],
            [
              -1.7449235404851233,
              53.6255793010495
            ],
            [
              -1.7461182998130023,
              53.6252543196126
            ],
            [
              -1.7465854237607443,
              53.62501457760433
            ],
            [
              -1.7468639014988214,
              53.62512112977614
            ],
            [
              -1.746980682485757,
              53.62501990521932
            ],
            [
              -1.7474567895863402,
              53.62495597379516
            ],
            [
              -1.7474657727391816,
              53.624817455377276
            ],
            [
              -1.7472322107653104,
              53.62482278301715
            ],
            [
              -1.7472411939181516,
              53.624737540698646
            ],
            [
              -1.7475645874204346,
              53.62474819599786
            ],
            [
              -1.7489030771937726,
              53.62386379700706
            ],
            [
              -1.7490198581807084,
              53.623730602782274
            ],
            [
              -1.748921043499455,
              53.62355478576192
            ],
            [
              -1.7499900386875573,
              53.62351749114829
            ],
            [
              -1.7500978365216517,
              53.62338429583058
            ],
            [
              -1.7498642745477806,
              53.62332568975765
            ],
            [
              -1.749873257700622,
              53.62324044441535
            ],
            [
              -1.7502415669671108,
              53.6230486417657
            ],
            [
              -1.7505200447051878,
              53.62305929749131
            ],
            [
              -1.750708690914853,
              53.62289413344179
            ],
            [
              -1.7510590338756598,
              53.62283552668824
            ],
            [
              -1.751068017028501,
              53.62273429664946
            ],
            [
              -1.7515171746705605,
              53.62257978717486
            ],
            [
              -1.7516698882688608,
              53.62228142245075
            ],
            [
              -1.752047180688191,
              53.6220629755118
            ],
            [
              -1.7527748160683279,
              53.621935103608315
            ],
            [
              -1.7531521084876582,
              53.62170599881241
            ],
            [
              -1.753475501989941,
              53.6217965752757
            ],
            [
              -1.7536731313524474,
              53.621439596323206
            ],
            [
              -1.7540055080075716,
              53.621471564710674
            ],
            [
              -1.7542839857456487,
              53.62124778548983
            ],
            [
              -1.7546882276235025,
              53.621279754022616
            ],
            [
              -1.754805008610438,
              53.6210240050826
            ],
            [
              -1.755631458671828,
              53.62072030120369
            ],
            [
              -1.75609858261957,
              53.62031003109046
            ],
            [
              -1.756502824497424,
              53.620224779657455
            ],
            [
              -1.756826217999707,
              53.620294046459875
            ],
            [
              -1.7572124935718785,
              53.62001165032164
            ],
            [
              -1.7574819881571142,
              53.620160840969696
            ],
            [
              -1.7578233479650796,
              53.620171497424366
            ],
            [
              -1.7580389436332684,
              53.62010223042085
            ],
            [
              -1.7580658930917918,
              53.61996902432534
            ],
            [
              -1.7582275898429334,
              53.619963696072794
            ],
            [
              -1.7584252192054397,
              53.62015551274134
            ],
            [
              -1.758712680096358,
              53.62004361979061
            ],
            [
              -1.7588474273889758,
              53.620134199821216
            ],
            [
              -1.7594223491708123,
              53.61991041351015
            ],
            [
              -1.7597457426730954,
              53.61993172654327
            ],
            [
              -1.7616322047697464,
              53.61928700253048
            ],
            [
              -1.7619555982720294,
              53.619073868459715
            ],
            [
              -1.764228335940852,
              53.61842913134436
            ],
            [
              -1.7646774935829115,
              53.618125408795336
            ],
            [
              -1.7658273371465845,
              53.617874969260264
            ],
            [
              -1.7661507306488677,
              53.61786431222579
            ],
            [
              -1.7662854779414856,
              53.617992196461636
            ],
            [
              -1.7665459893738802,
              53.61794956842606
            ],
            [
              -1.767049045932987,
              53.6176671566032
            ],
            [
              -1.7678575296886947,
              53.61758189983256
            ],
            [
              -1.7681180411210893,
              53.617384742891
            ],
            [
              -1.768558215610308,
              53.61742737149693
            ],
            [
              -1.768657030291561,
              53.617608542591874
            ],
            [
              -1.7689085585711146,
              53.61761919969089
            ],
            [
              -1.7734630170616004,
              53.61709167005997
            ],
            [
              -1.7729958931138583,
              53.61770445638619
            ],
            [
              -1.7742804839701494,
              53.618397160652634
            ],
            [
              -1.774549978555385,
              53.61825329224021
            ],
            [
              -1.7763286428179417,
              53.61882343455148
            ],
            [
              -1.7777659472725331,
              53.61903124151642
            ],
            [
              -1.7776491662855973,
              53.61948415058783
            ],
            [
              -1.7765622047918128,
              53.62065636326654
            ],
            [
              -1.774397264957085,
              53.621993711612184
            ],
            [
              -1.7718819821615501,
              53.62442853585072
            ],
            [
              -1.7694744972001097,
              53.625653886599956
            ],
            [
              -1.767929394911424,
              53.62710827848737
            ],
            [
              -1.7649649544738297,
              53.628605237570056
            ],
            [
              -1.7622340760101065,
              53.62866916346606
            ],
            [
              -1.7580030110219036,
              53.62915393169218
            ],
            [
              -1.7580479267861095,
              53.6293137441725
            ],
            [
              -1.756826217999707,
              53.63076268303965
            ],
            [
              -1.756736386471295,
              53.631071641509315
            ],
            [
              -1.7569340158338012,
              53.632152978337814
            ],
            [
              -1.7570418136678956,
              53.63228614598138
            ],
            [
              -1.7574460555457494,
              53.632392679793604
            ],
            [
              -1.7577424995895088,
              53.632685646390264
            ],
            [
              -1.7581826740787274,
              53.63351659512395
            ],
            [
              -1.7580569099389507,
              53.633820206925144
            ],
            [
              -1.7581377583145215,
              53.63407055185454
            ],
            [
              -1.7589103094588643,
              53.634720376440846
            ],
            [
              -1.7595840459219538,
              53.63607858403107
            ],
            [
              -1.7600152372583313,
              53.636243696482595
            ],
            [
              -1.760329647607773,
              53.63685087864969
            ],
            [
              -1.7601230350924255,
              53.63727164011273
            ],
            [
              -1.7603565970662967,
              53.637676419331626
            ],
            [
              -1.7603026981492496,
              53.6379693492386
            ],
            [
              -1.7605811758873264,
              53.6381930397978
            ],
            [
              -1.760141001398108,
              53.63877889040264
            ],
            [
              -1.7597996415901425,
              53.638709653936935
            ],
            [
              -1.7595211638520656,
              53.63894931814174
            ],
            [
              -1.7599074394242369,
              53.63919430681032
            ],
            [
              -1.7602937149964082,
              53.63974286323437
            ],
            [
              -1.7600242204111725,
              53.63982274949713
            ],
            [
              -1.760096085633902,
              53.6403073895815
            ],
            [
              -1.7605632095816441,
              53.6409571181006
            ],
            [
              -1.7609315188481331,
              53.64088788521022
            ],
            [
              -1.7612459291975748,
              53.64123937409298
            ],
            [
              -1.7617220362981583,
              53.64148434946097
            ],
            [
              -1.7626562841936426,
              53.641654766269056
            ],
            [
              -1.7638330772158393,
              53.64159086004672
            ],
            [
              -1.7637522288402685,
              53.6423577283242
            ],
            [
              -1.7642103696351694,
              53.642395006287884
            ],
            [
              -1.7640846054953927,
              53.642725181099294
            ],
            [
              -1.764183420176646,
              53.6430660039999
            ],
            [
              -1.763500700560715,
              53.643156534619926
            ],
            [
              -1.7627461157220548,
              53.64342280002313
            ],
            [
              -1.7615872890055404,
              53.64463162381368
            ],
            [
              -1.7607338894856268,
              53.64508425816727
            ],
            [
              -1.7594672649350183,
              53.64541973696526
            ],
            [
              -1.7572574093360844,
              53.64571261309905
            ],
            [
              -1.7561973973008234,
              53.64574456309969
            ],
            [
              -1.7548678906803263,
              53.645632737991534
            ],
            [
              -1.749136639167644,
              53.64448251966878
            ],
            [
              -1.7462620302584615,
              53.644248212090254
            ],
            [
              -1.7439623431311153,
              53.64436004086966
            ],
            [
              -1.7377190519064847,
              53.644999056777756
            ],
            [
              -1.734044942394436,
              53.645259985489524
            ],
            [
              -1.7341707065342127,
              53.64584041295636
            ],
            [
              -1.7336407005165821,
              53.64613328616863
            ],
            [
              -1.733874262490453,
              53.64658057951287
            ],
            [
              -1.7334700206125995,
              53.64712371505271
            ],
            [
              -1.7341078244643242,
              53.64843892605598
            ],
            [
              -1.7339012119489767,
              53.648864896533716
            ],
            [
              -1.7324189917301795,
              53.64934410817756
            ],
            [
              -1.7334790037654406,
              53.65018005323065
            ],
            [
              -1.7331196776517928,
              53.65032381281166
            ],
            [
              -1.7328322167608745,
              53.650286541856275
            ],
            [
              -1.7325447558699563,
              53.65053146467452
            ],
            [
              -1.7322842444375617,
              53.65038238138938
            ],
            [
              -1.7319967835466434,
              53.65038770580147
            ],
            [
              -1.7313949123062833,
              53.65014810659051
            ],
            [
              -1.7307481253017172,
              53.65002564424582
            ],
            [
              -1.729858793170439,
              53.6500788887872
            ],
            [
              -1.7290233599562077,
              53.650275893005805
            ],
            [
              -1.7283945392573241,
              53.650946765332264
            ],
            [
              -1.7269033358856856,
              53.65156970864905
            ],
            [
              -1.7260229869072485,
              53.65158568143359
            ],
            [
              -1.7246485645225458,
              53.651788002847304
            ]
          ]
        ]
      }
    }
  ]
}
