{
  "type": "FeatureCollection",
  "features": [
    {
      "type": "Feature",
      "properties": {
        "WardName": "Batley East",
        "NoCllrs": 3,
        "Number": 3
      },
      "geometry": {
        "type": "Polygon",
        "coordinates": [
          [
            [
              -1.6348439855691173,
              53.7322773729803
            ],
            [
              -1.634242114328757,
              53.73212857888233
            ],
            [
              -1.6336312599355558,
              53.731793790236324
            ],
            [
              -1.6336222767827147,
              53.73149619809047
            ],
            [
              -1.632256837550853,
              53.73082129381064
            ],
            [
              -1.6322658207036942,
              53.730656551750734
            ],
            [
              -1.6319783598127757,
              53.730566209056704
            ],
            [
              -1.6321939554809646,
              53.730337694316994
            ],
            [
              -1.6319334440485698,
              53.73022609364387
            ],
            [
              -1.6320412418826642,
              53.72999757705544
            ],
            [
              -1.6322029386338057,
              53.729986948346685
            ],
            [
              -1.632077174494029,
              53.72967340022942
            ],
            [
              -1.632211921786647,
              53.72946082390457
            ],
            [
              -1.631753780991746,
              53.72913664293972
            ],
            [
              -1.6319334440485698,
              53.728993152206414
            ],
            [
              -1.631852595672999,
              53.72877525793419
            ],
            [
              -1.6317268315332223,
              53.72877525793419
            ],
            [
              -1.631753780991746,
              53.7286370804935
            ],
            [
              -1.6311878423627506,
              53.728307578610035
            ],
            [
              -1.631475303253669,
              53.728238489177954
            ],
            [
              -1.6311788592099095,
              53.72824380375369
            ],
            [
              -1.6309902130002445,
              53.728025905597875
            ],
            [
              -1.6305500385110256,
              53.727908984170675
            ],
            [
              -1.630738684720691,
              53.72778674778552
            ],
            [
              -1.6307566510263733,
              53.72762199383454
            ],
            [
              -1.6304242743712491,
              53.72745192456281
            ],
            [
              -1.630289527078631,
              53.72753695928465
            ],
            [
              -1.6299930830348717,
              53.72716493110687
            ],
            [
              -1.6300559651047601,
              53.72708521035481
            ],
            [
              -1.6304332575240903,
              53.72709052507631
            ],
            [
              -1.6305051227468197,
              53.726920453654856
            ],
            [
              -1.630020032493395,
              53.72673975201582
            ],
            [
              -1.6297415547553182,
              53.726745066780985
            ],
            [
              -1.6292923971132585,
              53.72634645752869
            ],
            [
              -1.6291576498206406,
              53.72634645752869
            ],
            [
              -1.629040868833705,
              53.726202957272825
            ],
            [
              -1.629139683514958,
              53.72604882682283
            ],
            [
              -1.6288701889297224,
              53.7258840660619
            ],
            [
              -1.6281784861609503,
              53.72573524933581
            ],
            [
              -1.628070688326856,
              53.72542166951025
            ],
            [
              -1.6275586486149078,
              53.72528879599741
            ],
            [
              -1.6274867833921782,
              53.72495926787373
            ],
            [
              -1.6266782996364708,
              53.724666942376665
            ],
            [
              -1.6269567773745477,
              53.724294888804884
            ],
            [
              -1.626786097470565,
              53.72407165508168
            ],
            [
              -1.6268669458461358,
              53.72382715964419
            ],
            [
              -1.6265794849552175,
              53.72369428109278
            ],
            [
              -1.6262920240642993,
              53.723821844510205
            ],
            [
              -1.62599558002054,
              53.72373148712949
            ],
            [
              -1.6252589614875619,
              53.72330095811977
            ],
            [
              -1.6253937087801797,
              53.723019251567266
            ],
            [
              -1.6249355679852788,
              53.7224824093274
            ],
            [
              -1.6247379386227725,
              53.72196682171481
            ],
            [
              -1.62494455113812,
              53.721429966039764
            ],
            [
              -1.6229053754431686,
              53.72109509219751
            ],
            [
              -1.6229233417488511,
              53.7200532454135
            ],
            [
              -1.6231928363340868,
              53.72001603612245
            ],
            [
              -1.6235341961420524,
              53.71959610041255
            ],
            [
              -1.6229323249016923,
              53.719415367297444
            ],
            [
              -1.623013173277263,
              53.718968846859816
            ],
            [
              -1.6233724993909109,
              53.71854890069395
            ],
            [
              -1.62268977977498,
              53.71853826909104
            ],
            [
              -1.6217914644908604,
              53.71866584814875
            ],
            [
              -1.621450104682895,
              53.718607374462
            ],
            [
              -1.6205967051629815,
              53.7191017403427
            ],
            [
              -1.6195366931277204,
              53.719314369041896
            ],
            [
              -1.6189887208044076,
              53.71890505783888
            ],
            [
              -1.6181622707430177,
              53.718915689349075
            ],
            [
              -1.6169315788037737,
              53.71928779051328
            ],
            [
              -1.6166531010656968,
              53.7195004182719
            ],
            [
              -1.61637462332762,
              53.71944726143301
            ],
            [
              -1.6156739374060065,
              53.71960673174809
            ],
            [
              -1.6151708808468996,
              53.71957483773343
            ],
            [
              -1.6141647677286857,
              53.71992567056426
            ],
            [
              -1.6137874753093555,
              53.71991503930935
            ],
            [
              -1.6126735643570473,
              53.7204200209495
            ],
            [
              -1.6104726919109544,
              53.72099409797569
            ],
            [
              -1.6101223489501477,
              53.72090905002183
            ],
            [
              -1.6095923429325174,
              53.72110040767616
            ],
            [
              -1.60833470153475,
              53.72115887789685
            ],
            [
              -1.6067177340233347,
              53.72088247250098
            ],
            [
              -1.605756536669327,
              53.72086652598042
            ],
            [
              -1.6054511094727264,
              53.72118545524302
            ],
            [
              -1.6027831130788914,
              53.72040407425357
            ],
            [
              -1.6015793705981713,
              53.71981935789427
            ],
            [
              -1.5996749421958378,
              53.71975025451467
            ],
            [
              -1.5922009590319635,
              53.71853826909104
            ],
            [
              -1.592093161197869,
              53.71846916360653
            ],
            [
              -1.5921740095734398,
              53.71825653063434
            ],
            [
              -1.5907367051188486,
              53.71798010616345
            ],
            [
              -1.5900450023500765,
              53.71788442034638
            ],
            [
              -1.5900360191972354,
              53.717942895038234
            ],
            [
              -1.5897755077648408,
              53.71792694740308
            ],
            [
              -1.5890658386903864,
              53.717485727098946
            ],
            [
              -1.5887065125767386,
              53.717113609991586
            ],
            [
              -1.5880597255721725,
              53.71680528189442
            ],
            [
              -1.5878710793625075,
              53.71657137631302
            ],
            [
              -1.587493786943177,
              53.71650226759689
            ],
            [
              -1.586748185257358,
              53.71664048491562
            ],
            [
              -1.58616428032268,
              53.71653416394152
            ],
            [
              -1.5859756341130151,
              53.71662453678664
            ],
            [
              -1.5851671503573077,
              53.71658200841314
            ],
            [
              -1.5845562959641064,
              53.71620988331058
            ],
            [
              -1.583613064915781,
              53.716114193466396
            ],
            [
              -1.5833256040248624,
              53.71557194690406
            ],
            [
              -1.5833615366362273,
              53.7151838641904
            ],
            [
              -1.5829842442168973,
              53.714854256882056
            ],
            [
              -1.5829842442168973,
              53.71472134997865
            ],
            [
              -1.5833166208720213,
              53.71476919651224
            ],
            [
              -1.5833795029419098,
              53.714599075256665
            ],
            [
              -1.5831369578151975,
              53.71460439155631
            ],
            [
              -1.5829033958413266,
              53.71440768802172
            ],
            [
              -1.5825350865748373,
              53.71434920841517
            ],
            [
              -1.5820949120856187,
              53.713881368635825
            ],
            [
              -1.5814032093168466,
              53.71359428255883
            ],
            [
              -1.5810618495088813,
              53.71316364976982
            ],
            [
              -1.5806216750196627,
              53.71292440742666
            ],
            [
              -1.5809360853691048,
              53.712748962176946
            ],
            [
              -1.580765405465122,
              53.712706429885024
            ],
            [
              -1.5804779445742037,
              53.712828710108425
            ],
            [
              -1.5797772586525904,
              53.71247781807909
            ],
            [
              -1.5797682754997493,
              53.71219072242361
            ],
            [
              -1.5795347135258782,
              53.71219072242361
            ],
            [
              -1.579480814608831,
              53.71205780710476
            ],
            [
              -1.579570646137243,
              53.711797291861714
            ],
            [
              -1.5792203031764362,
              53.71169095864585
            ],
            [
              -1.5791933537179128,
              53.71149955817999
            ],
            [
              -1.5787711455343767,
              53.71124435620426
            ],
            [
              -1.578564533019029,
              53.71085623356542
            ],
            [
              -1.5787262297701705,
              53.71046279052354
            ],
            [
              -1.5786992803116469,
              53.71014909681336
            ],
            [
              -1.5784836846434582,
              53.710117195627085
            ],
            [
              -1.578654364547441,
              53.709904520433625
            ],
            [
              -1.5785735161718701,
              53.70980881624582
            ],
            [
              -1.578277072128111,
              53.709729062589695
            ],
            [
              -1.5780255438485573,
              53.70979818243375
            ],
            [
              -1.5775674030536564,
              53.70950575154825
            ],
            [
              -1.5767948519093138,
              53.70944726512722
            ],
            [
              -1.5764624752541894,
              53.70915483180266
            ],
            [
              -1.5762558627388419,
              53.70915483180266
            ],
            [
              -1.5761121322933829,
              53.70902722389676
            ],
            [
              -1.5757617893325762,
              53.709043174906185
            ],
            [
              -1.5756000925814346,
              53.70879327506412
            ],
            [
              -1.5750790697166452,
              53.70863908080408
            ],
            [
              -1.5739471924586548,
              53.70866566606164
            ],
            [
              -1.5739831250700194,
              53.708394495646345
            ],
            [
              -1.5738483777774015,
              53.70842639813886
            ],
            [
              -1.5738843103887663,
              53.708543373737776
            ],
            [
              -1.5736866810262602,
              53.708564641993554
            ],
            [
              -1.573596849497848,
              53.70846893475791
            ],
            [
              -1.5737854957075132,
              53.708346641862235
            ],
            [
              -1.5737405799433073,
              53.708219031505145
            ],
            [
              -1.573408203288183,
              53.708336007680586
            ],
            [
              -1.5732375233842002,
              53.70807546939083
            ],
            [
              -1.5728871804233937,
              53.70816054329548
            ],
            [
              -1.5729410793404408,
              53.70786810102758
            ],
            [
              -1.5723751407114455,
              53.70778834369265
            ],
            [
              -1.571557673802897,
              53.70743209241755
            ],
            [
              -1.5713241118290258,
              53.70707052087502
            ],
            [
              -1.5712252971477725,
              53.70712369335554
            ],
            [
              -1.5710276677852664,
              53.707033300098686
            ],
            [
              -1.5711174993136783,
              53.706884416664025
            ],
            [
              -1.5708120721170777,
              53.706522840415275
            ],
            [
              -1.5726356521438403,
              53.70596451804586
            ],
            [
              -1.5731656581614708,
              53.705666743086404
            ],
            [
              -1.5746658446859503,
              53.705299838899265
            ],
            [
              -1.5752317833149456,
              53.704975471663765
            ],
            [
              -1.5764624752541894,
              53.70462451413375
            ],
            [
              -1.5784297857264111,
              53.70434800007886
            ],
            [
              -1.5812594788713876,
              53.703523764712294
            ],
            [
              -1.5841969698504583,
              53.70309302884001
            ],
            [
              -1.586065465641427,
              53.70506586934136
            ],
            [
              -1.5864786906721222,
              53.706304829705
            ],
            [
              -1.587170393440894,
              53.706879099388765
            ],
            [
              -1.5888322767165153,
              53.70693758937973
            ],
            [
              -1.5913206100535264,
              53.70732574816875
            ],
            [
              -1.5914194247347795,
              53.707405506380525
            ],
            [
              -1.591805700306951,
              53.70728321039396
            ],
            [
              -1.5922368916433283,
              53.70732574816875
            ],
            [
              -1.592587234604135,
              53.70744272682764
            ],
            [
              -1.5929375775649415,
              53.70773517205205
            ],
            [
              -1.5931352069274478,
              53.70815522618148
            ],
            [
              -1.5946264102990861,
              53.708867713470156
            ],
            [
              -1.5957313380985532,
              53.709309024172555
            ],
            [
              -1.596782366980973,
              53.7092824393215
            ],
            [
              -1.596827282745179,
              53.709489800714216
            ],
            [
              -1.5979501768503284,
              53.70961740721711
            ],
            [
              -1.5995581612089023,
              53.70716623129157
            ],
            [
              -1.6014985222226006,
              53.70732574816875
            ],
            [
              -1.6015434379868065,
              53.707017348327305
            ],
            [
              -1.6042653332976886,
              53.70725130703465
            ],
            [
              -1.6038071925027877,
              53.705475315214
            ],
            [
              -1.6048582213852076,
              53.70560293389236
            ],
            [
              -1.6057475535164858,
              53.7055763466996
            ],
            [
              -1.6057745029750095,
              53.70538491841599
            ],
            [
              -1.6062775595341163,
              53.70537428348579
            ],
            [
              -1.606358407909687,
              53.705517854816435
            ],
            [
              -1.60811012271372,
              53.70549126756996
            ],
            [
              -1.6081280890194025,
              53.7058103134192
            ],
            [
              -1.6092509831245518,
              53.705331743738185
            ],
            [
              -1.6107062538848256,
              53.70532110879458
            ],
            [
              -1.611281175666662,
              53.705459362851975
            ],
            [
              -1.6129250926366008,
              53.70548595011863
            ],
            [
              -1.6152696955281527,
              53.70519348926149
            ],
            [
              -1.6154044428207706,
              53.704901026371665
            ],
            [
              -1.6160961455895426,
              53.704815945876604
            ],
            [
              -1.616203943423637,
              53.70460324388633
            ],
            [
              -1.6178119277822112,
              53.70477872310593
            ],
            [
              -1.618548546315189,
              53.7046830072587
            ],
            [
              -1.6197702551015916,
              53.70430545929377
            ],
            [
              -1.6218812960192726,
              53.70338550429546
            ],
            [
              -1.6221418074516671,
              53.70219963667971
            ],
            [
              -1.6226358808579329,
              53.70145512872503
            ],
            [
              -1.623525212989211,
              53.70060424636362
            ],
            [
              -1.6248367533040258,
              53.69966293770966
            ],
            [
              -1.6253308267102915,
              53.69931725410522
            ],
            [
              -1.626741181706359,
              53.699423618593585
            ],
            [
              -1.626786097470565,
              53.69900879556885
            ],
            [
              -1.6266244007194235,
              53.698439736819694
            ],
            [
              -1.6277023790603669,
              53.6982323209699
            ],
            [
              -1.6281515367024266,
              53.698248276071546
            ],
            [
              -1.6280886546325384,
              53.699056659972655
            ],
            [
              -1.62840306498198,
              53.69906729649944
            ],
            [
              -1.6285557785802804,
              53.69937575460707
            ],
            [
              -1.627612547531955,
              53.700455340181705
            ],
            [
              -1.6281425535495855,
              53.70055638371975
            ],
            [
              -1.6288252731655164,
              53.70050320294048
            ],
            [
              -1.6298403694365713,
              53.698620560059915
            ],
            [
              -1.6300739314104427,
              53.698620560059915
            ],
            [
              -1.6302176618559017,
              53.698200410748434
            ],
            [
              -1.6306219037337553,
              53.6982216842321
            ],
            [
              -1.6306668194979612,
              53.69843441847732
            ],
            [
              -1.6314932695593514,
              53.698487601870625
            ],
            [
              -1.6326251468173418,
              53.69890243003214
            ],
            [
              -1.6330293886951956,
              53.69939702749669
            ],
            [
              -1.634287030092963,
              53.69929066294112
            ],
            [
              -1.6352482274469708,
              53.69888647517845
            ],
            [
              -1.6356704356305072,
              53.69956189202662
            ],
            [
              -1.636901127569751,
              53.69919493461127
            ],
            [
              -1.6367034982072444,
              53.69894497627909
            ],
            [
              -1.6372335042248751,
              53.6987854276313
            ],
            [
              -1.637592830338523,
              53.69874819952648
            ],
            [
              -1.6378533417709176,
              53.69906729649944
            ],
            [
              -1.6398386185488216,
              53.698583331809246
            ],
            [
              -1.64275814322221,
              53.70173166178854
            ],
            [
              -1.642425766567086,
              53.70386941376698
            ],
            [
              -1.6414016871431896,
              53.70678870560645
            ],
            [
              -1.6415903333528545,
              53.707926589643755
            ],
            [
              -1.6419855920778672,
              53.70869756834856
            ],
            [
              -1.6419945752307086,
              53.70915483180266
            ],
            [
              -1.6407459169857823,
              53.71303605402278
            ],
            [
              -1.640233877273834,
              53.71372719302323
            ],
            [
              -1.638284533107295,
              53.714843624345235
            ],
            [
              -1.6375029988101109,
              53.7151838641904
            ],
            [
              -1.6348978844861644,
              53.71701260620869
            ],
            [
              -1.6404404897891818,
              53.71900605707735
            ],
            [
              -1.642704244305163,
              53.72000540489037
            ],
            [
              -1.64193169316082,
              53.72052101654992
            ],
            [
              -1.6390481010987965,
              53.72196682171481
            ],
            [
              -1.6375389314214757,
              53.723008621094394
            ],
            [
              -1.6377545270896645,
              53.72314681703238
            ],
            [
              -1.638563010845372,
              53.72459784696222
            ],
            [
              -1.6395960734221093,
              53.725294110945974
            ],
            [
              -1.6396499723391567,
              53.72592658502974
            ],
            [
              -1.639488275588015,
              53.72694171262015
            ],
            [
              -1.6382575836487714,
              53.726755696309304
            ],
            [
              -1.6382216510374064,
              53.72683541768616
            ],
            [
              -1.6377185944782997,
              53.72682478817799
            ],
            [
              -1.638374364635707,
              53.727829264829374
            ],
            [
              -1.6372245210720338,
              53.72828632033535
            ],
            [
              -1.6374760493515872,
              53.72849358805524
            ],
            [
              -1.6368831612640686,
              53.72873805636021
            ],
            [
              -1.6363801047049615,
              53.728174714216784
            ],
            [
              -1.6360567112026785,
              53.72825974747684
            ],
            [
              -1.6364789193862146,
              53.72870616927061
            ],
            [
              -1.6355895872549364,
              53.72897189427836
            ],
            [
              -1.636586717220309,
              53.73056089477455
            ],
            [
              -1.635948913368584,
              53.731049805921735
            ],
            [
              -1.635805182923125,
              53.73145899892409
            ],
            [
              -1.6358411155344899,
              53.73186287382605
            ],
            [
              -1.6355626377964128,
              53.73199041246265
            ],
            [
              -1.6357692503117602,
              53.732224232291486
            ],
            [
              -1.6348439855691173,
              53.7322773729803
            ]
          ]
        ]
      }
    }
  ]
}
