{
  "type": "FeatureCollection",
  "features": [
    {
      "type": "Feature",
      "properties": {
        "WardName": "Birstall & Birkenshaw",
        "NoCllrs": 3,
        "Number": 5
      },
      "geometry": {
        "type": "Polygon",
        "coordinates": [
          [
            [
              -1.7048227462020278,
              53.76482935506227
            ],
            [
              -1.7029362841053768,
              53.764080645470585
            ],
            [
              -1.7025589916860466,
              53.76434083684228
            ],
            [
              -1.7018942383757982,
              53.76385231293857
            ],
            [
              -1.7015349122621504,
              53.76406471533421
            ],
            [
              -1.6977979206802132,
              53.762423878919115
            ],
            [
              -1.697735038610325,
              53.762482291672065
            ],
            [
              -1.6963695993784633,
              53.762121193352414
            ],
            [
              -1.6953275536488845,
              53.76199905645333
            ],
            [
              -1.6957856944437855,
              53.761781333273845
            ],
            [
              -1.6951389074392194,
              53.76144147044469
            ],
            [
              -1.6949053454653482,
              53.761473332701755
            ],
            [
              -1.6944561878232887,
              53.7610325693329
            ],
            [
              -1.6938273671244048,
              53.76070863185939
            ],
            [
              -1.6930637991329034,
              53.76074580513903
            ],
            [
              -1.6911953033419347,
              53.7603262762163
            ],
            [
              -1.689973594555532,
              53.759943917091945
            ],
            [
              -1.6899915608612146,
              53.75984832676688
            ],
            [
              -1.689596302136202,
              53.759577486330976
            ],
            [
              -1.6906293647129393,
              53.75839851349528
            ],
            [
              -1.6905395331845274,
              53.758483485617184
            ],
            [
              -1.6870001709650966,
              53.7576868652251
            ],
            [
              -1.6866498280042899,
              53.75809048811219
            ],
            [
              -1.683155381549065,
              53.75708142362141
            ],
            [
              -1.6819965548325508,
              53.756624681197515
            ],
            [
              -1.6793465247443984,
              53.75545093660515
            ],
            [
              -1.6767054778090869,
              53.75397972624757
            ],
            [
              -1.6764270000710098,
              53.75365573437177
            ],
            [
              -1.6766336125863572,
              53.753517638714314
            ],
            [
              -1.6761305560272504,
              53.75326800310449
            ],
            [
              -1.675663432079508,
              53.7526359403526
            ],
            [
              -1.6761395391800915,
              53.75239161102583
            ],
            [
              -1.675888010900538,
              53.752131345614615
            ],
            [
              -1.6745674874328824,
              53.752088853149445
            ],
            [
              -1.6733367954936387,
              53.75164799128705
            ],
            [
              -1.66838707827814,
              53.7495020433815
            ],
            [
              -1.667605543980956,
              53.74901334685158
            ],
            [
              -1.66635688573603,
              53.74843965236721
            ],
            [
              -1.663967367080272,
              53.74761628085288
            ],
            [
              -1.6608412298915363,
              53.746851327696625
            ],
            [
              -1.6583708628602074,
              53.7466175892321
            ],
            [
              -1.6586583237511257,
              53.74624041760414
            ],
            [
              -1.6580564525107655,
              53.746118234519734
            ],
            [
              -1.658442728082937,
              53.74545950220411
            ],
            [
              -1.6528552070157136,
              53.746102297569486
            ],
            [
              -1.6500434801764194,
              53.74654321762979
            ],
            [
              -1.6494955078531066,
              53.746713209670226
            ],
            [
              -1.6492619458792355,
              53.746638838237146
            ],
            [
              -1.6482019338439744,
              53.74669196070276
            ],
            [
              -1.6421293225233264,
              53.74762690510423
            ],
            [
              -1.6396769217976803,
              53.74776502012707
            ],
            [
              -1.637880291229441,
              53.747727835357885
            ],
            [
              -1.6391289494743673,
              53.74686726436279
            ],
            [
              -1.6395421745050622,
              53.746766332041815
            ],
            [
              -1.6388235222777665,
              53.74645822135165
            ],
            [
              -1.638706741290831,
              53.746187294567605
            ],
            [
              -1.6384372467055952,
              53.746049174358326
            ],
            [
              -1.6388325054306077,
              53.74515138193083
            ],
            [
              -1.638518095081166,
              53.744726384742926
            ],
            [
              -1.6377635102425057,
              53.74417919453341
            ],
            [
              -1.6377545270896645,
              53.74381793883956
            ],
            [
              -1.6370718074737336,
              53.743361052190714
            ],
            [
              -1.6364789193862146,
              53.74312198161567
            ],
            [
              -1.6362723068708673,
              53.74266508739978
            ],
            [
              -1.6360567112026785,
              53.742702276649595
            ],
            [
              -1.6358680649930133,
              53.742585396039395
            ],
            [
              -1.6361824753424552,
              53.7419797367615
            ],
            [
              -1.6361285764254079,
              53.74167690384914
            ],
            [
              -1.6368112960413388,
              53.74107123147746
            ],
            [
              -1.6368921444169098,
              53.7407099490643
            ],
            [
              -1.6366495992901973,
              53.74047086340665
            ],
            [
              -1.6367933297356565,
              53.74004581887901
            ],
            [
              -1.636685531901562,
              53.74004581887901
            ],
            [
              -1.6362902731765496,
              53.73946137563429
            ],
            [
              -1.6357333177003954,
              53.739695153907476
            ],
            [
              -1.6347541540407051,
              53.73990236538068
            ],
            [
              -1.634278046940122,
              53.73956763864694
            ],
            [
              -1.6362543405651848,
              53.73862188838883
            ],
            [
              -1.6361645090367727,
              53.73800554530604
            ],
            [
              -1.6363172226350733,
              53.73790990505209
            ],
            [
              -1.63599382913279,
              53.73777707100497
            ],
            [
              -1.6360926438140433,
              53.73755390886073
            ],
            [
              -1.6359129807572192,
              53.737458267579065
            ],
            [
              -1.6355985704077776,
              53.73682065347273
            ],
            [
              -1.6352392442941297,
              53.73651778338373
            ],
            [
              -1.6347631371935463,
              53.73648058866092
            ],
            [
              -1.6345116089139928,
              53.736188343265084
            ],
            [
              -1.6345295752196753,
              53.73577919629721
            ],
            [
              -1.6340804175776154,
              53.73537004534667
            ],
            [
              -1.6340894007304567,
              53.735146870422255
            ],
            [
              -1.6339277039793152,
              53.73510967448633
            ],
            [
              -1.6339905860492034,
              53.734769595831594
            ],
            [
              -1.6338558387565856,
              53.73451453503495
            ],
            [
              -1.6336043104770321,
              53.73440825924624
            ],
            [
              -1.6338109229923796,
              53.73413194093806
            ],
            [
              -1.6336761756997618,
              53.73409474410402
            ],
            [
              -1.6337031251582854,
              53.73394064258375
            ],
            [
              -1.633370748503161,
              53.73387156240853
            ],
            [
              -1.6333078664332727,
              53.73349959028282
            ],
            [
              -1.632813793027007,
              53.73295225388438
            ],
            [
              -1.6329754897781485,
              53.7328353461572
            ],
            [
              -1.6326161636645007,
              53.73246867890383
            ],
            [
              -1.632723961498595,
              53.732314571422506
            ],
            [
              -1.6323646353849472,
              53.73226143078071
            ],
            [
              -1.6320951407997115,
              53.73210732253962
            ],
            [
              -1.6321759891752823,
              53.73183630322805
            ],
            [
              -1.6319873429656169,
              53.731692821708656
            ],
            [
              -1.6318436125201579,
              53.731039177479
            ],
            [
              -1.6321939554809646,
              53.73111357652176
            ],
            [
              -1.632256837550853,
              53.73082129381064
            ],
            [
              -1.632679045734389,
              53.73099666368114
            ],
            [
              -1.6336222767827147,
              53.73149619809047
            ],
            [
              -1.6336312599355558,
              53.731793790236324
            ],
            [
              -1.6343858447742161,
              53.732176405614126
            ],
            [
              -1.6348439855691173,
              53.7322773729803
            ],
            [
              -1.6357692503117602,
              53.732224232291486
            ],
            [
              -1.6355626377964128,
              53.73199041246265
            ],
            [
              -1.6358411155344899,
              53.73186287382605
            ],
            [
              -1.635805182923125,
              53.73145899892409
            ],
            [
              -1.635948913368584,
              53.731049805921735
            ],
            [
              -1.636586717220309,
              53.73055558049171
            ],
            [
              -1.6355895872549364,
              53.72897189427836
            ],
            [
              -1.6364789193862146,
              53.72870616927061
            ],
            [
              -1.6360567112026785,
              53.72828632033535
            ],
            [
              -1.6361645090367727,
              53.728206601709466
            ],
            [
              -1.6363801047049615,
              53.728174714216784
            ],
            [
              -1.6368831612640686,
              53.72873805636021
            ],
            [
              -1.6374760493515872,
              53.72849358805524
            ],
            [
              -1.6372245210720338,
              53.72828632033535
            ],
            [
              -1.638374364635707,
              53.727829264829374
            ],
            [
              -1.637691645019776,
              53.72683010293242
            ],
            [
              -1.6382216510374064,
              53.72683541768616
            ],
            [
              -1.6382575836487714,
              53.726755696309304
            ],
            [
              -1.640135062592581,
              53.72712241339123
            ],
            [
              -1.641734063798314,
              53.72764325244514
            ],
            [
              -1.6419945752307086,
              53.72746255391243
            ],
            [
              -1.6426772948466393,
              53.727388148408565
            ],
            [
              -1.6438451047159948,
              53.727499756615
            ],
            [
              -1.644402060192149,
              53.72731905746563
            ],
            [
              -1.644590706401814,
              53.727505071284114
            ],
            [
              -1.644959015668303,
              53.727388148408565
            ],
            [
              -1.646845477764954,
              53.726431494486256
            ],
            [
              -1.646207673913229,
              53.725698045072
            ],
            [
              -1.6465849663325594,
              53.72517186695881
            ],
            [
              -1.6472407364899666,
              53.72478918783175
            ],
            [
              -1.6464951348041474,
              53.72434803951667
            ],
            [
              -1.6478246414246442,
              53.72344978346114
            ],
            [
              -1.6495494067701537,
              53.72457658681188
            ],
            [
              -1.6509238291548565,
              53.72531005578769
            ],
            [
              -1.6560801588857026,
              53.72690450942383
            ],
            [
              -1.661344286450643,
              53.72909944168553
            ],
            [
              -1.6656561998144168,
              53.725729934442995
            ],
            [
              -1.6661951889848883,
              53.725065567550615
            ],
            [
              -1.6669587569763902,
              53.72343915309707
            ],
            [
              -1.6675516450639087,
              53.722594030555456
            ],
            [
              -1.6685308087235993,
              53.72157879800262
            ],
            [
              -1.6696626859815897,
              53.72067516726192
            ],
            [
              -1.6711538893532283,
              53.72139275796674
            ],
            [
              -1.6707226980168508,
              53.721451227780975
            ],
            [
              -1.6701298099293318,
              53.72169042162909
            ],
            [
              -1.6709921926020865,
              53.72209970572477
            ],
            [
              -1.6693662419378303,
              53.72335411008785
            ],
            [
              -1.6705789675713918,
              53.72400787380026
            ],
            [
              -1.6730673009084027,
              53.72575650890035
            ],
            [
              -1.6726540758777078,
              53.72668128955454
            ],
            [
              -1.6726450927248666,
              53.72755821793825
            ],
            [
              -1.6721869519299657,
              53.72838729704444
            ],
            [
              -1.6713964344799404,
              53.72929607651349
            ],
            [
              -1.6712167714231165,
              53.72968934341045
            ],
            [
              -1.670776596933898,
              53.73007197794155
            ],
            [
              -1.670776596933898,
              53.73038552308622
            ],
            [
              -1.6710640578248164,
              53.73045460899017
            ],
            [
              -1.672204918235648,
              53.731118890734045
            ],
            [
              -1.672348648681107,
              53.73111357652176
            ],
            [
              -1.6732289976595442,
              53.731692821708656
            ],
            [
              -1.6734176438692094,
              53.731687507568914
            ],
            [
              -1.6746034200442472,
              53.73246336486215
            ],
            [
              -1.6745495211272001,
              53.732915056006455
            ],
            [
              -1.6752951228130193,
              53.732920369991035
            ],
            [
              -1.6752771565073368,
              53.73330297511524
            ],
            [
              -1.675609533162461,
              53.73330828905079
            ],
            [
              -1.6756454657738258,
              53.733813109863895
            ],
            [
              -1.6759149603590617,
              53.733701518416616
            ],
            [
              -1.6762653033198682,
              53.733834365344066
            ],
            [
              -1.6769749723943226,
              53.73378122662346
            ],
            [
              -1.677172601756829,
              53.734248845059355
            ],
            [
              -1.6776666751630946,
              53.73447733853947
            ],
            [
              -1.6773342985079704,
              53.734716458293285
            ],
            [
              -1.677397180577859,
              53.73481741955868
            ],
            [
              -1.6793465247443984,
              53.7344560833844
            ],
            [
              -1.679202794298939,
              53.73564104187616
            ],
            [
              -1.6789063502551798,
              53.736363690746416
            ],
            [
              -1.6792477100631449,
              53.73650715632342
            ],
            [
              -1.6786817714341498,
              53.7367568915301
            ],
            [
              -1.678969232325068,
              53.73705975989613
            ],
            [
              -1.6794902551898574,
              53.73705975989613
            ],
            [
              -1.6795351709540634,
              53.737410446856614
            ],
            [
              -1.680756879740466,
              53.73749014803046
            ],
            [
              -1.680433486238183,
              53.737883338276255
            ],
            [
              -1.679112962770527,
              53.738685647502216
            ],
            [
              -1.679014148089274,
              53.73903100768544
            ],
            [
              -1.6788075355739265,
              53.73921696968554
            ],
            [
              -1.6776487088574124,
              53.73993424397817
            ],
            [
              -1.6779002371369658,
              53.74008301044679
            ],
            [
              -1.678924316560862,
              53.7399236177817
            ],
            [
              -1.6790770301591622,
              53.74017333268868
            ],
            [
              -1.679337541591557,
              53.74012020198167
            ],
            [
              -1.6794183899671278,
              53.74026365473643
            ],
            [
              -1.6792477100631449,
              53.740295533059886
            ],
            [
              -1.6793734742029218,
              53.74063025399621
            ],
            [
              -1.6798585644563462,
              53.74144844950621
            ],
            [
              -1.6824457124746106,
              53.74117217747894
            ],
            [
              -1.685095742562763,
              53.74109779623823
            ],
            [
              -1.6882667955157051,
              53.74126249737999
            ],
            [
              -1.6904676679617978,
              53.74154408170785
            ],
            [
              -1.6933422768709803,
              53.74214443444679
            ],
            [
              -1.6946538171857948,
              53.74252164284225
            ],
            [
              -1.7016696595547682,
              53.74502388322582
            ],
            [
              -1.7034842564286898,
              53.74543294020058
            ],
            [
              -1.7056671625691002,
              53.74572512131585
            ],
            [
              -1.7081195632947466,
              53.74583668084209
            ],
            [
              -1.7107246776186933,
              53.74568793474132
            ],
            [
              -1.713392674012528,
              53.7452363808526
            ],
            [
              -1.7158001589739684,
              53.74452982208971
            ],
            [
              -1.7159079568080626,
              53.74498669603064
            ],
            [
              -1.7163571144501226,
              53.74486982177442
            ],
            [
              -1.7201300386434244,
              53.74642634770303
            ],
            [
              -1.7193574874990816,
              53.74709037705406
            ],
            [
              -1.717749503140508,
              53.747977503891036
            ],
            [
              -1.7192407065121462,
              53.74858838872651
            ],
            [
              -1.719923426128077,
              53.74874243654352
            ],
            [
              -1.719276639123511,
              53.749167393110405
            ],
            [
              -1.7195461337087468,
              53.74953391469687
            ],
            [
              -1.7198425777525064,
              53.749581721624565
            ],
            [
              -1.7200491902678536,
              53.74939049358733
            ],
            [
              -1.7206510615082138,
              53.74939049358733
            ],
            [
              -1.7216481914735866,
              53.749645464110216
            ],
            [
              -1.7220075175872342,
              53.749363934068874
            ],
            [
              -1.7221961637968992,
              53.74945954825672
            ],
            [
              -1.7223488773951998,
              53.74937986978197
            ],
            [
              -1.7225644730633884,
              53.74964015224012
            ],
            [
              -1.723651434557173,
              53.74907709019962
            ],
            [
              -1.7247383960509577,
              53.7482962275221
            ],
            [
              -1.7268943527328444,
              53.74911427377464
            ],
            [
              -1.72701113371978,
              53.74918864082593
            ],
            [
              -1.726328414103849,
              53.75003854063467
            ],
            [
              -1.727280628305016,
              53.75072375983609
            ],
            [
              -1.7279004658510584,
              53.75004385245441
            ],
            [
              -1.7289335284277958,
              53.75073969503337
            ],
            [
              -1.729535399668156,
              53.75134522805123
            ],
            [
              -1.7294365849869027,
              53.7515948750877
            ],
            [
              -1.728708949606766,
              53.7515948750877
            ],
            [
              -1.7287448822181306,
              53.75167986097441
            ],
            [
              -1.7285472528556245,
              53.751849832232004
            ],
            [
              -1.7284035224101653,
              53.7518338974558
            ],
            [
              -1.7280980952135647,
              53.75217914958653
            ],
            [
              -1.7280441962965174,
              53.75239161102583
            ],
            [
              -1.7278914826982172,
              53.752375676455145
            ],
            [
              -1.7278645332396936,
              53.752556267902186
            ],
            [
              -1.727289611457857,
              53.75285902240983
            ],
            [
              -1.727379442986269,
              53.75303430033797
            ],
            [
              -1.7271189315538744,
              53.75346452487902
            ],
            [
              -1.7269302853442092,
              53.75346983626557
            ],
            [
              -1.7266607907589735,
              53.75368229117692
            ],
            [
              -1.7268494369686385,
              53.75401159416596
            ],
            [
              -1.726373329868055,
              53.75430371562438
            ],
            [
              -1.7266248581476087,
              53.75453741132843
            ],
            [
              -1.7264811277021497,
              53.754659569928975
            ],
            [
              -1.726499094007832,
              53.75505791072358
            ],
            [
              -1.7260050206015662,
              53.755365958347774
            ],
            [
              -1.725591795570871,
              53.756157311715235
            ],
            [
              -1.7250617895532407,
              53.75641224116846
            ],
            [
              -1.7251695873873352,
              53.75656094930163
            ],
            [
              -1.7247383960509577,
              53.75661405922158
            ],
            [
              -1.7246395813697044,
              53.75683712015204
            ],
            [
              -1.7243251710202625,
              53.75689022972279
            ],
            [
              -1.7244419520071983,
              53.75703893616361
            ],
            [
              -1.7242892384088977,
              53.75723544029566
            ],
            [
              -1.723741266085585,
              53.75740538907388
            ],
            [
              -1.7234627883475078,
              53.757856812176655
            ],
            [
              -1.7228429508014653,
              53.758085177309916
            ],
            [
              -1.7222141301025817,
              53.75883399380284
            ],
            [
              -1.7216212420150627,
              53.75913139239359
            ],
            [
              -1.721208016984368,
              53.75914201373288
            ],
            [
              -1.72047139845139,
              53.75949251642253
            ],
            [
              -1.7198874935167123,
              53.75958279694456
            ],
            [
              -1.719564100014429,
              53.75952438015833
            ],
            [
              -1.7193035885820345,
              53.759821773860196
            ],
            [
              -1.7184232396035974,
              53.7602944130889
            ],
            [
              -1.7185759532018976,
              53.76040062341955
            ],
            [
              -1.7180818797956319,
              53.760634285201434
            ],
            [
              -1.7179201830444903,
              53.76044841798072
            ],
            [
              -1.7136981012091288,
              53.76171229885929
            ],
            [
              -1.713895730571635,
              53.76202029767866
            ],
            [
              -1.7144347197421068,
              53.76245574043079
            ],
            [
              -1.7136442022920815,
              53.76261504762657
            ],
            [
              -1.7121619820732843,
              53.76261504762657
            ],
            [
              -1.7106348460902812,
              53.76285400728703
            ],
            [
              -1.709107710107278,
              53.762471671177586
            ],
            [
              -1.7077063382640514,
              53.763209789150814
            ],
            [
              -1.7072392143163093,
              53.76371425080525
            ],
            [
              -1.7048227462020278,
              53.76482935506227
            ]
          ]
        ]
      }
    }
  ]
}
