{
  "type": "FeatureCollection",
  "features": [
    {
      "type": "Feature",
      "properties": {
        "WardName": "Cleckheaton",
        "NoCllrs": 3,
        "Number": 6
      },
      "geometry": {
        "type": "Polygon",
        "coordinates": [
          [
            [
              -1.7296970964192973,
              53.751393032917726
            ],
            [
              -1.7279004658510584,
              53.75004385245441
            ],
            [
              -1.727280628305016,
              53.75072375983609
            ],
            [
              -1.726328414103849,
              53.75003854063467
            ],
            [
              -1.72701113371978,
              53.74918864082593
            ],
            [
              -1.7247383960509577,
              53.7482962275221
            ],
            [
              -1.723651434557173,
              53.74907709019962
            ],
            [
              -1.7225644730633884,
              53.74964015224012
            ],
            [
              -1.7223488773951998,
              53.74937986978197
            ],
            [
              -1.7221961637968992,
              53.74945954825672
            ],
            [
              -1.7220075175872342,
              53.749363934068874
            ],
            [
              -1.7216481914735866,
              53.749645464110216
            ],
            [
              -1.7206510615082138,
              53.74939049358733
            ],
            [
              -1.7200491902678536,
              53.74939049358733
            ],
            [
              -1.7198425777525064,
              53.749581721624565
            ],
            [
              -1.7195461337087468,
              53.74953391469687
            ],
            [
              -1.719276639123511,
              53.749167393110405
            ],
            [
              -1.719923426128077,
              53.74874243654352
            ],
            [
              -1.7192407065121462,
              53.74858838872651
            ],
            [
              -1.717749503140508,
              53.747977503891036
            ],
            [
              -1.7193574874990816,
              53.74709037705406
            ],
            [
              -1.7201300386434244,
              53.74642634770303
            ],
            [
              -1.7163571144501226,
              53.74486982177442
            ],
            [
              -1.7159079568080626,
              53.74498669603064
            ],
            [
              -1.7158001589739684,
              53.74452982208971
            ],
            [
              -1.713392674012528,
              53.7452363808526
            ],
            [
              -1.7107246776186933,
              53.74568793474132
            ],
            [
              -1.7081195632947466,
              53.74583668084209
            ],
            [
              -1.7053078364554524,
              53.74569324711112
            ],
            [
              -1.7033405259832306,
              53.745406378180256
            ],
            [
              -1.7011755861485027,
              53.744880446720224
            ],
            [
              -1.6955611156227555,
              53.742819156934694
            ],
            [
              -1.6933422768709803,
              53.74214443444679
            ],
            [
              -1.694896362312507,
              53.74132625248738
            ],
            [
              -1.6952287389676315,
              53.74124124565603
            ],
            [
              -1.694519069893177,
              53.740088323525214
            ],
            [
              -1.6937644850545166,
              53.74046555037659
            ],
            [
              -1.6930368496743797,
              53.739732345785605
            ],
            [
              -1.6928122708533497,
              53.739429496678085
            ],
            [
              -1.693423125246551,
              53.739238222433166
            ],
            [
              -1.6932165127312035,
              53.73908413976943
            ],
            [
              -1.6930907485914268,
              53.739126645388254
            ],
            [
              -1.692399045822655,
              53.738366850968056
            ],
            [
              -1.6930188833686974,
              53.738090558682416
            ],
            [
              -1.6922553153771958,
              53.73728292466407
            ],
            [
              -1.691994803944801,
              53.737320118676884
            ],
            [
              -1.691806157735136,
              53.737251044055476
            ],
            [
              -1.6917702251237712,
              53.73717134242821
            ],
            [
              -1.6920846354732129,
              53.73709695410639
            ],
            [
              -1.6914558147743293,
              53.73635306364717
            ],
            [
              -1.6919229387220716,
              53.736225538246515
            ],
            [
              -1.691806157735136,
              53.736082071708275
            ],
            [
              -1.6953006041903609,
              53.73521594850168
            ],
            [
              -1.6968367233262052,
              53.73473771331668
            ],
            [
              -1.6973038472739475,
              53.73517343892778
            ],
            [
              -1.6975733418591832,
              53.735083105940525
            ],
            [
              -1.6984626739904618,
              53.73516812522802
            ],
            [
              -1.7013282997468029,
              53.73453579016045
            ],
            [
              -1.7024242443934285,
              53.73414256859886
            ],
            [
              -1.7034662901230073,
              53.733616496162725
            ],
            [
              -1.703583071109943,
              53.73344645113902
            ],
            [
              -1.7034573069701662,
              53.73331891691985
            ],
            [
              -1.7036729026383548,
              53.73322326600153
            ],
            [
              -1.7041310434332557,
              53.733313602985646
            ],
            [
              -1.7053527522196583,
              53.73246336486215
            ],
            [
              -1.7058647919316063,
              53.731894758521456
            ],
            [
              -1.7062241180452542,
              53.731804418488274
            ],
            [
              -1.7064756463248076,
              53.730885064757295
            ],
            [
              -1.7064936126304902,
              53.729880661111316
            ],
            [
              -1.7066822588401553,
              53.72942362293718
            ],
            [
              -1.7063858147963957,
              53.7294183085106
            ],
            [
              -1.7066103936174257,
              53.72880183046688
            ],
            [
              -1.7065924273117432,
              53.72805779320341
            ],
            [
              -1.705972589765701,
              53.72695765683708
            ],
            [
              -1.7048946114247574,
              53.7258840660619
            ],
            [
              -1.7049574934946456,
              53.72556517243251
            ],
            [
              -1.7047329146736159,
              53.725575802259115
            ],
            [
              -1.7033854417474366,
              53.72453938152288
            ],
            [
              -1.7038974814593848,
              53.72424705310681
            ],
            [
              -1.7035201890400546,
              53.723497620066134
            ],
            [
              -1.7022535644894459,
              53.72272691258353
            ],
            [
              -1.7009060915632668,
              53.7211535624256
            ],
            [
              -1.699495736567199,
              53.71985656735934
            ],
            [
              -1.6996664164711817,
              53.719787464040884
            ],
            [
              -1.6993430229688988,
              53.71944726143301
            ],
            [
              -1.7012474513712321,
              53.718426637098084
            ],
            [
              -1.7000706583490355,
              53.71763988893607
            ],
            [
              -1.7003850686984774,
              53.71744319959615
            ],
            [
              -1.7022535644894459,
              53.717900367997665
            ],
            [
              -1.7030530650923124,
              53.717974790290434
            ],
            [
              -1.7050024092588516,
              53.717708995783084
            ],
            [
              -1.705011392411693,
              53.71763457302006
            ],
            [
              -1.705433600595229,
              53.71754420234506
            ],
            [
              -1.7074278605259745,
              53.717432567713736
            ],
            [
              -1.7086765187709008,
              53.71707108211257
            ],
            [
              -1.7095568677493378,
              53.71756015012532
            ],
            [
              -1.7127728364664856,
              53.71672554150144
            ],
            [
              -1.7126650386323912,
              53.71643315876717
            ],
            [
              -1.7134555560824165,
              53.71603445176325
            ],
            [
              -1.7140035284057293,
              53.71610356124806
            ],
            [
              -1.714641332257454,
              53.716018503404506
            ],
            [
              -1.7152881192620202,
              53.71562510864079
            ],
            [
              -1.715225237192132,
              53.715242342636635
            ],
            [
              -1.7178393346689198,
              53.71488615447638
            ],
            [
              -1.7183693406865503,
              53.71471603369379
            ],
            [
              -1.718827481481451,
              53.71336035912159
            ],
            [
              -1.7193574874990816,
              53.713254029856486
            ],
            [
              -1.7201390217962655,
              53.71331782744779
            ],
            [
              -1.7201390217962655,
              53.71277022830678
            ],
            [
              -1.7207947919536728,
              53.71242996893925
            ],
            [
              -1.7220793828099639,
              53.71263199827064
            ],
            [
              -1.7234268557361432,
              53.713562383984915
            ],
            [
              -1.7246844971339104,
              53.714099340089454
            ],
            [
              -1.7252234863043823,
              53.714652238222925
            ],
            [
              -1.7258343406975836,
              53.71501374461181
            ],
            [
              -1.7281699604362941,
              53.71608761291547
            ],
            [
              -1.728987427344843,
              53.71628430859447
            ],
            [
              -1.732535772717115,
              53.71652353182934
            ],
            [
              -1.733182559721681,
              53.71649695153708
            ],
            [
              -1.7348444429973022,
              53.71620988331058
            ],
            [
              -1.7362188653820052,
              53.71633215335028
            ],
            [
              -1.7360212360194989,
              53.71574738038034
            ],
            [
              -1.7346288473291134,
              53.71504032584131
            ],
            [
              -1.7344761337308132,
              53.71466818709972
            ],
            [
              -1.7368207366223654,
              53.714131238256236
            ],
            [
              -1.7409799363878387,
              53.716661749078206
            ],
            [
              -1.7411955320560273,
              53.71691691819063
            ],
            [
              -1.743989292589639,
              53.71561447629883
            ],
            [
              -1.7443396355504457,
              53.715859019484284
            ],
            [
              -1.7446270964413637,
              53.71589091631668
            ],
            [
              -1.7445282817601107,
              53.716353417668735
            ],
            [
              -1.7448426921095523,
              53.71685844207243
            ],
            [
              -1.7449684562493293,
              53.71826184647176
            ],
            [
              -1.7463069460226675,
              53.71878811104923
            ],
            [
              -1.7464057607039205,
              53.718692427070366
            ],
            [
              -1.747816115699988,
              53.718931636609355
            ],
            [
              -1.7482473070363653,
              53.719239949119434
            ],
            [
              -1.7480586608267004,
              53.719468524176634
            ],
            [
              -1.7510320844171359,
              53.719718360608866
            ],
            [
              -1.7535832998240355,
              53.72035623412953
            ],
            [
              -1.754391783579743,
              53.72068579832467
            ],
            [
              -1.755406879850798,
              53.72073363807381
            ],
            [
              -1.7553978966979569,
              53.721972137083256
            ],
            [
              -1.7552541662524979,
              53.7224824093274
            ],
            [
              -1.755406879850798,
              53.72311492570239
            ],
            [
              -1.7539875417018893,
              53.72309898002831
            ],
            [
              -1.7537719460337007,
              53.72384310504214
            ],
            [
              -1.7536371987410826,
              53.72586280656184
            ],
            [
              -1.7561973973008234,
              53.7261870127697
            ],
            [
              -1.7568082516940247,
              53.72617106826055
            ],
            [
              -1.757419106087226,
              53.72603819711579
            ],
            [
              -1.758497084428169,
              53.72545355909085
            ],
            [
              -1.7592157366554648,
              53.725267536196384
            ],
            [
              -1.7598804899657132,
              53.725262221244456
            ],
            [
              -1.7604554117475497,
              53.72534726039478
            ],
            [
              -1.7612369460447337,
              53.72561300663107
            ],
            [
              -1.7625574695123893,
              53.72571930465534
            ],
            [
              -1.7634647679493503,
              53.7259053255512
            ],
            [
              -1.7638151109101567,
              53.72592658502974
            ],
            [
              -1.7640576560368693,
              53.72583623217168
            ],
            [
              -1.764560712595976,
              53.72591595529183
            ],
            [
              -1.7650458028494005,
              53.72603819711579
            ],
            [
              -1.765153600683495,
              53.72617106826055
            ],
            [
              -1.7657195393124903,
              53.726213586938194
            ],
            [
              -1.7659351349806789,
              53.72631456862526
            ],
            [
              -1.7671119280028755,
              53.72614449406521
            ],
            [
              -1.7682617715665485,
              53.72622953143124
            ],
            [
              -1.7687468618199729,
              53.726373031596395
            ],
            [
              -1.770085351593311,
              53.726250790745866
            ],
            [
              -1.7700943347461522,
              53.726442124093865
            ],
            [
              -1.769761958091028,
              53.726474012900574
            ],
            [
              -1.7696361939512513,
              53.72672380771625
            ],
            [
              -1.7693307667546507,
              53.72683010293242
            ],
            [
              -1.7691870363091915,
              53.72726591050919
            ],
            [
              -1.768701946055767,
              53.72735626029517
            ],
            [
              -1.767920411758583,
              53.727877096452296
            ],
            [
              -1.7667705681949102,
              53.72815877046139
            ],
            [
              -1.7665010736096742,
              53.728552047996594
            ],
            [
              -1.7659261518278377,
              53.72886028997966
            ],
            [
              -1.765800387688061,
              53.72914727186346
            ],
            [
              -1.7650907186136064,
              53.729466138325776
            ],
            [
              -1.7650547860022419,
              53.729593684233556
            ],
            [
              -1.764381049539152,
              53.7298168886411
            ],
            [
              -1.7637971446044745,
              53.730210150666366
            ],
            [
              -1.7638959592857275,
              53.730295179809794
            ],
            [
              -1.763779178298792,
              53.73075752276725
            ],
            [
              -1.7635995152419681,
              53.730794722554315
            ],
            [
              -1.763401885879462,
              53.73113483336692
            ],
            [
              -1.762907812473196,
              53.73128894517301
            ],
            [
              -1.7618657667436173,
              53.73279283417577
            ],
            [
              -1.7615423732413344,
              53.73338799800325
            ],
            [
              -1.7614794911714462,
              53.733977839554164
            ],
            [
              -1.7604015128305026,
              53.734254158875316
            ],
            [
              -1.7610842324464335,
              53.73455704527522
            ],
            [
              -1.7609045693896095,
              53.734647379392996
            ],
            [
              -1.7569968979036896,
              53.734626124323924
            ],
            [
              -1.7547870423047556,
              53.73470583077754
            ],
            [
              -1.753834828103589,
              53.73460486924412
            ],
            [
              -1.7522897258149033,
              53.73458892792718
            ],
            [
              -1.7516429388103372,
              53.73436043505365
            ],
            [
              -1.7513734442251014,
              53.734402945449744
            ],
            [
              -1.749918173464828,
              53.73423821742539
            ],
            [
              -1.7486335826085369,
              53.73437637645721
            ],
            [
              -1.7460823672016375,
              53.73438169025707
            ],
            [
              -1.7459027041448136,
              53.734487966112944
            ],
            [
              -1.7464866090794913,
              53.736528410441345
            ],
            [
              -1.7471603455425808,
              53.73799491862192
            ],
            [
              -1.7469267835687097,
              53.73847843003008
            ],
            [
              -1.7468549183459803,
              53.739509194023235
            ],
            [
              -1.7458488052277663,
              53.74230381868893
            ],
            [
              -1.7474747558920227,
              53.74273415312324
            ],
            [
              -1.7469267835687097,
              53.743191046588166
            ],
            [
              -1.745929653603337,
              53.74369043608845
            ],
            [
              -1.7466033900664268,
              53.7455657500503
            ],
            [
              -1.747348991752246,
              53.74669196070276
            ],
            [
              -1.7468549183459803,
              53.74698413306311
            ],
            [
              -1.7466303395249503,
              53.747329425051376
            ],
            [
              -1.745687108476625,
              53.74711693800981
            ],
            [
              -1.7445462480657932,
              53.74734536153617
            ],
            [
              -1.7445103154544284,
              53.74727099122207
            ],
            [
              -1.7432706403623432,
              53.74743035601967
            ],
            [
              -1.7427765669560775,
              53.74709568924656
            ],
            [
              -1.742471139759477,
              53.747334737213656
            ],
            [
              -1.7419052011304816,
              53.747334737213656
            ],
            [
              -1.7410697679162506,
              53.747541911018324
            ],
            [
              -1.7408182396366971,
              53.74790844678561
            ],
            [
              -1.7406475597327142,
              53.74791375887468
            ],
            [
              -1.7400007727281481,
              53.74778626855183
            ],
            [
              -1.7398211096713243,
              53.747621592978895
            ],
            [
              -1.73911144059687,
              53.74762690510423
            ],
            [
              -1.7381682095485445,
              53.74729755206365
            ],
            [
              -1.737638203530914,
              53.74729223989669
            ],
            [
              -1.7373148100286309,
              53.747414419567114
            ],
            [
              -1.7370992143604422,
              53.74730286422997
            ],
            [
              -1.736677006176906,
              53.74736661017317
            ],
            [
              -1.736587174648494,
              53.747185996416185
            ],
            [
              -1.7352756343336795,
              53.747111625820004
            ],
            [
              -1.7338922287961354,
              53.746872576583485
            ],
            [
              -1.7337574815035175,
              53.746925698753586
            ],
            [
              -1.7341527402285302,
              53.747727835357885
            ],
            [
              -1.7338293467262471,
              53.74808374537005
            ],
            [
              -1.733919178254659,
              53.748200610686645
            ],
            [
              -1.733308323861458,
              53.74850870859951
            ],
            [
              -1.7331556102631576,
              53.74897616318725
            ],
            [
              -1.7328142504551922,
              53.74892304360966
            ],
            [
              -1.7323381433546088,
              53.74912489764714
            ],
            [
              -1.7311882997909358,
              53.74991636859529
            ],
            [
              -1.7311793166380944,
              53.7501341532872
            ],
            [
              -1.7307571084545585,
              53.75059627804018
            ],
            [
              -1.7309098220528587,
              53.750829994370484
            ],
            [
              -1.7307211758431937,
              53.75103715093986
            ],
            [
              -1.7304067654937518,
              53.75110089121721
            ],
            [
              -1.7303977823409105,
              53.751302734790876
            ],
            [
              -1.7298318437119151,
              53.75147270757437
            ],
            [
              -1.7296970964192973,
              53.751393032917726
            ]
          ]
        ]
      }
    }
  ]
}
