{
  "type": "FeatureCollection",
  "features": [
    {
      "type": "Feature",
      "properties": {
        "WardName": "Colne Valley West",
        "NoCllrs": 3,
        "Number": 8
      },
      "geometry": {
        "type": "Polygon",
        "coordinates": [
          [
            [
              -1.862575893246257,
              53.65898575403237
            ],
            [
              -1.8634652253775352,
              53.657660225021424
            ],
            [
              -1.8617314768791846,
              53.657239666946204
            ],
            [
              -1.8619919883115794,
              53.65683507547092
            ],
            [
              -1.8602043408961815,
              53.65659018927045
            ],
            [
              -1.8603301050359582,
              53.65538170827541
            ],
            [
              -1.8615518138223608,
              53.655365736928985
            ],
            [
              -1.861596729586567,
              53.65520602313197
            ],
            [
              -1.8612194371672364,
              53.65493983212568
            ],
            [
              -1.861345201307013,
              53.65475349742118
            ],
            [
              -1.8644623553429078,
              53.65390699510869
            ],
            [
              -1.8641838776048312,
              53.65360885188204
            ],
            [
              -1.8627825057616043,
              53.65324681798656
            ],
            [
              -1.8608421447479062,
              53.65294334600252
            ],
            [
              -1.860455869175735,
              53.65333200271224
            ],
            [
              -1.8588838174285258,
              53.65281024356597
            ],
            [
              -1.8595216212802508,
              53.65269311307425
            ],
            [
              -1.8598899305467396,
              53.652442878660786
            ],
            [
              -1.8591892446251264,
              53.65157503291125
            ],
            [
              -1.8590544973325083,
              53.65117571138165
            ],
            [
              -1.8607882458308591,
              53.64924294172848
            ],
            [
              -1.860958925734842,
              53.64881697506979
            ],
            [
              -1.860599599621194,
              53.64880632584816
            ],
            [
              -1.8603031555774348,
              53.648508146551436
            ],
            [
              -1.860509768092782,
              53.64832178342021
            ],
            [
              -1.860410953411529,
              53.6478478848907
            ],
            [
              -1.8596923011842332,
              53.647682817860165
            ],
            [
              -1.8597731495598042,
              53.64727280985952
            ],
            [
              -1.8602762061189109,
              53.64688409729451
            ],
            [
              -1.8599258631581042,
              53.64682552385765
            ],
            [
              -1.8588299185114787,
              53.64707579160999
            ],
            [
              -1.8581202494370244,
              53.64670837673984
            ],
            [
              -1.8579046537688353,
              53.64646343171461
            ],
            [
              -1.8588119522057964,
              53.646106661415196
            ],
            [
              -1.8586502554546545,
              53.645920287670506
            ],
            [
              -1.8586772049131783,
              53.645685988080004
            ],
            [
              -1.8578597380046296,
              53.64505763275155
            ],
            [
              -1.857644142336441,
              53.64500438186965
            ],
            [
              -1.8575093950438228,
              53.64473812645158
            ],
            [
              -1.8565841303011799,
              53.644833978595734
            ],
            [
              -1.8559642927551374,
              53.64470085055893
            ],
            [
              -1.8564853156199266,
              53.64459967296986
            ],
            [
              -1.8567907428165273,
              53.644386666725794
            ],
            [
              -1.8582280472711186,
              53.64417898460203
            ],
            [
              -1.8587760195944316,
              53.64322043847
            ],
            [
              -1.8593868739876327,
              53.64265062572265
            ],
            [
              -1.8608421447479062,
              53.64238968086651
            ],
            [
              -1.8612284203200777,
              53.64212873439594
            ],
            [
              -1.8620189377701026,
              53.641974295928364
            ],
            [
              -1.861974022005897,
              53.641899739224364
            ],
            [
              -1.8630879329582053,
              53.64173464891082
            ],
            [
              -1.863078949805364,
              53.64167606832166
            ],
            [
              -1.8642108270633546,
              53.64161216213159
            ],
            [
              -1.864309641744608,
              53.64146304731152
            ],
            [
              -1.8646240520940494,
              53.6414470706924
            ],
            [
              -1.8648665972207619,
              53.64125002522554
            ],
            [
              -1.8646510015525732,
              53.64120209510794
            ],
            [
              -1.8632406465565052,
              53.63897062156071
            ],
            [
              -1.8631148824167287,
              53.638730957476966
            ],
            [
              -1.863222680250823,
              53.638709653936935
            ],
            [
              -1.8631418318752524,
              53.63813978024845
            ],
            [
              -1.8615428306695196,
              53.6381557581203
            ],
            [
              -1.861048757263254,
              53.63801728302972
            ],
            [
              -1.8601504419791344,
              53.637958697277625
            ],
            [
              -1.8603480713416405,
              53.63758587694883
            ],
            [
              -1.860590616468353,
              53.6374473999875
            ],
            [
              -1.8589826321097789,
              53.63671772541378
            ],
            [
              -1.858793985900114,
              53.63677631288935
            ],
            [
              -1.8576890581006467,
              53.636440765336836
            ],
            [
              -1.8567009112881154,
              53.63585488225942
            ],
            [
              -1.8564403998557206,
              53.63599869067737
            ],
            [
              -1.8562517536460554,
              53.63596140706052
            ],
            [
              -1.8560990400477555,
              53.63575368344924
            ],
            [
              -1.8550030954011296,
              53.63512518013986
            ],
            [
              -1.8538891844488212,
              53.63468841808863
            ],
            [
              -1.853601723557903,
              53.63440611825955
            ],
            [
              -1.852766290343672,
              53.63392673686391
            ],
            [
              -1.852586627286848,
              53.63368171760262
            ],
            [
              -1.8524249305357063,
              53.633766941854915
            ],
            [
              -1.8519218739765995,
              53.63345267657162
            ],
            [
              -1.8515715310157927,
              53.63360181970979
            ],
            [
              -1.8508618619413384,
              53.632941324666774
            ],
            [
              -1.8509516934697503,
              53.63265368649675
            ],
            [
              -1.8514547500288574,
              53.63226483918665
            ],
            [
              -1.8511762722907803,
              53.63198784987608
            ],
            [
              -1.8493526922640176,
              53.63255780667099
            ],
            [
              -1.848130983477615,
              53.63267499309511
            ],
            [
              -1.8475291122372548,
              53.63256313333369
            ],
            [
              -1.8471787692764485,
              53.632600419953775
            ],
            [
              -1.846594864341771,
              53.63307448982215
            ],
            [
              -1.8453821387082092,
              53.634842883233304
            ],
            [
              -1.844959930524673,
              53.634715050050495
            ],
            [
              -1.8437561880439532,
              53.63488549420818
            ],
            [
              -1.843100417886546,
              53.63507191671718
            ],
            [
              -1.8431363504979108,
              53.634715050050495
            ],
            [
              -1.8420044732399201,
              53.63363910541194
            ],
            [
              -1.841600231362066,
              53.63382553342849
            ],
            [
              -1.8413936188467186,
              53.63372432975028
            ],
            [
              -1.8409264948989765,
              53.63377226836495
            ],
            [
              -1.840306657352934,
              53.63332483917644
            ],
            [
              -1.8399563143921274,
              53.633351471999035
            ],
            [
              -1.8398754660165568,
              53.63325026718369
            ],
            [
              -1.8400191964620158,
              53.63311710258312
            ],
            [
              -1.8394981735972262,
              53.632829465611465
            ],
            [
              -1.8390220664966432,
              53.63317569505914
            ],
            [
              -1.838689689841519,
              53.6329732843424
            ],
            [
              -1.8389052855097077,
              53.63286675199618
            ],
            [
              -1.8387615550642484,
              53.63285077212104
            ],
            [
              -1.83869867299436,
              53.63199317661075
            ],
            [
              -1.8383483300335537,
              53.631423212188466
            ],
            [
              -1.8387885045227719,
              53.631188832061184
            ],
            [
              -1.8381596838238885,
              53.630768009928985
            ],
            [
              -1.8410971748029594,
              53.62916458587637
            ],
            [
              -1.8400102133091745,
              53.62785410103822
            ],
            [
              -1.8407558149949936,
              53.62676732664534
            ],
            [
              -1.8406120845495346,
              53.6262079465625
            ],
            [
              -1.8408276802177233,
              53.62574978211403
            ],
            [
              -1.8408725959819294,
              53.62467893650478
            ],
            [
              -1.8404953035625993,
              53.624087562358454
            ],
            [
              -1.837584762042052,
              53.62220150297009
            ],
            [
              -1.8351143950107232,
              53.62253716377195
            ],
            [
              -1.8385010436318538,
              53.6211252392233
            ],
            [
              -1.8381776501295708,
              53.620880145622884
            ],
            [
              -1.839057999108008,
              53.618993942905725
            ],
            [
              -1.8352221928448174,
              53.6170703555929
            ],
            [
              -1.8351862602334528,
              53.61688918218827
            ],
            [
              -1.8353120243732293,
              53.61678793788819
            ],
            [
              -1.8371805201641982,
              53.616217768085356
            ],
            [
              -1.83584203039086,
              53.615066747637066
            ],
            [
              -1.8343508270192215,
              53.61473102742842
            ],
            [
              -1.8344855743118396,
              53.61446990986495
            ],
            [
              -1.834737102591393,
              53.6146883960998
            ],
            [
              -1.8353838895959589,
              53.614858921156035
            ],
            [
              -1.8381596838238885,
              53.61519464034769
            ],
            [
              -1.8398215670995097,
              53.61520529805608
            ],
            [
              -1.8453551892496858,
              53.61474701416557
            ],
            [
              -1.847798606822491,
              53.61474701416557
            ],
            [
              -1.847403348097478,
              53.613489372351204
            ],
            [
              -1.8476997921412377,
              53.61343608161649
            ],
            [
              -1.8477806405168087,
              53.612769941757314
            ],
            [
              -1.8476638595298729,
              53.612077145154984
            ],
            [
              -1.8474123312503197,
              53.611474935796515
            ],
            [
              -1.846648763258818,
              53.61059558812045
            ],
            [
              -1.8465319822718824,
              53.60950836931307
            ],
            [
              -1.8512211880549865,
              53.60763231809671
            ],
            [
              -1.8517511940726166,
              53.60750973230391
            ],
            [
              -1.8566020966068622,
              53.60741912518485
            ],
            [
              -1.8573027825284751,
              53.60757369015326
            ],
            [
              -1.858254996729642,
              53.60823991199096
            ],
            [
              -1.8582370304239597,
              53.609561665005124
            ],
            [
              -1.8660613565486406,
              53.607579019969656
            ],
            [
              -1.8665105141907006,
              53.60895941977048
            ],
            [
              -1.8707415791789033,
              53.60812265770965
            ],
            [
              -1.8719902374238298,
              53.60934315224025
            ],
            [
              -1.8713793830306282,
              53.609694903940955
            ],
            [
              -1.8730502494590904,
              53.61064888244031
            ],
            [
              -1.8745414528307291,
              53.60979616525102
            ],
            [
              -1.8763021507876034,
              53.60947106228861
            ],
            [
              -1.8768501231109163,
              53.609870778692525
            ],
            [
              -1.8803894853303469,
              53.608133317203226
            ],
            [
              -1.8809644071121836,
              53.60798408404836
            ],
            [
              -1.8811440701690076,
              53.60662497211657
            ],
            [
              -1.8805511820814884,
              53.60650771335127
            ],
            [
              -1.8797786309371458,
              53.60559095178139
            ],
            [
              -1.8895972169925723,
              53.59730721544107
            ],
            [
              -1.8923730112205015,
              53.59622498576858
            ],
            [
              -1.8966130593615456,
              53.5950467633247
            ],
            [
              -1.8969005202524638,
              53.59649687858941
            ],
            [
              -1.905057223032269,
              53.594918809588194
            ],
            [
              -1.905281801853299,
              53.59473754113149
            ],
            [
              -1.9069436851289203,
              53.59117599135695
            ],
            [
              -1.9059016393993415,
              53.58671829951502
            ],
            [
              -1.9051201051021576,
              53.58501188154398
            ],
            [
              -1.90431162134645,
              53.58373202285157
            ],
            [
              -1.9025509233895757,
              53.5815561741303
            ],
            [
              -1.9007632759741777,
              53.5805962052636
            ],
            [
              -1.8984186730826258,
              53.57913487747131
            ],
            [
              -1.890423667053962,
              53.57329439527106
            ],
            [
              -1.888438390276058,
              53.57448389223041
            ],
            [
              -1.8847373313054858,
              53.56900019283486
            ],
            [
              -1.8819615370775562,
              53.56448147424606
            ],
            [
              -1.8873963445464792,
              53.56305160205425
            ],
            [
              -1.9058657067879767,
              53.558601615894226
            ],
            [
              -1.925996952305095,
              53.55501567497669
            ],
            [
              -1.9275240882880982,
              53.55463678549043
            ],
            [
              -1.928700881310295,
              53.555586671032486
            ],
            [
              -1.9427235828954006,
              53.56164302397847
            ],
            [
              -1.9445920786863693,
              53.56868544531815
            ],
            [
              -1.9463976924074498,
              53.571507419904414
            ],
            [
              -1.9481134746001176,
              53.57284632495962
            ],
            [
              -1.950323330199052,
              53.57416385149601
            ],
            [
              -1.950934184592253,
              53.57363577898809
            ],
            [
              -1.9537099788201824,
              53.57568402340945
            ],
            [
              -1.9538267598071182,
              53.57591871174668
            ],
            [
              -1.9536920125145,
              53.576030721630204
            ],
            [
              -1.9565845877293648,
              53.577572160837434
            ],
            [
              -1.9668613145796925,
              53.58001488018531
            ],
            [
              -1.9675889499598291,
              53.58099086176996
            ],
            [
              -1.9694215131394328,
              53.58220680730017
            ],
            [
              -1.9711642447906246,
              53.58415331395004
            ],
            [
              -1.9782429692294865,
              53.58678762128878
            ],
            [
              -1.9804528248284206,
              53.58858461528311
            ],
            [
              -1.9816475841562995,
              53.58933645063157
            ],
            [
              -1.9827525119557667,
              53.59026422900653
            ],
            [
              -1.9836238777813626,
              53.59146391222256
            ],
            [
              -1.9907115853730657,
              53.59947692245642
            ],
            [
              -1.992301603425957,
              53.60114544197506
            ],
            [
              -1.9947629873044446,
              53.60338957675005
            ],
            [
              -1.995876898256753,
              53.60511657315623
            ],
            [
              -1.9996049066858488,
              53.60794144590725
            ],
            [
              -2.0066297322076636,
              53.61224768075796
            ],
            [
              -2.007510081186101,
              53.61253545802608
            ],
            [
              -2.0075639801031477,
              53.612668687578584
            ],
            [
              -2.007249569753706,
              53.61291382885679
            ],
            [
              -2.0074292328105297,
              53.613169626934
            ],
            [
              -2.0074112665048474,
              53.61364391510151
            ],
            [
              -2.007671777937242,
              53.614373988721766
            ],
            [
              -2.008228733413396,
              53.61447523881097
            ],
            [
              -2.008534160609997,
              53.614810961053585
            ],
            [
              -2.0086150089855677,
              53.6151306940408
            ],
            [
              -2.0089923014048976,
              53.61556232973261
            ],
            [
              -2.00901026771058,
              53.61603659102176
            ],
            [
              -2.009270779142975,
              53.61617513825799
            ],
            [
              -2.0092617959901338,
              53.61655347647157
            ],
            [
              -2.009468408505481,
              53.6167772805793
            ],
            [
              -2.00412343256497,
              53.619494807213364
            ],
            [
              -2.004213264093382,
              53.6200969021851
            ],
            [
              -2.0040515673422403,
              53.62080555163591
            ],
            [
              -2.0045456407485065,
              53.62240929330506
            ],
            [
              -1.9937119584220249,
              53.623922402332795
            ],
            [
              -1.9885646118440197,
              53.624007646297734
            ],
            [
              -1.9865254361490683,
              53.62392773008565
            ],
            [
              -1.9820158934227885,
              53.62349617992569
            ],
            [
              -1.9795095937800953,
              53.62305929749131
            ],
            [
              -1.9774973675436673,
              53.624007646297734
            ],
            [
              -1.972745279690675,
              53.62577109219865
            ],
            [
              -1.9660887634353494,
              53.62941495843033
            ],
            [
              -1.9644268801597282,
              53.63179608698044
            ],
            [
              -1.963214154526167,
              53.63273358618515
            ],
            [
              -1.9611929451368981,
              53.633101122802785
            ],
            [
              -1.9573751051793902,
              53.634139795934445
            ],
            [
              -1.9525960678678742,
              53.63566846321025
            ],
            [
              -1.9478170305563585,
              53.63737283528158
            ],
            [
              -1.945364629830712,
              53.63855520295014
            ],
            [
              -1.9413311942050155,
              53.64077604722417
            ],
            [
              -1.9389865913134636,
              53.64249086375748
            ],
            [
              -1.9386182820469746,
              53.642922219674574
            ],
            [
              -1.9359502856531396,
              53.645196084729804
            ],
            [
              -1.9341536550849003,
              53.648337757435165
            ],
            [
              -1.9320156647086961,
              53.648486847949556
            ],
            [
              -1.9295452976773673,
              53.64834308210547
            ],
            [
              -1.9281708752926645,
              53.648178017013365
            ],
            [
              -1.9265628909340904,
              53.647597621720614
            ],
            [
              -1.9111837332699644,
              53.645755213094525
            ],
            [
              -1.9110489859773463,
              53.64562208796578
            ],
            [
              -1.9108333903091577,
              53.64559546288962
            ],
            [
              -1.9105459294182394,
              53.64570728809657
            ],
            [
              -1.909782361426738,
              53.64556883779663
            ],
            [
              -1.9069975840459674,
              53.64542506200402
            ],
            [
              -1.9051829871720458,
              53.64495645601846
            ],
            [
              -1.9033144913810773,
              53.64508958324841
            ],
            [
              -1.8991103758513979,
              53.64476475206903
            ],
            [
              -1.8983198584013725,
              53.64457837239388
            ],
            [
              -1.8974215431172534,
              53.644711500817316
            ],
            [
              -1.89694543601667,
              53.644897879904136
            ],
            [
              -1.894457102679659,
              53.64544103711629
            ],
            [
              -1.8945828668194356,
              53.644913855216124
            ],
            [
              -1.8928850509324497,
              53.64546766228997
            ],
            [
              -1.8907650268619274,
              53.646436807169614
            ],
            [
              -1.8844049546503614,
              53.65055808663428
            ],
            [
              -1.8807218619854713,
              53.65245885111452
            ],
            [
              -1.8693402073356769,
              53.657010753825354
            ],
            [
              -1.8630160677354757,
              53.65942226450266
            ],
            [
              -1.862575893246257,
              53.65898575403237
            ]
          ]
        ]
      }
    }
  ]
}
