{
  "type": "FeatureCollection",
  "features": [
    {
      "type": "Feature",
      "properties": {
        "WardName": "Dalton",
        "NoCllrs": 3,
        "Number": 10
      },
      "geometry": {
        "type": "Polygon",
        "coordinates": [
          [
            [
              -1.7236963503213791,
              53.68451933447565
            ],
            [
              -1.721396663194033,
              53.68382771569494
            ],
            [
              -1.7203186848530896,
              53.682380599654316
            ],
            [
              -1.7194832516388583,
              53.68172618894088
            ],
            [
              -1.7185220542848505,
              53.68120478125664
            ],
            [
              -1.7172733960399245,
              53.68086958719377
            ],
            [
              -1.7161415187819338,
              53.68084298437612
            ],
            [
              -1.715225237192132,
              53.680683367117275
            ],
            [
              -1.7136442022920815,
              53.67993315789778
            ],
            [
              -1.7111468858022292,
              53.67837949063989
            ],
            [
              -1.7093861878453551,
              53.67751217885529
            ],
            [
              -1.7082632937402056,
              53.677139708190296
            ],
            [
              -1.7056222468048943,
              53.67674062882297
            ],
            [
              -1.706062421294113,
              53.67570832598739
            ],
            [
              -1.705972589765701,
              53.67479306726465
            ],
            [
              -1.7069876860367559,
              53.67402678885464
            ],
            [
              -1.708092613836223,
              53.673499964362435
            ],
            [
              -1.709017878578866,
              53.67284009408867
            ],
            [
              -1.7088022829106775,
              53.672504833457815
            ],
            [
              -1.7088921144390894,
              53.6722653599452
            ],
            [
              -1.7095568677493378,
              53.67213764018189
            ],
            [
              -1.7105539977147104,
              53.671658687621125
            ],
            [
              -1.7112546836363236,
              53.670482569899235
            ],
            [
              -1.7121619820732843,
              53.66975346686318
            ],
            [
              -1.7119823190164603,
              53.66883275668277
            ],
            [
              -1.7123146956715847,
              53.66813555813203
            ],
            [
              -1.7127189375494383,
              53.66770446012667
            ],
            [
              -1.7139855621000468,
              53.666980631334084
            ],
            [
              -1.7143179387551712,
              53.66660806754996
            ],
            [
              -1.7143179387551712,
              53.66605986056401
            ],
            [
              -1.7144077702835832,
              53.665900187285224
            ],
            [
              -1.7146682817159777,
              53.665857607642046
            ],
            [
              -1.714632349104613,
              53.66566599871529
            ],
            [
              -1.7150455741353081,
              53.66479842517195
            ],
            [
              -1.7149287931483725,
              53.66372857062752
            ],
            [
              -1.7145694670347247,
              53.663387914723614
            ],
            [
              -1.71491082684269,
              53.6631856489778
            ],
            [
              -1.716473895437058,
              53.6637179251722
            ],
            [
              -1.7173542444154952,
              53.66331871865667
            ],
            [
              -1.7126380891738675,
              53.66132795238725
            ],
            [
              -1.7116499423613363,
              53.660476258953686
            ],
            [
              -1.712512325034091,
              53.659853447236415
            ],
            [
              -1.7124224935056789,
              53.65929982909518
            ],
            [
              -1.7121619820732843,
              53.658996400682994
            ],
            [
              -1.7110121385096113,
              53.65870361681108
            ],
            [
              -1.7104641661862985,
              53.65866635326333
            ],
            [
              -1.7080836306833818,
              53.65793704576841
            ],
            [
              -1.70611632021116,
              53.656771192251426
            ],
            [
              -1.7054874995122764,
              53.656595512898654
            ],
            [
              -1.7064127642549194,
              53.65613235473181
            ],
            [
              -1.7067361577572024,
              53.65520602313197
            ],
            [
              -1.7079488833907637,
              53.653630147896735
            ],
            [
              -1.708101596989064,
              53.65290075326856
            ],
            [
              -1.7085327883254413,
              53.65207551055455
            ],
            [
              -1.7093233057754667,
              53.652176670207524
            ],
            [
              -1.7094490699152434,
              53.65197967486998
            ],
            [
              -1.7098982275573031,
              53.651788002847304
            ],
            [
              -1.7101497558368566,
              53.65146322326418
            ],
            [
              -1.711326548859053,
              53.651026630374396
            ],
            [
              -1.710347385199363,
              53.65074443988179
            ],
            [
              -1.7090897438015955,
              53.650196026541636
            ],
            [
              -1.710212637906745,
              53.64772541586537
            ],
            [
              -1.7112187510249588,
              53.64820996514612
            ],
            [
              -1.711182818413594,
              53.647624245532704
            ],
            [
              -1.7114702793045125,
              53.647192937707125
            ],
            [
              -1.7116229929028126,
              53.647160988803826
            ],
            [
              -1.7118116391124778,
              53.64742190413918
            ],
            [
              -1.7116499423613363,
              53.647634895052846
            ],
            [
              -1.7125841902568204,
              53.64753904927482
            ],
            [
              -1.7126830049380737,
              53.64774671485187
            ],
            [
              -1.712512325034091,
              53.64783191069018
            ],
            [
              -1.7129435163704683,
              53.64830580939922
            ],
            [
              -1.7131860614971806,
              53.64822593920345
            ],
            [
              -1.7134645392352577,
              53.648337757435165
            ],
            [
              -1.7139496294886822,
              53.648050224240244
            ],
            [
              -1.714452686047789,
              53.64823126388787
            ],
            [
              -1.7147221806330248,
              53.64820996514612
            ],
            [
              -1.715279136109179,
              53.64844957537038
            ],
            [
              -1.7153510013319087,
              53.64858801621267
            ],
            [
              -1.7158540578910155,
              53.64874243046211
            ],
            [
              -1.71611456932341,
              53.6490672310032
            ],
            [
              -1.7158630410438567,
              53.64915242417356
            ],
            [
              -1.7158989736552215,
              53.649253590839805
            ],
            [
              -1.7174261096382246,
              53.64987123469552
            ],
            [
              -1.7176057726950487,
              53.649839287821415
            ],
            [
              -1.717848317821761,
              53.64998304856427
            ],
            [
              -1.7184322227564386,
              53.649668904084045
            ],
            [
              -1.7188364646342924,
              53.649674228586264
            ],
            [
              -1.7203636006172955,
              53.6499244794319
            ],
            [
              -1.7207229267309434,
              53.65022264871317
            ],
            [
              -1.7209475055519732,
              53.650233297577074
            ],
            [
              -1.7209025897877672,
              53.650377056976566
            ],
            [
              -1.7212798822070974,
              53.65041965226006
            ],
            [
              -1.721495477875286,
              53.650717818039716
            ],
            [
              -1.7218368376832516,
              53.65070716929817
            ],
            [
              -1.722546506757706,
              53.650866900138844
            ],
            [
              -1.7230405801639719,
              53.651079873651796
            ],
            [
              -1.7232471926793194,
              53.65146322326418
            ],
            [
              -1.723516687264555,
              53.65160697847023
            ],
            [
              -1.724666530828228,
              53.651788002847304
            ],
            [
              -1.7260229869072485,
              53.65158568143359
            ],
            [
              -1.7269033358856856,
              53.65156970864905
            ],
            [
              -1.7283945392573241,
              53.650946765332264
            ],
            [
              -1.7290233599562077,
              53.650275893005805
            ],
            [
              -1.729858793170439,
              53.6500788887872
            ],
            [
              -1.7307481253017172,
              53.65002564424582
            ],
            [
              -1.7313949123062833,
              53.65014810659051
            ],
            [
              -1.7319967835466434,
              53.65038770580147
            ],
            [
              -1.7322842444375617,
              53.65038238138938
            ],
            [
              -1.7325447558699563,
              53.65053146467452
            ],
            [
              -1.7328322167608745,
              53.650286541856275
            ],
            [
              -1.7331196776517928,
              53.65032381281166
            ],
            [
              -1.7334790037654406,
              53.65018005323065
            ],
            [
              -1.7324189917301795,
              53.64934410817756
            ],
            [
              -1.7339012119489767,
              53.648864896533716
            ],
            [
              -1.7341078244643242,
              53.64843892605598
            ],
            [
              -1.7334700206125995,
              53.64712371505271
            ],
            [
              -1.733874262490453,
              53.64658057951287
            ],
            [
              -1.7336407005165821,
              53.64613328616863
            ],
            [
              -1.7341707065342127,
              53.64584041295636
            ],
            [
              -1.734044942394436,
              53.645259985489524
            ],
            [
              -1.7377190519064847,
              53.644999056777756
            ],
            [
              -1.7439623431311153,
              53.64436004086966
            ],
            [
              -1.7462620302584615,
              53.644248212090254
            ],
            [
              -1.749136639167644,
              53.64448251966878
            ],
            [
              -1.7548678906803263,
              53.645632737991534
            ],
            [
              -1.7561973973008234,
              53.64574456309969
            ],
            [
              -1.7572574093360844,
              53.64571261309905
            ],
            [
              -1.7594672649350183,
              53.64541973696526
            ],
            [
              -1.7609135525424509,
              53.64500970696088
            ],
            [
              -1.7617669520623642,
              53.64448251966878
            ],
            [
              -1.7626023852765953,
              53.643518655156775
            ],
            [
              -1.7631683239055906,
              53.643236414417416
            ],
            [
              -1.7645517294431348,
              53.64300742525988
            ],
            [
              -1.7670220964744636,
              53.64282103781848
            ],
            [
              -1.7687199123614494,
              53.642922219674574
            ],
            [
              -1.7725287691661162,
              53.64348670346978
            ],
            [
              -1.7758076199531525,
              53.64481267813809
            ],
            [
              -1.7767867836128426,
              53.64532388615243
            ],
            [
              -1.7769125477526193,
              53.64520673486314
            ],
            [
              -1.7773347559361556,
              53.64515348416952
            ],
            [
              -1.7776132336742325,
              53.6449032050088
            ],
            [
              -1.778736127779382,
              53.644322764642816
            ],
            [
              -1.7802363143038615,
              53.64399260233813
            ],
            [
              -1.7805147920419389,
              53.64374764153862
            ],
            [
              -1.7809370002254747,
              53.64293287038216
            ],
            [
              -1.7816197198414057,
              53.642570744815714
            ],
            [
              -1.7823563383743837,
              53.64249618916608
            ],
            [
              -1.784027204802846,
              53.642666601885885
            ],
            [
              -1.7843056825409231,
              53.64256009401668
            ],
            [
              -1.786183161484733,
              53.64321511315288
            ],
            [
              -1.7871892746029467,
              53.644173659405936
            ],
            [
              -1.7875036849523886,
              53.64464759922653
            ],
            [
              -1.7876653817035302,
              53.64527063560673
            ],
            [
              -1.787521651258071,
              53.647581647425284
            ],
            [
              -1.7870994430745348,
              53.64990850601804
            ],
            [
              -1.7868838474063462,
              53.65035043490254
            ],
            [
              -1.7861651951790505,
              53.650946765332264
            ],
            [
              -1.785132132602313,
              53.651303494682594
            ],
            [
              -1.7841080531784168,
              53.6514525747109
            ],
            [
              -1.7827605802522375,
              53.65121830585832
            ],
            [
              -1.7783408690543694,
              53.65697348878104
            ],
            [
              -1.776526272180448,
              53.658618442939236
            ],
            [
              -1.773858275786613,
              53.6606306296655
            ],
            [
              -1.771334009838237,
              53.66217962861064
            ],
            [
              -1.7703278967200233,
              53.661626041023084
            ],
            [
              -1.7701123010518345,
              53.6622062432153
            ],
            [
              -1.769160086850668,
              53.66255755442183
            ],
            [
              -1.7680102432869949,
              53.662743854630996
            ],
            [
              -1.7659351349806789,
              53.66278643742033
            ],
            [
              -1.764282234857899,
              53.66318032618194
            ],
            [
              -1.7620454298004415,
              53.66437793831696
            ],
            [
              -1.7586048822622637,
              53.66644839634841
            ],
            [
              -1.7582006403844097,
              53.66658145572505
            ],
            [
              -1.7570687631264192,
              53.66669854762894
            ],
            [
              -1.7540863563831424,
              53.66741705900617
            ],
            [
              -1.7513914105307837,
              53.66767784899418
            ],
            [
              -1.7482023912721594,
              53.66760865997097
            ],
            [
              -1.7472322107653104,
              53.66778961563779
            ],
            [
              -1.7466842384419976,
              53.667991859286964
            ],
            [
              -1.744905574179441,
              53.669322385410545
            ],
            [
              -1.7433694550435965,
              53.67011003707758
            ],
            [
              -1.7430101289299487,
              53.67147242682152
            ],
            [
              -1.7425879207464126,
              53.671993954985346
            ],
            [
              -1.7423184261611768,
              53.67288798824674
            ],
            [
              -1.7411236668332977,
              53.673702180603144
            ],
            [
              -1.7407104418026027,
              53.67442589393244
            ],
            [
              -1.7393989014877882,
              53.67450571449428
            ],
            [
              -1.739165339513917,
              53.67521345019372
            ],
            [
              -1.7387161818718573,
              53.675468870684135
            ],
            [
              -1.737916681268991,
              53.675415658209694
            ],
            [
              -1.7375214225439786,
              53.67547419192789
            ],
            [
              -1.7364164947445113,
              53.67576153809215
            ],
            [
              -1.7345929147177488,
              53.67643200485303
            ],
            [
              -1.7338113804205648,
              53.676980076897074
            ],
            [
              -1.7311433840267298,
              53.679395765774586
            ],
            [
              -1.7309457546642235,
              53.67979481998676
            ],
            [
              -1.731152367179571,
              53.68019919106499
            ],
            [
              -1.7314038954591244,
              53.680364130784795
            ],
            [
              -1.731287114472189,
              53.68036945141017
            ],
            [
              -1.7310894851096825,
              53.68098663939187
            ],
            [
              -1.7305684622448934,
              53.681550613604784
            ],
            [
              -1.7288886126635898,
              53.68229547363277
            ],
            [
              -1.7272267293879688,
              53.6828115474979
            ],
            [
              -1.724343137325945,
              53.684492733963346
            ],
            [
              -1.7236963503213791,
              53.68451933447565
            ]
          ]
        ]
      }
    }
  ]
}
