{
  "type": "FeatureCollection",
  "features": [
    {
      "type": "Feature",
      "properties": {
        "WardName": "Denby Dale",
        "NoCllrs": 3,
        "Number": 11
      },
      "geometry": {
        "type": "Polygon",
        "coordinates": [
          [
            [
              -1.6284569638990274,
              53.62891421183685
            ],
            [
              -1.6283761155234566,
              53.628722434972055
            ],
            [
              -1.6274418676279723,
              53.62825364341111
            ],
            [
              -1.627244238265466,
              53.62846140395003
            ],
            [
              -1.6262740577586168,
              53.62847205830907
            ],
            [
              -1.6256721865182568,
              53.627992609489205
            ],
            [
              -1.625357776168815,
              53.627971300526355
            ],
            [
              -1.6254296413915446,
              53.62781681022372
            ],
            [
              -1.6247648880812962,
              53.627971300526355
            ],
            [
              -1.6238575896443352,
              53.62786475555058
            ],
            [
              -1.6231479205698809,
              53.62807251800415
            ],
            [
              -1.622959274360216,
              53.62795531879713
            ],
            [
              -1.6221148579931435,
              53.627875410060255
            ],
            [
              -1.6218992623249548,
              53.627497173319234
            ],
            [
              -1.6212345090147064,
              53.62744390026645
            ],
            [
              -1.620668570385711,
              53.627651664792054
            ],
            [
              -1.619931951852733,
              53.62743857295748
            ],
            [
              -1.619653474114656,
              53.62722548004686
            ],
            [
              -1.6189527881930428,
              53.62725211671953
            ],
            [
              -1.618090405520288,
              53.62687387439188
            ],
            [
              -1.6170932755549154,
              53.62679396360719
            ],
            [
              -1.6171831070833274,
              53.626548902923915
            ],
            [
              -1.6166261516071732,
              53.626602177106534
            ],
            [
              -1.6165812358429672,
              53.62647431895523
            ],
            [
              -1.6160512298253367,
              53.626405062294886
            ],
            [
              -1.6160512298253367,
              53.626122707041716
            ],
            [
              -1.615880549921354,
              53.62600550241953
            ],
            [
              -1.615467324890659,
              53.626080087216785
            ],
            [
              -1.6146947737463162,
              53.625984192453274
            ],
            [
              -1.61449714438381,
              53.62585633242964
            ],
            [
              -1.6143893465497157,
              53.62549938781344
            ],
            [
              -1.6137066269337847,
              53.62501990521932
            ],
            [
              -1.6136976437809436,
              53.624876059378806
            ],
            [
              -1.6138862899906088,
              53.62482811065636
            ],
            [
              -1.6136796774752613,
              53.624572383216545
            ],
            [
              -1.612970008400807,
              53.624327309632704
            ],
            [
              -1.6127094969684121,
              53.624327309632704
            ],
            [
              -1.6124040697718116,
              53.623959696588656
            ],
            [
              -1.6118650806013397,
              53.62397567983106
            ],
            [
              -1.6117033838501984,
              53.62341093492773
            ],
            [
              -1.6110116810814263,
              53.62335232889179
            ],
            [
              -1.6106613381206196,
              53.62318716598898
            ],
            [
              -1.610823034871761,
              53.62298470735546
            ],
            [
              -1.6100325174217358,
              53.622872821904465
            ],
            [
              -1.6090982695262517,
              53.62228142245075
            ],
            [
              -1.6091431852904576,
              53.62212158333809
            ],
            [
              -1.6082179205478146,
              53.62153017335816
            ],
            [
              -1.6080921564080377,
              53.62131705061353
            ],
            [
              -1.6082987689233854,
              53.621274425935475
            ],
            [
              -1.6082179205478146,
              53.620778910894344
            ],
            [
              -1.6078046955171195,
              53.620320687507494
            ],
            [
              -1.6078585944341668,
              53.62015551274134
            ],
            [
              -1.6077148639887076,
              53.62002230681397
            ],
            [
              -1.6079035101983727,
              53.61994771131105
            ],
            [
              -1.6075172346262014,
              53.619574731818986
            ],
            [
              -1.6060978964772923,
              53.61956407521366
            ],
            [
              -1.6055948399181856,
              53.61929765920578
            ],
            [
              -1.6055768736125031,
              53.61916977892473
            ],
            [
              -1.6058194187392154,
              53.61913248043645
            ],
            [
              -1.6058194187392154,
              53.61885540492033
            ],
            [
              -1.6054511094727264,
              53.61870088124643
            ],
            [
              -1.6051905980403316,
              53.61865825392649
            ],
            [
              -1.6048133056210017,
              53.618748836929896
            ],
            [
              -1.6044449963545124,
              53.618572999157486
            ],
            [
              -1.6042204175334827,
              53.6186475970898
            ],
            [
              -1.6039419397954056,
              53.618343876112604
            ],
            [
              -1.6030615908169685,
              53.61795489693288
            ],
            [
              -1.6028370119959385,
              53.61824796377108
            ],
            [
              -1.6025226016464966,
              53.618146722729726
            ],
            [
              -1.602630399480591,
              53.617981539456785
            ],
            [
              -1.6023609048953553,
              53.61740072862327
            ],
            [
              -1.601750050502154,
              53.61761919969089
            ],
            [
              -1.6019746293231838,
              53.61784832666908
            ],
            [
              -1.6017859831135186,
              53.618040152950186
            ],
            [
              -1.6009056341350816,
              53.61804548144555
            ],
            [
              -1.6008337689123522,
              53.618178693611135
            ],
            [
              -1.600699021619734,
              53.61817336513256
            ],
            [
              -1.6000881672265328,
              53.61793358290165
            ],
            [
              -1.5994593465276492,
              53.61748598575977
            ],
            [
              -1.598758660606036,
              53.61735809999044
            ],
            [
              -1.598534081785006,
              53.61714495618059
            ],
            [
              -1.597114743636097,
              53.61709699867508
            ],
            [
              -1.5967644006752906,
              53.616857210330245
            ],
            [
              -1.5964499903258487,
              53.61680392384643
            ],
            [
              -1.5957133717928706,
              53.61687319626228
            ],
            [
              -1.5958930348496947,
              53.61642025917749
            ],
            [
              -1.5951564163167167,
              53.61635098601843
            ],
            [
              -1.5951474331638753,
              53.61620711063255
            ],
            [
              -1.5948689554257984,
              53.61604724851762
            ],
            [
              -1.5942850504911208,
              53.61614849459402
            ],
            [
              -1.5942131852683912,
              53.61585008440882
            ],
            [
              -1.594392848325215,
              53.61571153610586
            ],
            [
              -1.5947431912860217,
              53.61572219368377
            ],
            [
              -1.594662342910451,
              53.61555700092382
            ],
            [
              -1.5932789373729068,
              53.615061418765734
            ],
            [
              -1.5925243525342465,
              53.61492819676338
            ],
            [
              -1.5919134981410452,
              53.614667080419366
            ],
            [
              -1.5916350204029681,
              53.614011617991856
            ],
            [
              -1.591266711136479,
              53.614011617991856
            ],
            [
              -1.590530092603501,
              53.613500030490066
            ],
            [
              -1.5900270360443942,
              53.61332417085465
            ],
            [
              -1.590161783337012,
              53.61307903195888
            ],
            [
              -1.58947008056824,
              53.61283389163986
            ],
            [
              -1.5891916028301631,
              53.611965230791235
            ],
            [
              -1.589011939773339,
              53.6117733769061
            ],
            [
              -1.5886975294238972,
              53.6117254132986
            ],
            [
              -1.5883471864630907,
              53.61141098385574
            ],
            [
              -1.5884729506028674,
              53.61125110358004
            ],
            [
              -1.5883471864630907,
              53.61116050448842
            ],
            [
              -1.5878441299039838,
              53.6110965520714
            ],
            [
              -1.5879429445852369,
              53.610840741434814
            ],
            [
              -1.587170393440894,
              53.61069684727064
            ],
            [
              -1.5866853031874695,
              53.6103504333828
            ],
            [
              -1.5867122526459931,
              53.60999868714267
            ],
            [
              -1.5865595390476928,
              53.60986011963754
            ],
            [
              -1.586802084174405,
              53.60970556303764
            ],
            [
              -1.5868649662442935,
              53.60920991219454
            ],
            [
              -1.5866763200346283,
              53.60906068284422
            ],
            [
              -1.5868649662442935,
              53.609012716155355
            ],
            [
              -1.5866403874232635,
              53.60862898068286
            ],
            [
              -1.586110381405633,
              53.608469089873466
            ],
            [
              -1.5860924150999507,
              53.60828787955766
            ],
            [
              -1.5860924150999507,
              53.608117327961864
            ],
            [
              -1.586658353728946,
              53.60743511469055
            ],
            [
              -1.5864517412135986,
              53.60717395200565
            ],
            [
              -1.587026662995435,
              53.60702471546055
            ],
            [
              -1.587538702707383,
              53.60669426123395
            ],
            [
              -1.5881046413363784,
              53.60648639354079
            ],
            [
              -1.588401085380138,
              53.60665162179054
            ],
            [
              -1.5890658386903864,
              53.606742230556286
            ],
            [
              -1.589227535441528,
              53.60693943719799
            ],
            [
              -1.5897485583063171,
              53.60696075677977
            ],
            [
              -1.5899372045159823,
              53.6071046636753
            ],
            [
              -1.5911499301495438,
              53.606779539991585
            ],
            [
              -1.589568895249493,
              53.6053830786577
            ],
            [
              -1.5880776918778547,
              53.60376802953515
            ],
            [
              -1.5875566690130654,
              53.60345887117556
            ],
            [
              -1.5874039554147652,
              53.60361878095444
            ],
            [
              -1.5871524271352118,
              53.60363477189904
            ],
            [
              -1.5870356461482762,
              53.60381600218125
            ],
            [
              -1.586900898855658,
              53.603784020423234
            ],
            [
              -1.5856163079993675,
              53.602008994884756
            ],
            [
              -1.5851940998158311,
              53.600532415306034
            ],
            [
              -1.5851491840516252,
              53.600180587286516
            ],
            [
              -1.5857061395277794,
              53.60024988697667
            ],
            [
              -1.58661343796474,
              53.59984474871613
            ],
            [
              -1.5861732634755215,
              53.59957287744164
            ],
            [
              -1.5861463140169978,
              53.59902379874799
            ],
            [
              -1.5865056401306457,
              53.596832743775806
            ],
            [
              -1.5879788771966017,
              53.593484634945696
            ],
            [
              -1.5888771924807212,
              53.59348996654009
            ],
            [
              -1.5894790637210812,
              53.59391649191213
            ],
            [
              -1.5896317773193815,
              53.59388983420253
            ],
            [
              -1.5906828062018015,
              53.592530268710156
            ],
            [
              -1.5914373910404618,
              53.592146383474784
            ],
            [
              -1.5924884199228817,
              53.59199176204748
            ],
            [
              -1.593880808613267,
              53.591277297070405
            ],
            [
              -1.5949318374956867,
              53.59090939621364
            ],
            [
              -1.5976716991122513,
              53.590237568992656
            ],
            [
              -1.5979681431560109,
              53.58940043600104
            ],
            [
              -1.5996120601259496,
              53.5892404723957
            ],
            [
              -1.5995581612089023,
              53.58899519369145
            ],
            [
              -1.5992886666236665,
              53.58885655727237
            ],
            [
              -1.601750050502154,
              53.587758114182236
            ],
            [
              -1.6011661455674762,
              53.58678762128878
            ],
            [
              -1.6004025775759747,
              53.586206381357904
            ],
            [
              -1.6015524211396477,
              53.5857104547301
            ],
            [
              -1.601938696711819,
              53.585289179152504
            ],
            [
              -1.602576500563544,
              53.58493722418466
            ],
            [
              -1.6021273429214842,
              53.58415864672185
            ],
            [
              -1.6023339554368317,
              53.58368936022772
            ],
            [
              -1.602307005978308,
              53.58296942195537
            ],
            [
              -1.6017859831135186,
              53.582612114704105
            ],
            [
              -1.6015614042924888,
              53.58188682502551
            ],
            [
              -1.6012739434015706,
              53.581582839620964
            ],
            [
              -1.6008427520651933,
              53.581364182101005
            ],
            [
              -1.6007080047725755,
              53.58112419083811
            ],
            [
              -1.5992886666236665,
              53.58077753438623
            ],
            [
              -1.598902391051495,
              53.58032421012122
            ],
            [
              -1.5984173007980704,
              53.579972213809626
            ],
            [
              -1.5980130589202168,
              53.579828214473714
            ],
            [
              -1.5983813681867056,
              53.579257545615086
            ],
            [
              -1.5985610312435297,
              53.57918287809171
            ],
            [
              -1.5994773128333315,
              53.57917221129189
            ],
            [
              -1.5996749421958378,
              53.57906554314563
            ],
            [
              -1.5998995210168676,
              53.5781001841822
            ],
            [
              -1.6002678302833568,
              53.57733748167842
            ],
            [
              -1.5991629024838896,
              53.5771668051082
            ],
            [
              -1.5974561034440626,
              53.5772894789627
            ],
            [
              -1.5966925354525612,
              53.577129469516606
            ],
            [
              -1.5963601587974368,
              53.577172138761455
            ],
            [
              -1.5961984620462952,
              53.57698546049733
            ],
            [
              -1.5966296533826727,
              53.57681478250596
            ],
            [
              -1.5977884800991868,
              53.576777446603494
            ],
            [
              -1.5983723850338645,
              53.5766014340478
            ],
            [
              -1.60201954508739,
              53.574755924950004
            ],
            [
              -1.604139569157912,
              53.57385981055451
            ],
            [
              -1.6051816148874904,
              53.57326239040629
            ],
            [
              -1.6061877280057044,
              53.572947674612266
            ],
            [
              -1.6064392562852579,
              53.57279831714465
            ],
            [
              -1.6071938411239182,
              53.571507419904414
            ],
            [
              -1.6077058808358664,
              53.571427404315614
            ],
            [
              -1.6079933417267847,
              53.57164611323301
            ],
            [
              -1.6091521684432988,
              53.57185948669644
            ],
            [
              -1.6095114945569464,
              53.572040853293814
            ],
            [
              -1.6098169217535472,
              53.57191816421013
            ],
            [
              -1.6108050685660786,
              53.5700511124894
            ],
            [
              -1.61141592295928,
              53.56958166937368
            ],
            [
              -1.612152541492258,
              53.56877080080842
            ],
            [
              -1.6122962719377172,
              53.56839736926667
            ],
            [
              -1.6121166088808931,
              53.567927907793
            ],
            [
              -1.612161524645099,
              53.56762382201198
            ],
            [
              -1.6130418736235363,
              53.56644480208333
            ],
            [
              -1.6143983297025568,
              53.56506834809473
            ],
            [
              -1.614829521038934,
              53.56488161638978
            ],
            [
              -1.6164375053975082,
              53.56451348575686
            ],
            [
              -1.6156290216418006,
              53.56303026031217
            ],
            [
              -1.6165093706202378,
              53.563014253998524
            ],
            [
              -1.6171292081662803,
              53.56322233560342
            ],
            [
              -1.617254972306057,
              53.563104956362395
            ],
            [
              -1.618135321284494,
              53.56322767101573
            ],
            [
              -1.6184407484810948,
              53.56308361464721
            ],
            [
              -1.6202194127436513,
              53.56318498769843
            ],
            [
              -1.6205338230930932,
              53.563014253998524
            ],
            [
              -1.6210458628050413,
              53.56307827921673
            ],
            [
              -1.6217824813380193,
              53.56283284868726
            ],
            [
              -1.6220789253817787,
              53.562907545086105
            ],
            [
              -1.6228335102204392,
              53.56287553235989
            ],
            [
              -1.622968257513057,
              53.563035595748694
            ],
            [
              -1.6237408086573997,
              53.56320632936245
            ],
            [
              -1.624899635373914,
              53.56325968347544
            ],
            [
              -1.6256721865182568,
              53.56350511152833
            ],
            [
              -1.626507619732488,
              53.56346242849099
            ],
            [
              -1.6270376257501185,
              53.56359581283967
            ],
            [
              -1.6279718736456026,
              53.563243677248614
            ],
            [
              -1.6280527220211736,
              53.563430416184715
            ],
            [
              -1.628304250300727,
              53.56349444077302
            ],
            [
              -1.6284210312876626,
              53.5633557207092
            ],
            [
              -1.6299571504235069,
              53.56336105610469
            ],
            [
              -1.6302535944672665,
              53.563430416184715
            ],
            [
              -1.6317717472974282,
              53.56320099394747
            ],
            [
              -1.6324724332190417,
              53.56321700019043
            ],
            [
              -1.6327778604156422,
              53.56311029178951
            ],
            [
              -1.6329126077082603,
              53.563211664776794
            ],
            [
              -1.633083287612243,
              53.563136968914975
            ],
            [
              -1.6332988832804314,
              53.56318498769843
            ],
            [
              -1.6334875294900968,
              53.56295556413
            ],
            [
              -1.633685158852603,
              53.56303026031217
            ],
            [
              -1.63456550783104,
              53.562966235021236
            ],
            [
              -1.6346463562066107,
              53.56286486144576
            ],
            [
              -1.6356345030191424,
              53.56260875869924
            ],
            [
              -1.6367573971242917,
              53.56264077162738
            ],
            [
              -1.636775363429974,
              53.56256073926166
            ],
            [
              -1.637089773779416,
              53.5625767457469
            ],
            [
              -1.6378084260067116,
              53.56229396361569
            ],
            [
              -1.639164882085732,
              53.56237933200545
            ],
            [
              -1.6392906462255088,
              53.562309970201895
            ],
            [
              -1.640404557177817,
              53.56227795702343
            ],
            [
              -1.641284906156254,
              53.56245402920516
            ],
            [
              -1.6421562719818499,
              53.562470035730804
            ],
            [
              -1.6433600144625702,
              53.562309970201895
            ],
            [
              -1.6439888351614538,
              53.56237399648615
            ],
            [
              -1.6448512178342085,
              53.56227795702343
            ],
            [
              -1.6465759831797182,
              53.56236866096616
            ],
            [
              -1.6482378664553392,
              53.56219258842907
            ],
            [
              -1.649100249128094,
              53.561957823906255
            ],
            [
              -1.6496931372156127,
              53.56153631160687
            ],
            [
              -1.650160261163355,
              53.56165903081099
            ],
            [
              -1.6507980650150798,
              53.56166970202932
            ],
            [
              -1.6510136606832684,
              53.56158966782633
            ],
            [
              -1.651588582465105,
              53.561109459428486
            ],
            [
              -1.6513460373383928,
              53.56085334605401
            ],
            [
              -1.6518850265088643,
              53.56073062451256
            ],
            [
              -1.6542386125532575,
              53.560511859142615
            ],
            [
              -1.654768618570888,
              53.560511859142615
            ],
            [
              -1.6547865848765706,
              53.56061323835716
            ],
            [
              -1.6565562659862858,
              53.56055988090612
            ],
            [
              -1.6563586366237797,
              53.56038380084017
            ],
            [
              -1.6575084801874527,
              53.56008499662689
            ],
            [
              -1.6580474693579244,
              53.55976484691343
            ],
            [
              -1.6575084801874527,
              53.55918857132367
            ],
            [
              -1.6585235764585076,
              53.5588897586681
            ],
            [
              -1.659278161297168,
              53.559802197838195
            ],
            [
              -1.6604639374722059,
              53.55926861006945
            ],
            [
              -1.6608681793500597,
              53.559594099408926
            ],
            [
              -1.6639314344689071,
              53.55750238654812
            ],
            [
              -1.6623324332631746,
              53.556162995685995
            ],
            [
              -1.661757511481338,
              53.55581613456659
            ],
            [
              -1.6618832756211146,
              53.55524514160746
            ],
            [
              -1.6616047978830377,
              53.55467947743315
            ],
            [
              -1.6622515848876038,
              53.554444671215165
            ],
            [
              -1.6618742924682735,
              53.553857649969544
            ],
            [
              -1.6619102250796383,
              53.553692215238435
            ],
            [
              -1.6621976859705567,
              53.55360682931771
            ],
            [
              -1.663634990425148,
              53.553724234914284
            ],
            [
              -1.6639044850103837,
              53.55362283919098
            ],
            [
              -1.6658628123297643,
              53.553574809553005
            ],
            [
              -1.6658717954826054,
              53.55348408675481
            ],
            [
              -1.6662850205133004,
              53.55344139360598
            ],
            [
              -1.6673989314656086,
              53.55342538366406
            ],
            [
              -1.6683241962082518,
              53.55350543331304
            ],
            [
              -1.668701488627582,
              53.553734908134196
            ],
            [
              -1.6694650566190834,
              53.553227927215744
            ],
            [
              -1.6706059170299152,
              53.55415116161035
            ],
            [
              -1.6749627461578949,
              53.554108469134604
            ],
            [
              -1.6772354838267174,
              53.55391101587384
            ],
            [
              -1.6790949964648447,
              53.553884332930096
            ],
            [
              -1.699037595772298,
              53.5538096205981
            ],
            [
              -1.7039783298349556,
              53.56025040636288
            ],
            [
              -1.704274773878715,
              53.56037846506915
            ],
            [
              -1.7053617353724997,
              53.561829769980996
            ],
            [
              -1.7097275476533205,
              53.56457217346375
            ],
            [
              -1.7081105801419054,
              53.565580522253725
            ],
            [
              -1.7078410855566695,
              53.56596464880285
            ],
            [
              -1.7142820061438064,
              53.57346508747412
            ],
            [
              -1.7110211216624525,
              53.57364111308681
            ],
            [
              -1.7083890578799823,
              53.573939821540534
            ],
            [
              -1.7040681613633675,
              53.57476659286411
            ],
            [
              -1.702442210699111,
              53.57524131231771
            ],
            [
              -1.7017864405417038,
              53.57534265622976
            ],
            [
              -1.7004479507683656,
              53.57585470596573
            ],
            [
              -1.6995676017899286,
              53.576014720236444
            ],
            [
              -1.699208275676281,
              53.57619606901116
            ],
            [
              -1.6989477642438862,
              53.57669744098721
            ],
            [
              -1.698516572907509,
              53.577006795197825
            ],
            [
              -1.6983818256148908,
              53.577257477121925
            ],
            [
              -1.6972409652040592,
              53.578062849414906
            ],
            [
              -1.6968367233262052,
              53.57818552066939
            ],
            [
              -1.6952197558147901,
              53.57830819156791
            ],
            [
              -1.6944472046704475,
              53.578660201735275
            ],
            [
              -1.6930188833686974,
              53.580158878885335
            ],
            [
              -1.6929739676044915,
              53.5808148667561
            ],
            [
              -1.6920127702504835,
              53.58140151395277
            ],
            [
              -1.6912222528004583,
              53.582265470454445
            ],
            [
              -1.690880892992493,
              53.58227080346444
            ],
            [
              -1.6909527582152224,
              53.58246279137586
            ],
            [
              -1.6905395331845274,
              53.58258011689248
            ],
            [
              -1.6903868195862273,
              53.583001419472325
            ],
            [
              -1.6900724092367851,
              53.583204069850424
            ],
            [
              -1.6899466450970084,
              53.58347071360452
            ],
            [
              -1.6896502010532493,
              53.58356137209773
            ],
            [
              -1.6875481432884094,
              53.5823134675201
            ],
            [
              -1.6867216932270195,
              53.582697442083415
            ],
            [
              -1.6862276198207538,
              53.583316060432026
            ],
            [
              -1.6850777762570808,
              53.58367336173267
            ],
            [
              -1.684305225112738,
              53.584606597151144
            ],
            [
              -1.6840447136803434,
              53.58516652851157
            ],
            [
              -1.6835596234269188,
              53.58552914676838
            ],
            [
              -1.6831194489377002,
              53.58569445700006
            ],
            [
              -1.683020634256447,
              53.58617971878399
            ],
            [
              -1.6823648640990398,
              53.58673429685754
            ],
            [
              -1.6815653634961734,
              53.58684627808546
            ],
            [
              -1.6806400987535304,
              53.58721421431669
            ],
            [
              -1.6759688592761088,
              53.5881793651502
            ],
            [
              -1.674046464568093,
              53.58800873235268
            ],
            [
              -1.6695279386889719,
              53.58906451173045
            ],
            [
              -1.665440604146228,
              53.59040819279083
            ],
            [
              -1.6637966871762893,
              53.591933112392546
            ],
            [
              -1.6680906342343806,
              53.59424704611397
            ],
            [
              -1.667973853247445,
              53.594476299928715
            ],
            [
              -1.666994689587755,
              53.59523869320289
            ],
            [
              -1.6662401047490942,
              53.59551059237114
            ],
            [
              -1.6655484019803222,
              53.596129023178726
            ],
            [
              -1.664757884530297,
              53.59658217793732
            ],
            [
              -1.664470423639379,
              53.59663015874482
            ],
            [
              -1.6633475295342295,
              53.59721658643358
            ],
            [
              -1.6620090397608913,
              53.59756310805981
            ],
            [
              -1.66139818536769,
              53.59793628201704
            ],
            [
              -1.6610478424068835,
              53.59792028891507
            ],
            [
              -1.660607667917665,
              53.59827213576013
            ],
            [
              -1.6597273189392279,
              53.598506698695495
            ],
            [
              -1.6599159651488928,
              53.59870394379216
            ],
            [
              -1.6605717353063,
              53.598981151560466
            ],
            [
              -1.6605807184591415,
              53.59917306356525
            ],
            [
              -1.6610747918654072,
              53.59915707093148
            ],
            [
              -1.661110724476772,
              53.59947692245642
            ],
            [
              -1.661443101131896,
              53.599780779161925
            ],
            [
              -1.6625390457785219,
              53.60031918655311
            ],
            [
              -1.6635631252024183,
              53.60163052633827
            ],
            [
              -1.6640841480672075,
              53.60352283515977
            ],
            [
              -1.6645243225564261,
              53.603821332471895
            ],
            [
              -1.6655484019803222,
              53.6040878461465
            ],
            [
              -1.6656112840502109,
              53.60444497183384
            ],
            [
              -1.666078407997953,
              53.60474346262893
            ],
            [
              -1.6661862058320471,
              53.60508992251359
            ],
            [
              -1.6665994308627423,
              53.60535642818322
            ],
            [
              -1.6669677401292313,
              53.60634248453846
            ],
            [
              -1.6681714826099514,
              53.60665695172334
            ],
            [
              -1.6687374212389467,
              53.60726988950615
            ],
            [
              -1.6686835223218994,
              53.60777622270382
            ],
            [
              -1.6688811516844058,
              53.6084051333802
            ],
            [
              -1.6692674272565773,
              53.60909799023124
            ],
            [
              -1.669581837606019,
              53.609289856272405
            ],
            [
              -1.6698333658855726,
              53.609940062484455
            ],
            [
              -1.6707676137810568,
              53.610558282056544
            ],
            [
              -1.6715581312310819,
              53.61128840903185
            ],
            [
              -1.6719533899560945,
              53.61146960647181
            ],
            [
              -1.6740374814152519,
              53.61197588931486
            ],
            [
              -1.6770558207698933,
              53.612396898845525
            ],
            [
              -1.6767863261846576,
              53.61427806736063
            ],
            [
              -1.6754298701056372,
              53.61421411966549
            ],
            [
              -1.6746124031970884,
              53.61408622398461
            ],
            [
              -1.6738757846641104,
              53.61599396101145
            ],
            [
              -1.6749807124635774,
              53.616713336669605
            ],
            [
              -1.6748639314766418,
              53.61681458114858
            ],
            [
              -1.6764090337653272,
              53.617555257056424
            ],
            [
              -1.6768312419488636,
              53.617981539456785
            ],
            [
              -1.6770558207698933,
              53.618786135757176
            ],
            [
              -1.6778553213727596,
              53.61909518191521
            ],
            [
              -1.6788434681852913,
              53.61994771131105
            ],
            [
              -1.6801370421944235,
              53.62018748210135
            ],
            [
              -1.68048738515523,
              53.62035798494586
            ],
            [
              -1.6800382275131702,
              53.62040593874679
            ],
            [
              -1.6797238171637283,
              53.62033134392181
            ],
            [
              -1.6788075355739265,
              53.6205604561792
            ],
            [
              -1.6785290578358494,
              53.62099203635616
            ],
            [
              -1.677136669145464,
              53.62192977560395
            ],
            [
              -1.6768492082545459,
              53.622297406328734
            ],
            [
              -1.6740374814152519,
              53.623272411438876
            ],
            [
              -1.6740195151095696,
              53.62364535825779
            ],
            [
              -1.6721240698600772,
              53.62390641907022
            ],
            [
              -1.6692764104094184,
              53.624050268215626
            ],
            [
              -1.6686745391690583,
              53.62416215054526
            ],
            [
              -1.6680906342343806,
              53.624124856468356
            ],
            [
              -1.666500616181489,
              53.623656013832765
            ],
            [
              -1.666868925447978,
              53.623485524310354
            ],
            [
              -1.6674977461468616,
              53.622952740113995
            ],
            [
              -1.6676953755093682,
              53.622563803403814
            ],
            [
              -1.6675336787582264,
              53.622206830940186
            ],
            [
              -1.6673090999371967,
              53.622286750410765
            ],
            [
              -1.6659167112468114,
              53.62219617499934
            ],
            [
              -1.6625120963199984,
              53.62237199767925
            ],
            [
              -1.6593500265198975,
              53.623293722774456
            ],
            [
              -1.658307980790319,
              53.62316585459962
            ],
            [
              -1.657795941078371,
              53.622681017584206
            ],
            [
              -1.6569066089470925,
              53.62211092737575
            ],
            [
              -1.6558106643004666,
              53.62212691131828
            ],
            [
              -1.6545081071384933,
              53.62262241053471
            ],
            [
              -1.6522443526225123,
              53.62279290354362
            ],
            [
              -1.6490643165167291,
              53.623730602782274
            ],
            [
              -1.648740923014446,
              53.62350150773235
            ],
            [
              -1.6485792262633048,
              53.62296872373776
            ],
            [
              -1.6488846534599053,
              53.62257445925184
            ],
            [
              -1.6488397376956994,
              53.62245191683709
            ],
            [
              -1.6478785403416913,
              53.62234002997374
            ],
            [
              -1.6447793526114791,
              53.62326175576706
            ],
            [
              -1.6434767954495058,
              53.62402362952197
            ],
            [
              -1.6427491600693689,
              53.624321981930315
            ],
            [
              -1.6369819759453217,
              53.626016157398645
            ],
            [
              -1.6364429867748498,
              53.62609074217705
            ],
            [
              -1.6360926438140433,
              53.62631449572136
            ],
            [
              -1.6358411155344899,
              53.62635178786341
            ],
            [
              -1.6356884019361895,
              53.62655423034522
            ],
            [
              -1.6347541540407051,
              53.626692743062684
            ],
            [
              -1.6346643225122932,
              53.62682060055223
            ],
            [
              -1.6342960132458042,
              53.62697509450194
            ],
            [
              -1.6341612659531863,
              53.62691649341519
            ],
            [
              -1.6333348158917962,
              53.627342681280865
            ],
            [
              -1.6325622647474536,
              53.62758241006386
            ],
            [
              -1.6325173489832476,
              53.62767830119571
            ],
            [
              -1.6322478543980117,
              53.6276463375093
            ],
            [
              -1.6322478543980117,
              53.6277315739526
            ],
            [
              -1.6313046233496862,
              53.628013918441326
            ],
            [
              -1.6312597075854802,
              53.628093826915915
            ],
            [
              -1.6315381853235573,
              53.62826429782262
            ],
            [
              -1.6313675054195744,
              53.62839215055072
            ],
            [
              -1.6299571504235069,
              53.628546638747004
            ],
            [
              -1.629085784597911,
              53.6289088847135
            ],
            [
              -1.6284569638990274,
              53.62891421183685
            ]
          ]
        ]
      }
    }
  ]
}
