{
  "type": "FeatureCollection",
  "features": [
    {
      "type": "Feature",
      "properties": {
        "WardName": "Dewsbury West",
        "NoCllrs": 3,
        "Number": 14
      },
      "geometry": {
        "type": "Polygon",
        "coordinates": [
          [
            [
              -1.6421023730648028,
              53.7009924635749
            ],
            [
              -1.6386528423737838,
              53.69726968531303
            ],
            [
              -1.6375658808799993,
              53.69659423168139
            ],
            [
              -1.639209797849938,
              53.695987909741184
            ],
            [
              -1.639398444059603,
              53.69583898722689
            ],
            [
              -1.6411142262522715,
              53.69538157906741
            ],
            [
              -1.6408447316670354,
              53.69492416593763
            ],
            [
              -1.6394972587408563,
              53.69466886342488
            ],
            [
              -1.6385360613868483,
              53.69428590675257
            ],
            [
              -1.6379701227578531,
              53.694519936244056
            ],
            [
              -1.636999942251004,
              53.693892308764624
            ],
            [
              -1.6368023128884976,
              53.693535939844416
            ],
            [
              -1.6391379326272084,
              53.69245085768999
            ],
            [
              -1.6376557124084112,
              53.691248724217175
            ],
            [
              -1.6381228363561533,
              53.69070083784043
            ],
            [
              -1.6382306341902477,
              53.690264651355555
            ],
            [
              -1.6381138532033122,
              53.69007315342253
            ],
            [
              -1.63847317931696,
              53.68990825172671
            ],
            [
              -1.638158768967518,
              53.68964759934192
            ],
            [
              -1.6375299482686343,
              53.689753988265295
            ],
            [
              -1.6367843465828151,
              53.68966355769755
            ],
            [
              -1.6353380589753828,
              53.69063168662595
            ],
            [
              -1.6350056823202588,
              53.69005719522213
            ],
            [
              -1.6358411155344899,
              53.68954652961569
            ],
            [
              -1.6346822888179755,
              53.689355028416436
            ],
            [
              -1.6348170361105934,
              53.68920076292806
            ],
            [
              -1.6347541540407051,
              53.6889135084436
            ],
            [
              -1.635895014451537,
              53.68861561283418
            ],
            [
              -1.6367663802771328,
              53.688110249390604
            ],
            [
              -1.6372245210720338,
              53.68755700245565
            ],
            [
              -1.637467066198746,
              53.68689735237876
            ],
            [
              -1.637458083045905,
              53.68484385937278
            ],
            [
              -1.6361824753424552,
              53.68121010177581
            ],
            [
              -1.6360567112026785,
              53.68043329886217
            ],
            [
              -1.6362992563293908,
              53.6792893506795
            ],
            [
              -1.636631632984515,
              53.6786774586651
            ],
            [
              -1.6377724933953468,
              53.678347565369315
            ],
            [
              -1.6388235222777665,
              53.678257110304585
            ],
            [
              -1.6395511576579034,
              53.67829435653124
            ],
            [
              -1.6406471023045293,
              53.67856040004943
            ],
            [
              -1.641608299658537,
              53.67895414137261
            ],
            [
              -1.6431623851000638,
              53.679943799256726
            ],
            [
              -1.6445637569432905,
              53.680550352272796
            ],
            [
              -1.6458573309524225,
              53.68071529061743
            ],
            [
              -1.648273799066704,
              53.68081106097273
            ],
            [
              -1.649612288840042,
              53.680704649453396
            ],
            [
              -1.6505016209713204,
              53.68036945141017
            ],
            [
              -1.6521814705526239,
              53.67916697298776
            ],
            [
              -1.6535918255486914,
              53.67841141588627
            ],
            [
              -1.6556220180908017,
              53.67762391941252
            ],
            [
              -1.660562752153459,
              53.67600099173176
            ],
            [
              -1.6621258207478269,
              53.67523473529376
            ],
            [
              -1.6648836486700738,
              53.67344674940093
            ],
            [
              -1.6656831492729403,
              53.673106172055526
            ],
            [
              -1.667048588504802,
              53.67276027037093
            ],
            [
              -1.6680277521644922,
              53.67279752145803
            ],
            [
              -1.669114713658277,
              53.67299441951412
            ],
            [
              -1.6711089735890223,
              53.673675573258514
            ],
            [
              -1.6719803394146182,
              53.674122574418135
            ],
            [
              -1.6726450927248666,
              53.67500059860204
            ],
            [
              -1.6732739134237502,
              53.67530391179454
            ],
            [
              -1.6738668015112692,
              53.675341160632506
            ],
            [
              -1.6742979928476465,
              53.675165558679375
            ],
            [
              -1.6748190157124359,
              53.67445250080321
            ],
            [
              -1.6753400385772252,
              53.674617463026784
            ],
            [
              -1.6757173309965552,
              53.67503252640935
            ],
            [
              -1.6767324272676105,
              53.67491545766423
            ],
            [
              -1.6778822708312833,
              53.67501124120717
            ],
            [
              -1.676067673957362,
              53.67604356112521
            ],
            [
              -1.6752951228130193,
              53.67678319746896
            ],
            [
              -1.6745854537385647,
              53.677725017756536
            ],
            [
              -1.673211031353862,
              53.68023643557433
            ],
            [
              -1.671279653493005,
              53.68114625550138
            ],
            [
              -1.6715042323140348,
              53.68135375553939
            ],
            [
              -1.6701837088463791,
              53.68200285162145
            ],
            [
              -1.6706687990998037,
              53.682194386258715
            ],
            [
              -1.6710999904361812,
              53.68185387963465
            ],
            [
              -1.6715311817725584,
              53.681949647400955
            ],
            [
              -1.671656945912335,
              53.6819762495196
            ],
            [
              -1.6714952491611936,
              53.68225823094424
            ],
            [
              -1.6720072888731417,
              53.682428482965804
            ],
            [
              -1.671836608969159,
              53.68282218812961
            ],
            [
              -1.6716030469952878,
              53.68299775816468
            ],
            [
              -1.6704891360429799,
              53.68553014149245
            ],
            [
              -1.6683152130554104,
              53.685790819366545
            ],
            [
              -1.667919954330398,
              53.68537586199047
            ],
            [
              -1.667327066242879,
              53.68558866115567
            ],
            [
              -1.6665275656400127,
              53.68491302009315
            ],
            [
              -1.6659256943996525,
              53.68511518154758
            ],
            [
              -1.664659069849044,
              53.68431185003407
            ],
            [
              -1.663778720870607,
              53.68464701670081
            ],
            [
              -1.6632576980058176,
              53.68440761221107
            ],
            [
              -1.6622066691233979,
              53.68482789919041
            ],
            [
              -1.6611736065466602,
              53.684710857668186
            ],
            [
              -1.6610029266426776,
              53.68553546146517
            ],
            [
              -1.6616137810358789,
              53.68631217027371
            ],
            [
              -1.6624312479444276,
              53.686407927901925
            ],
            [
              -1.663634990425148,
              53.68682287510794
            ],
            [
              -1.6647758508359796,
              53.68690799197811
            ],
            [
              -1.6648566992115503,
              53.687179300853565
            ],
            [
              -1.6652699242422453,
              53.687333573748205
            ],
            [
              -1.6652878905479276,
              53.68761019959218
            ],
            [
              -1.6658717954826054,
              53.68833367397686
            ],
            [
              -1.6650633117268978,
              53.688791158716214
            ],
            [
              -1.6643177100410786,
              53.68942950120852
            ],
            [
              -1.6634553273683237,
              53.690583812641705
            ],
            [
              -1.6641200806785723,
              53.69141893989228
            ],
            [
              -1.6657909471070347,
              53.69273808804089
            ],
            [
              -1.6673180830900378,
              53.696434674122806
            ],
            [
              -1.666913841212184,
              53.69748774283247
            ],
            [
              -1.666913841212184,
              53.69825359443743
            ],
            [
              -1.6664197678059183,
              53.698556740181466
            ],
            [
              -1.665710098731464,
              53.69928002647079
            ],
            [
              -1.6654675536047516,
              53.69895029455691
            ],
            [
              -1.6651890758666745,
              53.69899815902725
            ],
            [
              -1.6655663682860047,
              53.699646983144255
            ],
            [
              -1.6646950024604088,
              53.699880982830685
            ],
            [
              -1.6632487148529764,
              53.70049256677658
            ],
            [
              -1.6633565126870706,
              53.700923329265095
            ],
            [
              -1.6631319338660409,
              53.701035007709095
            ],
            [
              -1.6624402310972688,
              53.700848876804464
            ],
            [
              -1.6611915728523428,
              53.699322572336015
            ],
            [
              -1.660059695594352,
              53.697588793495036
            ],
            [
              -1.6594308748954683,
              53.69691334498408
            ],
            [
              -1.6576971263971179,
              53.69750901667635
            ],
            [
              -1.655397439269772,
              53.6988652020308
            ],
            [
              -1.6535289434788032,
              53.69962039218849
            ],
            [
              -1.647627012062138,
              53.70060424636362
            ],
            [
              -1.6422640698159443,
              53.70107755180029
            ],
            [
              -1.6421023730648028,
              53.7009924635749
            ]
          ]
        ]
      }
    }
  ]
}
