{
  "type": "FeatureCollection",
  "features": [
    {
      "type": "Feature",
      "properties": {
        "WardName": "Greenhead",
        "NoCllrs": 3,
        "Number": 15
      },
      "geometry": {
        "type": "Polygon",
        "coordinates": [
          [
            [
              -1.790414226472936,
              53.66745963707365
            ],
            [
              -1.7902525297217944,
              53.66747560383786
            ],
            [
              -1.7899560856780348,
              53.66715626740417
            ],
            [
              -1.789830321538258,
              53.66716691199094
            ],
            [
              -1.7896147258700694,
              53.66685821788266
            ],
            [
              -1.7897225237041638,
              53.666831606215716
            ],
            [
              -1.789830321538258,
              53.66571922350456
            ],
            [
              -1.790279479180318,
              53.66514439222298
            ],
            [
              -1.7902076139575884,
              53.66486761880938
            ],
            [
              -1.7900279509007646,
              53.66479842517195
            ],
            [
              -1.7895967595643871,
              53.664122450583875
            ],
            [
              -1.7894260796604045,
              53.66414906396168
            ],
            [
              -1.789363197590516,
              53.66402664228466
            ],
            [
              -1.7886984442802676,
              53.6637019569842
            ],
            [
              -1.7866862180438399,
              53.6642555173048
            ],
            [
              -1.7842158510125112,
              53.66467600538128
            ],
            [
              -1.7830839737545205,
              53.6630738701229
            ],
            [
              -1.78255396773689,
              53.66245109678972
            ],
            [
              -1.7820688774834654,
              53.662222211970054
            ],
            [
              -1.7817095513698176,
              53.66171120881753
            ],
            [
              -1.780478859430574,
              53.662168982764065
            ],
            [
              -1.7809639496839984,
              53.66014089994178
            ],
            [
              -1.7765891542503365,
              53.65979489181534
            ],
            [
              -1.776472373263401,
              53.65976827568798
            ],
            [
              -1.7765352553332894,
              53.65956066931762
            ],
            [
              -1.7755560916735988,
              53.65937967831431
            ],
            [
              -1.7773347559361556,
              53.65793704576841
            ],
            [
              -1.778691212015176,
              53.656579542012096
            ],
            [
              -1.7827605802522375,
              53.65121830585832
            ],
            [
              -1.7841080531784168,
              53.6514525747109
            ],
            [
              -1.785132132602313,
              53.651303494682594
            ],
            [
              -1.7861651951790505,
              53.650946765332264
            ],
            [
              -1.7867760495722518,
              53.65048354510463
            ],
            [
              -1.7870994430745348,
              53.64990850601804
            ],
            [
              -1.7876024996336417,
              53.6466072039671
            ],
            [
              -1.7878630110660363,
              53.64661785374408
            ],
            [
              -1.7880516572757015,
              53.64685747301513
            ],
            [
              -1.7884109833893493,
              53.647043842617926
            ],
            [
              -1.7888421747257268,
              53.64709709092457
            ],
            [
              -1.7896506584814342,
              53.646873447584774
            ],
            [
              -1.7915281374252439,
              53.64689474700157
            ],
            [
              -1.7928396777400584,
              53.64648473133851
            ],
            [
              -1.7952202132429755,
              53.646202510448866
            ],
            [
              -1.795202246937293,
              53.64475410182408
            ],
            [
              -1.7948249545179626,
              53.64396065101019
            ],
            [
              -1.7951663143259282,
              53.643742316288055
            ],
            [
              -1.7951842806316107,
              53.643481378186245
            ],
            [
              -1.7974390519947507,
              53.64344410118276
            ],
            [
              -1.8023797860574078,
              53.6439659762332
            ],
            [
              -1.8041225177086,
              53.64391804920195
            ],
            [
              -1.8056137210802383,
              53.6437369910368
            ],
            [
              -1.8057125357614912,
              53.64433874017263
            ],
            [
              -1.8064761037529928,
              53.644514470601344
            ],
            [
              -1.8076888293865543,
              53.645073608003
            ],
            [
              -1.8081918859456612,
              53.64516945938467
            ],
            [
              -1.8077786609149662,
              53.64544103711629
            ],
            [
              -1.8081020544172492,
              53.64560611292208
            ],
            [
              -1.8100873311951533,
              53.645574162816565
            ],
            [
              -1.8101502132650416,
              53.64541973696526
            ],
            [
              -1.810904798103702,
              53.64555286273275
            ],
            [
              -1.8109676801735906,
              53.64539311176133
            ],
            [
              -1.8125217656151171,
              53.64557948783584
            ],
            [
              -1.8126565129077352,
              53.64527596066434
            ],
            [
              -1.8154233239828235,
              53.645457012222515
            ],
            [
              -1.816007228917501,
              53.64567533806769
            ],
            [
              -1.817336735537998,
              53.64576586308666
            ],
            [
              -1.8174624996777746,
              53.64551026253289
            ],
            [
              -1.818217084516435,
              53.645717938100816
            ],
            [
              -1.8185404780187182,
              53.645414411925806
            ],
            [
              -1.8203640580454805,
              53.64585638791129
            ],
            [
              -1.8212983059409649,
              53.644589022683235
            ],
            [
              -1.822448149504638,
              53.64482865348234
            ],
            [
              -1.8227266272427152,
              53.64497775640349
            ],
            [
              -1.8232386669546634,
              53.64537713663089
            ],
            [
              -1.8240471507103706,
              53.64650603095163
            ],
            [
              -1.8244064768240185,
              53.64662317863156
            ],
            [
              -1.8245591904223188,
              53.64652733055401
            ],
            [
              -1.8246849545620956,
              53.64656992972648
            ],
            [
              -1.824846651313237,
              53.64676695033942
            ],
            [
              -1.8261132758638459,
              53.646431482258606
            ],
            [
              -1.8257000508331505,
              53.64556883779663
            ],
            [
              -1.8258347981257685,
              53.64546766228997
            ],
            [
              -1.8272002373576304,
              53.64598418733291
            ],
            [
              -1.8279458390434495,
              53.64640485769344
            ],
            [
              -1.828242283087209,
              53.64640485769344
            ],
            [
              -1.8286105923536977,
              53.64620783538881
            ],
            [
              -1.8283141483099385,
              53.64755502358628
            ],
            [
              -1.8288890700917748,
              53.64717163844094
            ],
            [
              -1.8322847018657469,
              53.64795970412495
            ],
            [
              -1.831889443140734,
              53.6483856794437
            ],
            [
              -1.8312696055946915,
              53.6499351283711
            ],
            [
              -1.8307395995770614,
              53.6500788887872
            ],
            [
              -1.8302095935594307,
              53.65072846677856
            ],
            [
              -1.830173660948066,
              53.65156438438621
            ],
            [
              -1.8277122770695784,
              53.65088287318963
            ],
            [
              -1.8248825839246017,
              53.65266116833819
            ],
            [
              -1.824298678989924,
              53.65330538250395
            ],
            [
              -1.8241100327802593,
              53.65394426286378
            ],
            [
              -1.8197262541937556,
              53.653347974829146
            ],
            [
              -1.8142465309606266,
              53.65218199439306
            ],
            [
              -1.810931747562226,
              53.65161230272772
            ],
            [
              -1.8106353035184664,
              53.65270376131421
            ],
            [
              -1.811048528549161,
              53.6543861494486
            ],
            [
              -1.811048528549161,
              53.6555360976455
            ],
            [
              -1.8106353035184664,
              53.656595512898654
            ],
            [
              -1.8103298763218658,
              53.6570054302496
            ],
            [
              -1.809754954540029,
              53.65745793178743
            ],
            [
              -1.809144100146828,
              53.657750724311796
            ],
            [
              -1.8097729208457114,
              53.65826709889855
            ],
            [
              -1.808425447919532,
              53.658826053950385
            ],
            [
              -1.8089644370900042,
              53.660077021732214
            ],
            [
              -1.8082996837797554,
              53.66023139390627
            ],
            [
              -1.805973047193886,
              53.66043899697301
            ],
            [
              -1.8063323733075336,
              53.66137053660717
            ],
            [
              -1.8057574515256973,
              53.66143441285637
            ],
            [
              -1.8053172770364787,
              53.66129069115955
            ],
            [
              -1.8050926982154487,
              53.66147167395703
            ],
            [
              -1.8041494671671232,
              53.66135456752976
            ],
            [
              -1.8033320002585747,
              53.66139715172276
            ],
            [
              -1.803574545385287,
              53.66245641967772
            ],
            [
              -1.8038530231233638,
              53.66246706545167
            ],
            [
              -1.803906922040411,
              53.66314838939246
            ],
            [
              -1.8043021807654238,
              53.663430496862176
            ],
            [
              -1.8044369280580415,
              53.66392551106585
            ],
            [
              -1.8044279449052005,
              53.66410648254915
            ],
            [
              -1.8039967535688228,
              53.66434067978568
            ],
            [
              -1.8040686187915527,
              53.66464406972523
            ],
            [
              -1.8025145333500259,
              53.66469197320021
            ],
            [
              -1.8015982517602238,
              53.66488890913648
            ],
            [
              -1.8011580772710052,
              53.665660676232676
            ],
            [
              -1.8005921386420098,
              53.66540519627615
            ],
            [
              -1.798552962947059,
              53.66487294139215
            ],
            [
              -1.798328384126029,
              53.665266810653016
            ],
            [
              -1.79690904597712,
              53.665006005743386
            ],
            [
              -1.795624455120829,
              53.666544199141924
            ],
            [
              -1.794986651269104,
              53.66667193586118
            ],
            [
              -1.792677980988917,
              53.666022603519735
            ],
            [
              -1.792498317932093,
              53.66615566424086
            ],
            [
              -1.7920850929013983,
              53.66620356599761
            ],
            [
              -1.7922288233468573,
              53.66635791573229
            ],
            [
              -1.7913574575212614,
              53.66664000171767
            ],
            [
              -1.791429322743991,
              53.66671451468154
            ],
            [
              -1.7911598281587553,
              53.66681563920749
            ],
            [
              -1.7912316933814847,
              53.667076432917625
            ],
            [
              -1.7907016873638542,
              53.667177556575034
            ],
            [
              -1.7907466031280599,
              53.66747028158378
            ],
            [
              -1.790414226472936,
              53.66745963707365
            ]
          ]
        ]
      }
    }
  ]
}
