{
  "type": "FeatureCollection",
  "features": [
    {
      "type": "Feature",
      "properties": {
        "WardName": "Holme Valley North",
        "NoCllrs": 3,
        "Number": 17
      },
      "geometry": {
        "type": "Polygon",
        "coordinates": [
          [
            [
              -1.8386537572301542,
              53.61519996920223
            ],
            [
              -1.8358510135437014,
              53.614949512312016
            ],
            [
              -1.8346382879101397,
              53.61462444902617
            ],
            [
              -1.8336231916390848,
              53.613015082447674
            ],
            [
              -1.8323116513242703,
              53.61175738904298
            ],
            [
              -1.8313414708174212,
              53.61112319892361
            ],
            [
              -1.8303892566162547,
              53.60988143774484
            ],
            [
              -1.8306946838128553,
              53.60970023348964
            ],
            [
              -1.8305779028259195,
              53.60907134210104
            ],
            [
              -1.8296706043889588,
              53.60818661463072
            ],
            [
              -1.8293292445809934,
              53.60812265770965
            ],
            [
              -1.8289160195502987,
              53.60837848481276
            ],
            [
              -1.8271193889820594,
              53.60866095877207
            ],
            [
              -1.8254305562479147,
              53.60908200135513
            ],
            [
              -1.8247298703263017,
              53.60934848183334
            ],
            [
              -1.82313985227341,
              53.61022785548023
            ],
            [
              -1.8228793408410153,
              53.610057311719494
            ],
            [
              -1.8229871386751095,
              53.60988143774484
            ],
            [
              -1.8227984924654448,
              53.60964693797247
            ],
            [
              -1.8213881374693768,
              53.60917260490639
            ],
            [
              -1.8208132156875405,
              53.60944441439382
            ],
            [
              -1.8189447198965716,
              53.607872158836145
            ],
            [
              -1.817884707861311,
              53.60784018014957
            ],
            [
              -1.8171391061754918,
              53.60803738166419
            ],
            [
              -1.8164474034067197,
              53.607728254555944
            ],
            [
              -1.8162587571970545,
              53.607728254555944
            ],
            [
              -1.8149921326464462,
              53.608517057179846
            ],
            [
              -1.8146507728384804,
              53.60842645222206
            ],
            [
              -1.8143453456418799,
              53.60817595515061
            ],
            [
              -1.8128541422702416,
              53.607904137498466
            ],
            [
              -1.8122612541827228,
              53.607973424517105
            ],
            [
              -1.8111922589946203,
              53.607877488614875
            ],
            [
              -1.810850899186655,
              53.60842645222206
            ],
            [
              -1.8105993709071015,
              53.6086502994117
            ],
            [
              -1.8104197078502777,
              53.608612991629144
            ],
            [
              -1.8102849605576596,
              53.60870359618669
            ],
            [
              -1.8103927583917538,
              53.60883683782996
            ],
            [
              -1.8098088534570762,
              53.60931117466761
            ],
            [
              -1.8087578245746565,
              53.608730244548994
            ],
            [
              -1.807221705438812,
              53.60821859305493
            ],
            [
              -1.8044009954466766,
              53.60810133871441
            ],
            [
              -1.804095568250076,
              53.60824524172328
            ],
            [
              -1.8033589497170983,
              53.608986067971315
            ],
            [
              -1.8021552072363782,
              53.60883683782996
            ],
            [
              -1.7991817836459423,
              53.6090073865199
            ],
            [
              -1.7961544611384594,
              53.609972039580825
            ],
            [
              -1.794519527321362,
              53.60984413104997
            ],
            [
              -1.7920042445258273,
              53.61036109231402
            ],
            [
              -1.7902076139575884,
              53.61046235202656
            ],
            [
              -1.7899021867609877,
              53.6103504333828
            ],
            [
              -1.790045917206447,
              53.61048899927896
            ],
            [
              -1.7895518438001812,
              53.61048899927896
            ],
            [
              -1.7891206524638037,
              53.61060091755547
            ],
            [
              -1.7889769220183447,
              53.61079810617803
            ],
            [
              -1.7880516572757015,
              53.610627564720446
            ],
            [
              -1.7874228365768179,
              53.61141098385574
            ],
            [
              -1.7855992565500551,
              53.61165613243604
            ],
            [
              -1.7850602673795835,
              53.61221570538487
            ],
            [
              -1.7839553395801167,
              53.612434203285005
            ],
            [
              -1.7834612661738507,
              53.612668687578584
            ],
            [
              -1.7814670062431055,
              53.61297244938637
            ],
            [
              -1.780245297456703,
              53.61339877806217
            ],
            [
              -1.779876988190214,
              53.613190943370476
            ],
            [
              -1.7799219039544198,
              53.612727308448505
            ],
            [
              -1.7794278305481541,
              53.612434203285005
            ],
            [
              -1.7783857848185756,
              53.61255677478272
            ],
            [
              -1.777999509246404,
              53.61314831048674
            ],
            [
              -1.7769664466696666,
              53.61356930832716
            ],
            [
              -1.776571187944654,
              53.61431537013808
            ],
            [
              -1.7762747439008946,
              53.6139796439546
            ],
            [
              -1.7740828546076428,
              53.612684675096624
            ],
            [
              -1.7727174153757812,
              53.61213043760491
            ],
            [
              -1.7702470483444526,
              53.612173071516416
            ],
            [
              -1.7682438052608662,
              53.612391569637175
            ],
            [
              -1.7673365068239053,
              53.612343606731926
            ],
            [
              -1.7667436187363863,
              53.611597510078944
            ],
            [
              -1.7656386909369195,
              53.61122445680857
            ],
            [
              -1.7656027583255547,
              53.61089403544522
            ],
            [
              -1.7649200387096238,
              53.61012659520535
            ],
            [
              -1.764327150622105,
              53.60988676726997
            ],
            [
              -1.7643451169277873,
              53.60901804579015
            ],
            [
              -1.7640307065783456,
              53.608389144241755
            ],
            [
              -1.7637162962289037,
              53.60842112251259
            ],
            [
              -1.7636264647004918,
              53.60818128489099
            ],
            [
              -1.7631503575999083,
              53.60788814817033
            ],
            [
              -1.7616771205339523,
              53.60758967960045
            ],
            [
              -1.761380676490193,
              53.6073551671014
            ],
            [
              -1.7612998281146222,
              53.60693943719799
            ],
            [
              -1.7606260916515326,
              53.60668893130588
            ],
            [
              -1.7603476139134555,
              53.60669426123395
            ],
            [
              -1.7602218497736788,
              53.60538840875057
            ],
            [
              -1.7603476139134555,
              53.60486072629269
            ],
            [
              -1.7591798040441,
              53.60450360412081
            ],
            [
              -1.7583623371355512,
              53.60484473581226
            ],
            [
              -1.7572663924889256,
              53.603240326832
            ],
            [
              -1.7565118076502653,
              53.602488738872765
            ],
            [
              -1.7565746897201535,
              53.602344816248504
            ],
            [
              -1.7548678906803263,
              53.60022856400719
            ],
            [
              -1.7549038232916911,
              53.600052649098366
            ],
            [
              -1.7553709472394334,
              53.59966883220891
            ],
            [
              -1.7552451830996567,
              53.59953556163997
            ],
            [
              -1.7551823010297682,
              53.59744582413528
            ],
            [
              -1.7559099364099051,
              53.59734453321119
            ],
            [
              -1.7559099364099051,
              53.59723791092342
            ],
            [
              -1.754849924374644,
              53.59584113410139
            ],
            [
              -1.7544366993439489,
              53.59434834446457
            ],
            [
              -1.7550116211257853,
              53.59414574752048
            ],
            [
              -1.7550206042786267,
              53.59399646494005
            ],
            [
              -1.7565387571087887,
              53.59368723505983
            ],
            [
              -1.7568172348468658,
              53.59343665056582
            ],
            [
              -1.756781302235501,
              53.59326070737347
            ],
            [
              -1.7575718196855261,
              53.59281284866873
            ],
            [
              -1.75775148274235,
              53.592482283246454
            ],
            [
              -1.757607752296891,
              53.59229567259187
            ],
            [
              -1.7591887871969412,
              53.59213571994623
            ],
            [
              -1.7588025116247699,
              53.591367938818664
            ],
            [
              -1.7590091241401173,
              53.5911066767815
            ],
            [
              -1.7581467414673626,
              53.590973379201436
            ],
            [
              -1.7573652071701786,
              53.59063213548039
            ],
            [
              -1.7575089376156379,
              53.590365536905864
            ],
            [
              -1.7571765609605134,
              53.58968303689066
            ],
            [
              -1.759503197546383,
              53.589549734819705
            ],
            [
              -1.7605362601231205,
              53.58918715105937
            ],
            [
              -1.7614076259487166,
              53.5886752628073
            ],
            [
              -1.7596559111446834,
              53.58703824521445
            ],
            [
              -1.7580030110219036,
              53.58632369648325
            ],
            [
              -1.7570058810565308,
              53.58609439843447
            ],
            [
              -1.7566465549428831,
              53.58604640566216
            ],
            [
              -1.75572129020024,
              53.587160890423704
            ],
            [
              -1.7534036367672117,
              53.58646767369204
            ],
            [
              -1.7530712601120872,
              53.58692093207257
            ],
            [
              -1.7525682035529804,
              53.58673429685754
            ],
            [
              -1.7523436247319504,
              53.58609973096136
            ],
            [
              -1.7514992083648782,
              53.58585443402797
            ],
            [
              -1.752226843745015,
              53.58485190132685
            ],
            [
              -1.7513464947665778,
              53.58455326996804
            ],
            [
              -1.7513195453080543,
              53.584435949928356
            ],
            [
              -1.7518226018671612,
              53.5843132968114
            ],
            [
              -1.751903450242732,
              53.58420664163779
            ],
            [
              -1.7531700747933405,
              53.58429196579822
            ],
            [
              -1.753565333518353,
              53.58381201515525
            ],
            [
              -1.75489484013885,
              53.58411065175142
            ],
            [
              -1.7561614646894586,
              53.58391867132469
            ],
            [
              -1.7570058810565308,
              53.58397733210314
            ],
            [
              -1.7590630230571644,
              53.58334805768654
            ],
            [
              -1.7601140519395844,
              53.58335339055996
            ],
            [
              -1.761021350376545,
              53.58299608655451
            ],
            [
              -1.7617759352152054,
              53.58299608655451
            ],
            [
              -1.7618118678265702,
              53.583124076396174
            ],
            [
              -1.7622700086214713,
              53.583220068523104
            ],
            [
              -1.7625035705953422,
              53.58344938216609
            ],
            [
              -1.7629617113902434,
              53.58339072065491
            ],
            [
              -1.763455784796509,
              53.583492045032195
            ],
            [
              -1.763321037503891,
              53.58380134952351
            ],
            [
              -1.7638959592857275,
              53.58428130028757
            ],
            [
              -1.7638510435215216,
              53.584686587799666
            ],
            [
              -1.7642912180107402,
              53.58501188154398
            ],
            [
              -1.7644349484561992,
              53.58531584228823
            ],
            [
              -1.7649200387096238,
              53.585454490322775
            ],
            [
              -1.7649200387096238,
              53.585817106108955
            ],
            [
              -1.765306314281795,
              53.5857317850274
            ],
            [
              -1.7658542866051081,
              53.58588109680708
            ],
            [
              -1.766267511635803,
              53.58542782727452
            ],
            [
              -1.7665549725267213,
              53.58538516636237
            ],
            [
              -1.7670220964744636,
              53.585614468259
            ],
            [
              -1.7672556584483345,
              53.585630466019346
            ],
            [
              -1.767183793225605,
              53.585817106108955
            ],
            [
              -1.7673454899767465,
              53.585902427018276
            ],
            [
              -1.7680821085097245,
              53.58582777123203
            ],
            [
              -1.7688187270427027,
              53.585886429360905
            ],
            [
              -1.7686749965972433,
              53.58637702143259
            ],
            [
              -1.7693397499074919,
              53.58662231533289
            ],
            [
              -1.7691960194620326,
              53.58688360509548
            ],
            [
              -1.7693666993660153,
              53.587896754204856
            ],
            [
              -1.7696002613398867,
              53.58805139061665
            ],
            [
              -1.7702919641086585,
              53.5879500771694
            ],
            [
              -1.7704536608598,
              53.58806738745452
            ],
            [
              -1.770444677706959,
              53.58832333603719
            ],
            [
              -1.769663143409775,
              53.58876591013705
            ],
            [
              -1.771091464711525,
              53.58957106317931
            ],
            [
              -1.7724658870962278,
              53.5895070780682
            ],
            [
              -1.773993023079231,
              53.590301552997715
            ],
            [
              -1.7739660736207075,
              53.59117065947058
            ],
            [
              -1.774352349192879,
              53.592098397575114
            ],
            [
              -1.7751338834900627,
              53.592924813789935
            ],
            [
              -1.776059148232706,
              53.59348996654009
            ],
            [
              -1.7774784863816147,
              53.59399113340957
            ],
            [
              -1.7785025658055111,
              53.59359126670579
            ],
            [
              -1.7791224033515536,
              53.59351662450197
            ],
            [
              -1.7799129208015787,
              53.59347397175486
            ],
            [
              -1.7804429268192092,
              53.59367657192017
            ],
            [
              -1.780945983378316,
              53.59328736548
            ],
            [
              -1.7807034382516038,
              53.59313274822792
            ],
            [
              -1.781080730670934,
              53.5929088187908
            ],
            [
              -1.782140742706195,
              53.59345264536517
            ],
            [
              -1.783236687352821,
              53.59330869195313
            ],
            [
              -1.7827515970993963,
              53.59257292240991
            ],
            [
              -1.7858507848296086,
              53.591453248521766
            ],
            [
              -1.7841080531784168,
              53.59029088900361
            ],
            [
              -1.7842607667767172,
              53.59012559675072
            ],
            [
              -1.7848626380170771,
              53.589880323183955
            ],
            [
              -1.786093329956321,
              53.590637467434725
            ],
            [
              -1.7875575838694358,
              53.590242900996785
            ],
            [
              -1.7872252072143116,
              53.589821670598354
            ],
            [
              -1.7881325056512722,
              53.5893951038906
            ],
            [
              -1.7884469160007141,
              53.58958705944197
            ],
            [
              -1.7892464166035804,
              53.58909650463318
            ],
            [
              -1.789965068830876,
              53.58886188945074
            ],
            [
              -1.7912766091456904,
              53.58860061191916
            ],
            [
              -1.790881350420678,
              53.58819536193963
            ],
            [
              -1.7922018738883336,
              53.58781143732168
            ],
            [
              -1.792264755958222,
              53.587518159222086
            ],
            [
              -1.792489334779252,
              53.587384850322174
            ],
            [
              -1.7942141001247616,
              53.586942261758956
            ],
            [
              -1.7948788534350097,
              53.5866649749963
            ],
            [
              -1.7964778546407425,
              53.58813137474551
            ],
            [
              -1.797690580274304,
              53.587678129346905
            ],
            [
              -1.799577042370955,
              53.587160890423704
            ],
            [
              -1.7996668738993669,
              53.58727820289949
            ],
            [
              -1.800358576668139,
              53.58718221998897
            ],
            [
              -1.8030625056733387,
              53.58634502647107
            ],
            [
              -1.8038350568176813,
              53.58621171387067
            ],
            [
              -1.8046165911148653,
              53.586222378894185
            ],
            [
              -1.805802367289903,
              53.586003745374384
            ],
            [
              -1.8060988113336627,
              53.58585443402797
            ],
            [
              -1.8064671206001517,
              53.58541182943751
            ],
            [
              -1.8078056103734896,
              53.585417162050526
            ],
            [
              -1.8074912000240482,
              53.58588109680708
            ],
            [
              -1.8086320604348798,
              53.58540116420948
            ],
            [
              -1.8093686789678576,
              53.58567845926396
            ],
            [
              -1.8094495273434286,
              53.58540116420948
            ],
            [
              -1.8101861458764068,
              53.58546515553738
            ],
            [
              -1.8106083540599425,
              53.58421197440286
            ],
            [
              -1.8141387331265322,
              53.584275967531255
            ],
            [
              -1.8153334924544116,
              53.58417464503322
            ],
            [
              -1.815558071275441,
              53.58406265672648
            ],
            [
              -1.8149112842708752,
              53.58347604646244
            ],
            [
              -1.8141926320435795,
              53.583204069850424
            ],
            [
              -1.8130966873969538,
              53.58313474219882
            ],
            [
              -1.8132314346895715,
              53.58296408903354
            ],
            [
              -1.813249400995254,
              53.58230813451549
            ],
            [
              -1.8147316212140514,
              53.582446792416555
            ],
            [
              -1.8147765369782571,
              53.5823241335273
            ],
            [
              -1.8153065429958877,
              53.58242012747091
            ],
            [
              -1.8228074756182857,
              53.57796684557616
            ],
            [
              -1.8224840821160027,
              53.57705479823453
            ],
            [
              -1.8270834563706946,
              53.57586003978451
            ],
            [
              -1.829176530982693,
              53.5746972513742
            ],
            [
              -1.8316738474725454,
              53.573811803890216
            ],
            [
              -1.8315840159441334,
              53.57366778357025
            ],
            [
              -1.834225062879445,
              53.572296898930524
            ],
            [
              -1.8381507006710471,
              53.57092063540373
            ],
            [
              -1.8449689136775145,
              53.569544327083925
            ],
            [
              -1.850978642928274,
              53.56888816432624
            ],
            [
              -1.8535298583351736,
              53.568701449485715
            ],
            [
              -1.8611475719445068,
              53.568658771692114
            ],
            [
              -1.8671662843481078,
              53.5675384642068
            ],
            [
              -1.8748828126386945,
              53.56628475159549
            ],
            [
              -1.8819615370775562,
              53.56448147424606
            ],
            [
              -1.8847373313054858,
              53.56900019283486
            ],
            [
              -1.888438390276058,
              53.57448389223041
            ],
            [
              -1.890423667053962,
              53.57329439527106
            ],
            [
              -1.8984186730826258,
              53.57913487747131
            ],
            [
              -1.9007632759741777,
              53.5805962052636
            ],
            [
              -1.9025509233895757,
              53.5815561741303
            ],
            [
              -1.90431162134645,
              53.58373202285157
            ],
            [
              -1.9051201051021576,
              53.58501188154398
            ],
            [
              -1.9059016393993415,
              53.58671829951502
            ],
            [
              -1.9069436851289203,
              53.59117599135695
            ],
            [
              -1.905281801853299,
              53.59473754113149
            ],
            [
              -1.905057223032269,
              53.594918809588194
            ],
            [
              -1.8969005202524638,
              53.59649687858941
            ],
            [
              -1.8966130593615456,
              53.5950467633247
            ],
            [
              -1.8923730112205015,
              53.59622498576858
            ],
            [
              -1.8895972169925723,
              53.59730721544107
            ],
            [
              -1.8797786309371458,
              53.60559095178139
            ],
            [
              -1.8805511820814884,
              53.60650771335127
            ],
            [
              -1.8811440701690076,
              53.60662497211657
            ],
            [
              -1.8809644071121836,
              53.60798408404836
            ],
            [
              -1.8803894853303469,
              53.608133317203226
            ],
            [
              -1.8768501231109163,
              53.609870778692525
            ],
            [
              -1.8763021507876034,
              53.60947106228861
            ],
            [
              -1.8745414528307291,
              53.60979616525102
            ],
            [
              -1.8730502494590904,
              53.61064888244031
            ],
            [
              -1.8713793830306282,
              53.609694903940955
            ],
            [
              -1.8719902374238298,
              53.60934315224025
            ],
            [
              -1.8707415791789033,
              53.60812265770965
            ],
            [
              -1.8665105141907006,
              53.60895941977048
            ],
            [
              -1.8660613565486406,
              53.607579019969656
            ],
            [
              -1.8582370304239597,
              53.609561665005124
            ],
            [
              -1.858254996729642,
              53.60823991199096
            ],
            [
              -1.8573027825284751,
              53.60757369015326
            ],
            [
              -1.8566020966068622,
              53.60741912518485
            ],
            [
              -1.8517511940726166,
              53.60750973230391
            ],
            [
              -1.8512211880549865,
              53.60763231809671
            ],
            [
              -1.8465319822718824,
              53.60950836931307
            ],
            [
              -1.846648763258818,
              53.61059558812045
            ],
            [
              -1.8474123312503197,
              53.611474935796515
            ],
            [
              -1.8476638595298729,
              53.612077145154984
            ],
            [
              -1.8477806405168087,
              53.612769941757314
            ],
            [
              -1.8476997921412377,
              53.61343608161649
            ],
            [
              -1.847403348097478,
              53.613489372351204
            ],
            [
              -1.847798606822491,
              53.61474701416557
            ],
            [
              -1.8453551892496858,
              53.61474701416557
            ],
            [
              -1.8398215670995097,
              53.61520529805608
            ],
            [
              -1.8386537572301542,
              53.61519996920223
            ]
          ]
        ]
      }
    }
  ]
}
