{
  "type": "FeatureCollection",
  "features": [
    {
      "type": "Feature",
      "properties": {
        "WardName": "Holme Valley South",
        "NoCllrs": 3,
        "Number": 18
      },
      "geometry": {
        "type": "Polygon",
        "coordinates": [
          [
            [
              -1.7774245874645676,
              53.5939698072809
            ],
            [
              -1.7758884683287233,
              53.593404660948984
            ],
            [
              -1.7746667595423207,
              53.59248761496733
            ],
            [
              -1.7740379388434369,
              53.591453248521766
            ],
            [
              -1.773993023079231,
              53.590301552997715
            ],
            [
              -1.7724658870962278,
              53.5895070780682
            ],
            [
              -1.771091464711525,
              53.58957106317931
            ],
            [
              -1.769663143409775,
              53.58876591013705
            ],
            [
              -1.770444677706959,
              53.58832333603719
            ],
            [
              -1.7704536608598,
              53.58806738745452
            ],
            [
              -1.7702919641086585,
              53.5879500771694
            ],
            [
              -1.7696002613398867,
              53.58805139061665
            ],
            [
              -1.7693666993660153,
              53.587896754204856
            ],
            [
              -1.7691960194620326,
              53.58688360509548
            ],
            [
              -1.7693397499074919,
              53.58662231533289
            ],
            [
              -1.7686749965972433,
              53.58637702143259
            ],
            [
              -1.7688187270427027,
              53.585886429360905
            ],
            [
              -1.7680821085097245,
              53.58582777123203
            ],
            [
              -1.7673454899767465,
              53.585902427018276
            ],
            [
              -1.767183793225605,
              53.585817106108955
            ],
            [
              -1.7672556584483345,
              53.585630466019346
            ],
            [
              -1.7670220964744636,
              53.585614468259
            ],
            [
              -1.7665549725267213,
              53.58538516636237
            ],
            [
              -1.766267511635803,
              53.58542782727452
            ],
            [
              -1.7658542866051081,
              53.58588109680708
            ],
            [
              -1.765306314281795,
              53.5857317850274
            ],
            [
              -1.7649200387096238,
              53.585817106108955
            ],
            [
              -1.7649200387096238,
              53.585454490322775
            ],
            [
              -1.7644349484561992,
              53.58531584228823
            ],
            [
              -1.7642912180107402,
              53.58501188154398
            ],
            [
              -1.7638510435215216,
              53.584686587799666
            ],
            [
              -1.7638959592857275,
              53.58428130028757
            ],
            [
              -1.763321037503891,
              53.58380134952351
            ],
            [
              -1.763455784796509,
              53.583492045032195
            ],
            [
              -1.7629617113902434,
              53.58339072065491
            ],
            [
              -1.7625035705953422,
              53.58344938216609
            ],
            [
              -1.7622700086214713,
              53.583220068523104
            ],
            [
              -1.7618118678265702,
              53.583124076396174
            ],
            [
              -1.7617759352152054,
              53.58299608655451
            ],
            [
              -1.761021350376545,
              53.58299608655451
            ],
            [
              -1.7601140519395844,
              53.58335339055996
            ],
            [
              -1.7590630230571644,
              53.58334805768654
            ],
            [
              -1.7570058810565308,
              53.58397733210314
            ],
            [
              -1.7561614646894586,
              53.58391867132469
            ],
            [
              -1.75489484013885,
              53.58411065175142
            ],
            [
              -1.753565333518353,
              53.58381201515525
            ],
            [
              -1.7531700747933405,
              53.58429196579822
            ],
            [
              -1.751903450242732,
              53.58420664163779
            ],
            [
              -1.7518226018671612,
              53.5843132968114
            ],
            [
              -1.7513554779194191,
              53.584435949928356
            ],
            [
              -1.7507625898319001,
              53.58439862075653
            ],
            [
              -1.7505829267750763,
              53.58428130028757
            ],
            [
              -1.7491635886261674,
              53.58440395349737
            ],
            [
              -1.7442857366333986,
              53.58515586322165
            ],
            [
              -1.74256995444073,
              53.58524651810038
            ],
            [
              -1.742560971287889,
              53.58509720407884
            ],
            [
              -1.740629593427032,
              53.58516652851157
            ],
            [
              -1.7382580410769564,
              53.58446794633512
            ],
            [
              -1.737548372002502,
              53.584478611798644
            ],
            [
              -1.7369105681507773,
              53.584217307167265
            ],
            [
              -1.7367039556354298,
              53.58395066812304
            ],
            [
              -1.736353612674623,
              53.58397733210314
            ],
            [
              -1.7362008990763227,
              53.58420664163779
            ],
            [
              -1.7359583539496104,
              53.58429196579822
            ],
            [
              -1.7356978425172158,
              53.58414798117757
            ],
            [
              -1.7354103816262976,
              53.584217307167265
            ],
            [
              -1.7355002131547095,
              53.584334627813824
            ],
            [
              -1.7348534261501434,
              53.58455326996804
            ],
            [
              -1.7348174935387788,
              53.584766578296765
            ],
            [
              -1.734089858158642,
              53.58478257637804
            ],
            [
              -1.7337484983506763,
              53.58510786938357
            ],
            [
              -1.733317307014299,
              53.585054542832914
            ],
            [
              -1.7329220482892864,
              53.584499942717635
            ],
            [
              -1.7324369580358618,
              53.58418531057074
            ],
            [
              -1.732670520009733,
              53.5836520303965
            ],
            [
              -1.7328142504551922,
              53.58230813451549
            ],
            [
              -1.7324100085773384,
              53.581673502163376
            ],
            [
              -1.7323650928131322,
              53.58106552609994
            ],
            [
              -1.7313949123062833,
              53.580873531842144
            ],
            [
              -1.7303887991880693,
              53.58093219684677
            ],
            [
              -1.729724045877821,
              53.58078820078097
            ],
            [
              -1.7286460675368776,
              53.58079353397735
            ],
            [
              -1.7298677763232801,
              53.5797482146307
            ],
            [
              -1.7302091361312455,
              53.5786442013367
            ],
            [
              -1.7308649062886527,
              53.5772894789627
            ],
            [
              -1.7306762600789878,
              53.57679878140897
            ],
            [
              -1.73152067644606,
              53.57599338503534
            ],
            [
              -1.7306582937733053,
              53.575438666027615
            ],
            [
              -1.7306762600789878,
              53.575257314004176
            ],
            [
              -1.7295084502096323,
              53.57476125890738
            ],
            [
              -1.728852680052225,
              53.57430253611167
            ],
            [
              -1.7272716451521748,
              53.57518263941549
            ],
            [
              -1.7260768858242956,
              53.57438254625993
            ],
            [
              -1.725591795570871,
              53.5749639487899
            ],
            [
              -1.723741266085585,
              53.57649475941496
            ],
            [
              -1.7240017775179797,
              53.57667077241479
            ],
            [
              -1.7228519339543067,
              53.577364149830295
            ],
            [
              -1.7222231132554229,
              53.57795084491518
            ],
            [
              -1.721998534434393,
              53.57749749033724
            ],
            [
              -1.7221242985741698,
              53.577070799234654
            ],
            [
              -1.7185490037433742,
              53.575945380793485
            ],
            [
              -1.717947132503014,
              53.57564135266272
            ],
            [
              -1.7166715247995643,
              53.57464391168919
            ],
            [
              -1.715422866554638,
              53.57406783880331
            ],
            [
              -1.714587433340407,
              53.57348642395106
            ],
            [
              -1.7142820061438064,
              53.57346508747412
            ],
            [
              -1.7078410855566695,
              53.56596464880285
            ],
            [
              -1.7081105801419054,
              53.565580522253725
            ],
            [
              -1.7097275476533205,
              53.56457217346375
            ],
            [
              -1.7053617353724997,
              53.561829769980996
            ],
            [
              -1.7041310434332557,
              53.56025040636288
            ],
            [
              -1.7231753274565897,
              53.55992492207301
            ],
            [
              -1.7252684020685882,
              53.55540523386868
            ],
            [
              -1.7259421385316778,
              53.55465813146716
            ],
            [
              -1.7263643467152139,
              53.55449803637914
            ],
            [
              -1.7244060193958335,
              53.552235294354674
            ],
            [
              -1.7251785705401763,
              53.55147212530067
            ],
            [
              -1.7272446956936511,
              53.5503300144322
            ],
            [
              -1.7284753876328947,
              53.54887297778642
            ],
            [
              -1.728798781135178,
              53.54808306149254
            ],
            [
              -1.728996410497684,
              53.547970977580775
            ],
            [
              -1.7295623491266794,
              53.548045700221614
            ],
            [
              -1.7292030230130317,
              53.54750128938892
            ],
            [
              -1.7294545512925852,
              53.547437240595265
            ],
            [
              -1.7300833719914688,
              53.54679140984311
            ],
            [
              -1.733092728193269,
              53.54512608177531
            ],
            [
              -1.7401085705622428,
              53.542067472056
            ],
            [
              -1.7415548581696751,
              53.54106923920115
            ],
            [
              -1.7424980892180006,
              53.54105322457845
            ],
            [
              -1.755820104881493,
              53.53668100599759
            ],
            [
              -1.7654949604914605,
              53.53566129057972
            ],
            [
              -1.771783167480297,
              53.53385670782406
            ],
            [
              -1.7724209713320218,
              53.53393145538215
            ],
            [
              -1.7750799845730156,
              53.53504731395463
            ],
            [
              -1.7768137330713663,
              53.53550646253112
            ],
            [
              -1.7810717475180928,
              53.53522883840555
            ],
            [
              -1.7853477282705017,
              53.53479104281672
            ],
            [
              -1.7875845333279594,
              53.535202143682156
            ],
            [
              -1.7885996295990143,
              53.53555451267575
            ],
            [
              -1.7916988173292268,
              53.53538366746931
            ],
            [
              -1.7931451049366594,
              53.534700279750105
            ],
            [
              -1.7946363083082977,
              53.534198409869695
            ],
            [
              -1.7962353095140304,
              53.53393145538215
            ],
            [
              -1.7974300688419091,
              53.533888742507955
            ],
            [
              -1.7998465369561907,
              53.53450807496681
            ],
            [
              -1.8012568919522585,
              53.53510604253861
            ],
            [
              -1.8041045514029175,
              53.53655287556638
            ],
            [
              -1.8042842144597413,
              53.537012007816834
            ],
            [
              -1.8222325538364494,
              53.521088957064784
            ],
            [
              -1.8227445935483975,
              53.521911420844354
            ],
            [
              -1.8271553215934242,
              53.523508236741314
            ],
            [
              -1.8289250027031396,
              53.52318246982359
            ],
            [
              -1.8338298041544323,
              53.5210141868385
            ],
            [
              -1.8349796477181055,
              53.52066703763059
            ],
            [
              -1.839534106208591,
              53.51982318615605
            ],
            [
              -1.8412678547069419,
              53.519753754590155
            ],
            [
              -1.8420853216154907,
              53.52002079845157
            ],
            [
              -1.8429836368996102,
              53.52061362980765
            ],
            [
              -1.8442412782973776,
              53.52178324572127
            ],
            [
              -1.8439897500178242,
              53.522562971723914
            ],
            [
              -1.8456875659048098,
              53.52472583517024
            ],
            [
              -1.847035038830989,
              53.52542540440094
            ],
            [
              -1.8506282999674672,
              53.52622108360383
            ],
            [
              -1.8542574937153102,
              53.52830900292017
            ],
            [
              -1.85613497265912,
              53.52955850131087
            ],
            [
              -1.8566470123710679,
              53.530017709404476
            ],
            [
              -1.859539587585933,
              53.53364848178786
            ],
            [
              -1.8602762061189109,
              53.53402222009675
            ],
            [
              -1.8621536850627207,
              53.53449205786216
            ],
            [
              -1.8634292927661706,
              53.53496722939064
            ],
            [
              -1.8677591724356266,
              53.53747113508844
            ],
            [
              -1.8706427644976504,
              53.539275563802946
            ],
            [
              -1.873490423948309,
              53.54042864956872
            ],
            [
              -1.8758529931455437,
              53.540407296414045
            ],
            [
              -1.882689172457693,
              53.53915277967215
            ],
            [
              -1.8830484985713407,
              53.53898728745418
            ],
            [
              -1.885123606877657,
              53.53744444177874
            ],
            [
              -1.8864710798038362,
              53.536168481946284
            ],
            [
              -1.887046001585673,
              53.53586950671794
            ],
            [
              -1.8941067597188523,
              53.53361110777552
            ],
            [
              -1.896172884872327,
              53.53576806821441
            ],
            [
              -1.8976191724797595,
              53.53689455585459
            ],
            [
              -1.8983557910127378,
              53.53779679211176
            ],
            [
              -1.8993259715195865,
              53.5381117694726
            ],
            [
              -1.9008351411969073,
              53.53856020777379
            ],
            [
              -1.902110748900357,
              53.53864562405451
            ],
            [
              -1.9042756887350851,
              53.53848012985408
            ],
            [
              -1.9088930292954596,
              53.538736378663984
            ],
            [
              -1.9096206646755964,
              53.53838937469531
            ],
            [
              -1.9128815491569504,
              53.55164290558504
            ],
            [
              -1.9153159835769142,
              53.55152549421359
            ],
            [
              -1.9193673855082931,
              53.55087972584738
            ],
            [
              -1.920364515473666,
              53.55158419994003
            ],
            [
              -1.9215772411072272,
              53.552998449645145
            ],
            [
              -1.9244518500164096,
              53.55255550104759
            ],
            [
              -1.9248291424357398,
              53.55258218482929
            ],
            [
              -1.9275240882880982,
              53.55463678549043
            ],
            [
              -1.925996952305095,
              53.55501567497669
            ],
            [
              -1.9058657067879767,
              53.558601615894226
            ],
            [
              -1.8873963445464792,
              53.56305160205425
            ],
            [
              -1.8742809413983343,
              53.566407457023665
            ],
            [
              -1.8671662843481078,
              53.5675384642068
            ],
            [
              -1.8611475719445068,
              53.568658771692114
            ],
            [
              -1.8535298583351736,
              53.568701449485715
            ],
            [
              -1.850978642928274,
              53.56888816432624
            ],
            [
              -1.8449689136775145,
              53.569544327083925
            ],
            [
              -1.8381507006710471,
              53.57092063540373
            ],
            [
              -1.834225062879445,
              53.572296898930524
            ],
            [
              -1.8315840159441334,
              53.57366778357025
            ],
            [
              -1.8316738474725454,
              53.573811803890216
            ],
            [
              -1.829176530982693,
              53.5746972513742
            ],
            [
              -1.8270834563706946,
              53.57586003978451
            ],
            [
              -1.8224840821160027,
              53.57705479823453
            ],
            [
              -1.8228074756182857,
              53.57796684557616
            ],
            [
              -1.8153065429958877,
              53.58242012747091
            ],
            [
              -1.8147765369782571,
              53.5823241335273
            ],
            [
              -1.8147316212140514,
              53.582446792416555
            ],
            [
              -1.813249400995254,
              53.58230813451549
            ],
            [
              -1.8132314346895715,
              53.58296408903354
            ],
            [
              -1.8130966873969538,
              53.58313474219882
            ],
            [
              -1.8141926320435795,
              53.583204069850424
            ],
            [
              -1.8149112842708752,
              53.58347604646244
            ],
            [
              -1.815558071275441,
              53.58406265672648
            ],
            [
              -1.8153334924544116,
              53.58417464503322
            ],
            [
              -1.8141387331265322,
              53.584275967531255
            ],
            [
              -1.8106083540599425,
              53.58421197440286
            ],
            [
              -1.8101861458764068,
              53.58546515553738
            ],
            [
              -1.8094495273434286,
              53.58540116420948
            ],
            [
              -1.8093686789678576,
              53.58567845926396
            ],
            [
              -1.8086320604348798,
              53.58540116420948
            ],
            [
              -1.8074912000240482,
              53.58588109680708
            ],
            [
              -1.8078056103734896,
              53.585417162050526
            ],
            [
              -1.8064671206001517,
              53.58541182943751
            ],
            [
              -1.8060988113336627,
              53.58585443402797
            ],
            [
              -1.805802367289903,
              53.586003745374384
            ],
            [
              -1.8046165911148653,
              53.586222378894185
            ],
            [
              -1.8038350568176813,
              53.58621171387067
            ],
            [
              -1.8030625056733387,
              53.58634502647107
            ],
            [
              -1.800358576668139,
              53.58718221998897
            ],
            [
              -1.7996668738993669,
              53.58727820289949
            ],
            [
              -1.799577042370955,
              53.587160890423704
            ],
            [
              -1.797690580274304,
              53.587678129346905
            ],
            [
              -1.7964778546407425,
              53.58813137474551
            ],
            [
              -1.7948788534350097,
              53.5866649749963
            ],
            [
              -1.7942141001247616,
              53.586942261758956
            ],
            [
              -1.792489334779252,
              53.587384850322174
            ],
            [
              -1.792264755958222,
              53.587518159222086
            ],
            [
              -1.7922018738883336,
              53.58781143732168
            ],
            [
              -1.790881350420678,
              53.58819536193963
            ],
            [
              -1.7912766091456904,
              53.58860061191916
            ],
            [
              -1.789965068830876,
              53.58886188945074
            ],
            [
              -1.7892464166035804,
              53.58909650463318
            ],
            [
              -1.7884469160007141,
              53.58958705944197
            ],
            [
              -1.7881325056512722,
              53.5893951038906
            ],
            [
              -1.7872252072143116,
              53.589821670598354
            ],
            [
              -1.7875575838694358,
              53.590242900996785
            ],
            [
              -1.786093329956321,
              53.590637467434725
            ],
            [
              -1.7848626380170771,
              53.589880323183955
            ],
            [
              -1.7842607667767172,
              53.59012559675072
            ],
            [
              -1.7841080531784168,
              53.59029088900361
            ],
            [
              -1.7858507848296086,
              53.591453248521766
            ],
            [
              -1.7827515970993963,
              53.59257292240991
            ],
            [
              -1.783236687352821,
              53.59330869195313
            ],
            [
              -1.782140742706195,
              53.59345264536517
            ],
            [
              -1.781080730670934,
              53.5929088187908
            ],
            [
              -1.7807034382516038,
              53.59313274822792
            ],
            [
              -1.780945983378316,
              53.59328736548
            ],
            [
              -1.7804429268192092,
              53.59367657192017
            ],
            [
              -1.7799129208015787,
              53.59347397175486
            ],
            [
              -1.7791224033515536,
              53.59351662450197
            ],
            [
              -1.7785384984168757,
              53.59358060354191
            ],
            [
              -1.7774245874645676,
              53.5939698072809
            ]
          ]
        ]
      }
    }
  ]
}
