{
  "type": "FeatureCollection",
  "features": [
    {
      "type": "Feature",
      "properties": {
        "WardName": "Lindley",
        "NoCllrs": 3,
        "Number": 20
      },
      "geometry": {
        "type": "Polygon",
        "coordinates": [
          [
            [
              -1.8174445333720923,
              53.6733828913584
            ],
            [
              -1.8162138414328484,
              53.67288266667629
            ],
            [
              -1.815818582707836,
              53.67253144154186
            ],
            [
              -1.8155490881226002,
              53.67207378015505
            ],
            [
              -1.8150819641748581,
              53.67174915685528
            ],
            [
              -1.813105670549795,
              53.67106797196417
            ],
            [
              -1.8117312481650922,
              53.671137155307136
            ],
            [
              -1.8104736067673248,
              53.670977501267316
            ],
            [
              -1.8102310616406125,
              53.67102007573708
            ],
            [
              -1.809934617596853,
              53.67135002641913
            ],
            [
              -1.8104286910031187,
              53.67200459835005
            ],
            [
              -1.8103298763218658,
              53.672153605173484
            ],
            [
              -1.8089015550201155,
              53.67222278673376
            ],
            [
              -1.8073834021899535,
              53.67274430560925
            ],
            [
              -1.8057305020671737,
              53.67280816461974
            ],
            [
              -1.8045626921978182,
              53.67256869283129
            ],
            [
              -1.8045626921978182,
              53.672233430040684
            ],
            [
              -1.8041674334728057,
              53.67185559099963
            ],
            [
              -1.803987770415982,
              53.671850269298794
            ],
            [
              -1.8038889557347284,
              53.67170126140257
            ],
            [
              -1.8039967535688228,
              53.671658687621125
            ],
            [
              -1.8037003095250637,
              53.67146710507229
            ],
            [
              -1.8037003095250637,
              53.67123294744063
            ],
            [
              -1.8040596356387113,
              53.671004110315955
            ],
            [
              -1.8037542084421108,
              53.670679478774346
            ],
            [
              -1.8039787872631405,
              53.67034952284106
            ],
            [
              -1.8043740459881532,
              53.67044531676531
            ],
            [
              -1.8044009954466766,
              53.67028566010387
            ],
            [
              -1.8050298161455605,
              53.67054111047175
            ],
            [
              -1.8060179629580917,
              53.67029630390014
            ],
            [
              -1.8062335586262808,
              53.670152612423905
            ],
            [
              -1.806341356460375,
              53.66998763271725
            ],
            [
              -1.806197626014916,
              53.669886515803555
            ],
            [
              -1.8063503396132161,
              53.668178135473504
            ],
            [
              -1.806026946110933,
              53.66792267077938
            ],
            [
              -1.805047782451243,
              53.66758204877798
            ],
            [
              -1.8036823432193814,
              53.66641113964765
            ],
            [
              -1.8016701169829534,
              53.66572986845435
            ],
            [
              -1.8011580772710052,
              53.665660676232676
            ],
            [
              -1.8015982517602238,
              53.66488890913648
            ],
            [
              -1.8025145333500259,
              53.66469197320021
            ],
            [
              -1.8040686187915527,
              53.66464406972523
            ],
            [
              -1.8040057367216642,
              53.66431406652889
            ],
            [
              -1.8044548943637237,
              53.66406390109356
            ],
            [
              -1.8043021807654238,
              53.663430496862176
            ],
            [
              -1.803906922040411,
              53.66314838939246
            ],
            [
              -1.8038530231233638,
              53.66246706545167
            ],
            [
              -1.803574545385287,
              53.66245641967772
            ],
            [
              -1.8033320002585747,
              53.66139715172276
            ],
            [
              -1.8041494671671232,
              53.66135456752976
            ],
            [
              -1.8050926982154487,
              53.66147167395703
            ],
            [
              -1.8053172770364787,
              53.66129069115955
            ],
            [
              -1.8057574515256973,
              53.66143441285637
            ],
            [
              -1.8063323733075336,
              53.66137053660717
            ],
            [
              -1.805973047193886,
              53.66043899697301
            ],
            [
              -1.8082996837797554,
              53.66023139390627
            ],
            [
              -1.8089644370900042,
              53.660077021732214
            ],
            [
              -1.808425447919532,
              53.658826053950385
            ],
            [
              -1.8097729208457114,
              53.65826709889855
            ],
            [
              -1.809144100146828,
              53.657750724311796
            ],
            [
              -1.809754954540029,
              53.65745793178743
            ],
            [
              -1.8103298763218658,
              53.6570054302496
            ],
            [
              -1.8106353035184664,
              53.656595512898654
            ],
            [
              -1.811048528549161,
              53.6555360976455
            ],
            [
              -1.811048528549161,
              53.6543861494486
            ],
            [
              -1.8106353035184664,
              53.65270376131421
            ],
            [
              -1.810931747562226,
              53.65161230272772
            ],
            [
              -1.8142465309606266,
              53.65218199439306
            ],
            [
              -1.8197262541937556,
              53.653347974829146
            ],
            [
              -1.8241100327802593,
              53.65394426286378
            ],
            [
              -1.824298678989924,
              53.65330538250395
            ],
            [
              -1.8248825839246017,
              53.65266116833819
            ],
            [
              -1.8277122770695784,
              53.65088287318963
            ],
            [
              -1.830173660948066,
              53.65156438438621
            ],
            [
              -1.830173660948066,
              53.65078703479415
            ],
            [
              -1.8304611218389841,
              53.65035043490254
            ],
            [
              -1.8309012963282028,
              53.64999902194989
            ],
            [
              -1.8316918137782277,
              53.64991383049001
            ],
            [
              -1.8330842024686131,
              53.65014810659051
            ],
            [
              -1.8357162662510833,
              53.650366408148976
            ],
            [
              -1.8370188234130567,
              53.6503078395491
            ],
            [
              -1.8378901892386525,
              53.64971150008294
            ],
            [
              -1.8419326080171905,
              53.65144725043326
            ],
            [
              -1.8435855081399704,
              53.65244820281271
            ],
            [
              -1.8473224997219078,
              53.65443406458307
            ],
            [
              -1.8472147018878133,
              53.65404009408271
            ],
            [
              -1.8461367235468698,
              53.65335862290371
            ],
            [
              -1.8474572470145254,
              53.65332667867194
            ],
            [
              -1.8484004780628507,
              53.65311904057532
            ],
            [
              -1.8496311700020946,
              53.65317760527021
            ],
            [
              -1.850062361338472,
              53.65307644801883
            ],
            [
              -1.8503677885350724,
              53.65310839244024
            ],
            [
              -1.8509606766225917,
              53.653422511294686
            ],
            [
              -1.852083570727741,
              53.65377921969829
            ],
            [
              -1.852595610439689,
              53.65383245949968
            ],
            [
              -1.8528201892607192,
              53.654002826412345
            ],
            [
              -1.8542844431738337,
              53.6541146293246
            ],
            [
              -1.854571904064752,
              53.65437017772502
            ],
            [
              -1.8552276742221592,
              53.65446600797581
            ],
            [
              -1.8558205623096782,
              53.654694934915405
            ],
            [
              -1.8563775177858322,
              53.6550463087299
            ],
            [
              -1.856323618868785,
              53.65513148981965
            ],
            [
              -1.8566020966068622,
              53.65505695637553
            ],
            [
              -1.8574015972097286,
              53.655339118004825
            ],
            [
              -1.8590724636381908,
              53.65541365095008
            ],
            [
              -1.8602223072018638,
              53.6553018514828
            ],
            [
              -1.8607612963723357,
              53.65509954693114
            ],
            [
              -1.8609319762763181,
              53.65521667073726
            ],
            [
              -1.861506898058155,
              53.65530717527366
            ],
            [
              -1.8615518138223608,
              53.655365736928985
            ],
            [
              -1.8603301050359582,
              53.65538170827541
            ],
            [
              -1.8602043408961815,
              53.65659018927045
            ],
            [
              -1.8619919883115794,
              53.65683507547092
            ],
            [
              -1.8617314768791846,
              53.657239666946204
            ],
            [
              -1.8634652253775352,
              53.657660225021424
            ],
            [
              -1.862575893246257,
              53.65898575403237
            ],
            [
              -1.8630160677354757,
              53.65942226450266
            ],
            [
              -1.8693402073356769,
              53.657010753825354
            ],
            [
              -1.8807218619854713,
              53.65245885111452
            ],
            [
              -1.8844049546503614,
              53.65055808663428
            ],
            [
              -1.8907650268619274,
              53.646436807169614
            ],
            [
              -1.8928850509324497,
              53.64546766228997
            ],
            [
              -1.8945828668194356,
              53.644913855216124
            ],
            [
              -1.894457102679659,
              53.64544103711629
            ],
            [
              -1.894600833125118,
              53.64541973696526
            ],
            [
              -1.8942684564699936,
              53.646628503518365
            ],
            [
              -1.8935228547841745,
              53.64730475867811
            ],
            [
              -1.8923819943733429,
              53.64778931279255
            ],
            [
              -1.8922472470807248,
              53.64793840524604
            ],
            [
              -1.8927323373341491,
              53.64851347120021
            ],
            [
              -1.891061470905687,
              53.649328134543836
            ],
            [
              -1.8905404480408978,
              53.64945592344416
            ],
            [
              -1.8891660256561946,
              53.65029719070402
            ],
            [
              -1.8885012723459464,
              53.650829629663484
            ],
            [
              -1.8858332759521113,
              53.652043565350574
            ],
            [
              -1.882311880038363,
              53.65385375540142
            ],
            [
              -1.8782155623427779,
              53.65555739268668
            ],
            [
              -1.876517746455792,
              53.65645709834744
            ],
            [
              -1.875269088210866,
              53.6569042821828
            ],
            [
              -1.8747300990403941,
              53.65726628467028
            ],
            [
              -1.8752331555995012,
              53.65782525299328
            ],
            [
              -1.8750265430841535,
              53.65807013201892
            ],
            [
              -1.8742539919398107,
              53.65836292029098
            ],
            [
              -1.873337710350009,
              53.65788913461537
            ],
            [
              -1.8728346537909017,
              53.658016897569134
            ],
            [
              -1.870624798191968,
              53.6588313772962
            ],
            [
              -1.869942078576037,
              53.659432911043034
            ],
            [
              -1.8689629149163467,
              53.65918271663352
            ],
            [
              -1.8679837512566566,
              53.660167515833855
            ],
            [
              -1.8670045875969665,
              53.65950743675026
            ],
            [
              -1.8655582999895337,
              53.6606998301459
            ],
            [
              -1.864597102635526,
              53.6610990614681
            ],
            [
              -1.863447259071853,
              53.661067123101475
            ],
            [
              -1.8630879329582053,
              53.661338598446264
            ],
            [
              -1.8627465731502395,
              53.6618549290804
            ],
            [
              -1.8621806345212446,
              53.66214769106287
            ],
            [
              -1.861201470861554,
              53.66224350363362
            ],
            [
              -1.8602223072018638,
              53.66199332590738
            ],
            [
              -1.8600156946865163,
              53.66205187827428
            ],
            [
              -1.8604019702586876,
              53.66268530322544
            ],
            [
              -1.858308895646689,
              53.66289821703759
            ],
            [
              -1.8556498824056953,
              53.663457110676944
            ],
            [
              -1.8554702193488715,
              53.66324419968827
            ],
            [
              -1.8552456405278415,
              53.66327081362067
            ],
            [
              -1.853233414291414,
              53.66375518425404
            ],
            [
              -1.8533052795141436,
              53.66381905688917
            ],
            [
              -1.8522452674788823,
              53.66420761333367
            ],
            [
              -1.8529279870948134,
              53.66480907035433
            ],
            [
              -1.8519039076709172,
              53.66518165004367
            ],
            [
              -1.8510594913038445,
              53.66568728863907
            ],
            [
              -1.8496671026134595,
              53.665948089332396
            ],
            [
              -1.8477896236696496,
              53.6645376173636
            ],
            [
              -1.843567541834288,
              53.666123729706094
            ],
            [
              -1.8443580592843134,
              53.66648565301621
            ],
            [
              -1.8452024756513854,
              53.66671983703105
            ],
            [
              -1.845651633293445,
              53.66706046600215
            ],
            [
              -1.8459390941843636,
              53.66708175522142
            ],
            [
              -1.846280453992329,
              53.667252068588375
            ],
            [
              -1.8462445213809642,
              53.667385125427344
            ],
            [
              -1.8475201290844139,
              53.66775236012285
            ],
            [
              -1.8478884383509029,
              53.668215390612
            ],
            [
              -1.8483465791458036,
              53.668220712771955
            ],
            [
              -1.8485531916611513,
              53.66847085353144
            ],
            [
              -1.848912517774799,
              53.668625194961415
            ],
            [
              -1.8493796417225414,
              53.66917336857396
            ],
            [
              -1.8503677885350724,
              53.669253199087656
            ],
            [
              -1.8511852554436217,
              53.66967363729728
            ],
            [
              -1.8512301712078274,
              53.67014729050796
            ],
            [
              -1.8514547500288574,
              53.670253728698995
            ],
            [
              -1.8512930532777159,
              53.67041870736375
            ],
            [
              -1.8516793288498872,
              53.67043999488634
            ],
            [
              -1.8523261158544533,
              53.67121698210017
            ],
            [
              -1.8531256164573198,
              53.671573539929184
            ],
            [
              -1.8535298583351736,
              53.67188752119053
            ],
            [
              -1.8537544371562031,
              53.672164248497836
            ],
            [
              -1.8536825719334735,
              53.672536763156636
            ],
            [
              -1.8534400268067617,
              53.67251015507598
            ],
            [
              -1.8527123914266248,
              53.6721269968508
            ],
            [
              -1.8522273011732,
              53.672158926836005
            ],
            [
              -1.8516433962385224,
              53.67229196818048
            ],
            [
              -1.8512571206663513,
              53.672776235126584
            ],
            [
              -1.8511044070680507,
              53.67281348619956
            ],
            [
              -1.8509427103169094,
              53.672675124905304
            ],
            [
              -1.84997252981006,
              53.672653838512026
            ],
            [
              -1.8495862542378887,
              53.672499511838986
            ],
            [
              -1.8488945514691166,
              53.672621908901895
            ],
            [
              -1.8482477644645507,
              53.67239840095358
            ],
            [
              -1.8464691002019942,
              53.67238243605476
            ],
            [
              -1.8461816393110757,
              53.672478225356954
            ],
            [
              -1.845786380586063,
              53.67231857639897
            ],
            [
              -1.8447084022451197,
              53.672212143424204
            ],
            [
              -1.8443221266729481,
              53.672031206750034
            ],
            [
              -1.842929737982563,
              53.67200459835005
            ],
            [
              -1.8423458330478855,
              53.671898164582096
            ],
            [
              -1.84140260199956,
              53.67156821819273
            ],
            [
              -1.8411870063313713,
              53.671376635232505
            ],
            [
              -1.8401449606017926,
              53.671318095820894
            ],
            [
              -1.8384022289506008,
              53.67088703037622
            ],
            [
              -1.8365337331596319,
              53.66981200844869
            ],
            [
              -1.8355366031942595,
              53.66897645266012
            ],
            [
              -1.8332548823725956,
              53.669843940188336
            ],
            [
              -1.8315121507214038,
              53.6701260028375
            ],
            [
              -1.8315660496384512,
              53.67018986581663
            ],
            [
              -1.8300119641969246,
              53.670237762987504
            ],
            [
              -1.8279907548076557,
              53.66985458409617
            ],
            [
              -1.8276134623883251,
              53.66992376943156
            ],
            [
              -1.8273888835672956,
              53.67011003707758
            ],
            [
              -1.826867860702506,
              53.67025905060151
            ],
            [
              -1.8257270002916743,
              53.670253728698995
            ],
            [
              -1.824244780072877,
              53.67099878850757
            ],
            [
              -1.8203101591284334,
              53.67214296184642
            ],
            [
              -1.8187740399925891,
              53.672909274521714
            ],
            [
              -1.8183697981147353,
              53.67270173288179
            ],
            [
              -1.8177589437215342,
              53.67330306866909
            ],
            [
              -1.8174445333720923,
              53.6733828913584
            ]
          ]
        ]
      }
    }
  ]
}
