{
  "type": "FeatureCollection",
  "features": [
    {
      "type": "Feature",
      "properties": {
        "WardName": "Liversedge & Gomersal",
        "NoCllrs": 3,
        "Number": 21
      },
      "geometry": {
        "type": "Polygon",
        "coordinates": [
          [
            [
              -1.6915097136913764,
              53.741735345458295
            ],
            [
              -1.6882667955157051,
              53.74126249737999
            ],
            [
              -1.6854011697593636,
              53.741103109188344
            ],
            [
              -1.6824457124746106,
              53.74117217747894
            ],
            [
              -1.6798585644563462,
              53.74144844950621
            ],
            [
              -1.6793734742029218,
              53.74063025399621
            ],
            [
              -1.6792477100631449,
              53.740295533059886
            ],
            [
              -1.6794183899671278,
              53.74026365473643
            ],
            [
              -1.679337541591557,
              53.74012020198167
            ],
            [
              -1.6790770301591622,
              53.74017333268868
            ],
            [
              -1.678924316560862,
              53.7399236177817
            ],
            [
              -1.6779002371369658,
              53.74008301044679
            ],
            [
              -1.6776487088574124,
              53.73993424397817
            ],
            [
              -1.6788075355739265,
              53.73921696968554
            ],
            [
              -1.679014148089274,
              53.73903100768544
            ],
            [
              -1.679112962770527,
              53.738685647502216
            ],
            [
              -1.680433486238183,
              53.737883338276255
            ],
            [
              -1.680756879740466,
              53.73749014803046
            ],
            [
              -1.6795351709540634,
              53.737410446856614
            ],
            [
              -1.6794902551898574,
              53.73705975989613
            ],
            [
              -1.678969232325068,
              53.73705975989613
            ],
            [
              -1.6786817714341498,
              53.7367568915301
            ],
            [
              -1.6792477100631449,
              53.73650715632342
            ],
            [
              -1.6789063502551798,
              53.736363690746416
            ],
            [
              -1.679202794298939,
              53.73564104187616
            ],
            [
              -1.6793465247443984,
              53.7344560833844
            ],
            [
              -1.677397180577859,
              53.73481741955868
            ],
            [
              -1.6773342985079704,
              53.734716458293285
            ],
            [
              -1.6776666751630946,
              53.73447733853947
            ],
            [
              -1.677172601756829,
              53.734248845059355
            ],
            [
              -1.6769749723943226,
              53.73378122662346
            ],
            [
              -1.6762653033198682,
              53.733834365344066
            ],
            [
              -1.6759149603590617,
              53.733701518416616
            ],
            [
              -1.6756454657738258,
              53.733813109863895
            ],
            [
              -1.675609533162461,
              53.73330828905079
            ],
            [
              -1.6752771565073368,
              53.73330297511524
            ],
            [
              -1.6752951228130193,
              53.732920369991035
            ],
            [
              -1.6745495211272001,
              53.732915056006455
            ],
            [
              -1.6746034200442472,
              53.73246336486215
            ],
            [
              -1.6734176438692094,
              53.731687507568914
            ],
            [
              -1.6732289976595442,
              53.731692821708656
            ],
            [
              -1.672348648681107,
              53.73111357652176
            ],
            [
              -1.672204918235648,
              53.731118890734045
            ],
            [
              -1.6710640578248164,
              53.73045460899017
            ],
            [
              -1.670776596933898,
              53.73038552308622
            ],
            [
              -1.670776596933898,
              53.73007197794155
            ],
            [
              -1.6712167714231165,
              53.72968934341045
            ],
            [
              -1.6713964344799404,
              53.72929607651349
            ],
            [
              -1.6721869519299657,
              53.72838729704444
            ],
            [
              -1.6726450927248666,
              53.72755821793825
            ],
            [
              -1.6726540758777078,
              53.72668128955454
            ],
            [
              -1.6730673009084027,
              53.72575650890035
            ],
            [
              -1.6705789675713918,
              53.72400787380026
            ],
            [
              -1.6693662419378303,
              53.72335411008785
            ],
            [
              -1.6709921926020865,
              53.72209970572477
            ],
            [
              -1.6701298099293318,
              53.72169042162909
            ],
            [
              -1.6707226980168508,
              53.721451227780975
            ],
            [
              -1.6711538893532283,
              53.72139275796674
            ],
            [
              -1.6696626859815897,
              53.72067516726192
            ],
            [
              -1.6716030469952878,
              53.719511049631606
            ],
            [
              -1.6741722287078697,
              53.718373478902066
            ],
            [
              -1.6752052912846074,
              53.719303737632444
            ],
            [
              -1.6753580048829075,
              53.72007982345838
            ],
            [
              -1.6755736005510962,
              53.72018081987577
            ],
            [
              -1.6762742864727094,
              53.72039875868693
            ],
            [
              -1.6789422828665443,
              53.72017550428091
            ],
            [
              -1.6791219459233682,
              53.71972899191349
            ],
            [
              -1.67966093509384,
              53.71955357504358
            ],
            [
              -1.6799933117489643,
              53.719266527678286
            ],
            [
              -1.6805053514609123,
              53.719059214473845
            ],
            [
              -1.6803346715569296,
              53.71887316329213
            ],
            [
              -1.6804784020023888,
              53.71872432175418
            ],
            [
              -1.6803885704739767,
              53.71862863763021
            ],
            [
              -1.6812599362995726,
              53.71837879472471
            ],
            [
              -1.6809275596444486,
              53.717953526791646
            ],
            [
              -1.6815294308848088,
              53.71778341841446
            ],
            [
              -1.6808736607274015,
              53.716959446225516
            ],
            [
              -1.6811701047711607,
              53.716853126057636
            ],
            [
              -1.6803167052512473,
              53.71601318728358
            ],
            [
              -1.6795890698711105,
              53.71558257925677
            ],
            [
              -1.6814665488149203,
              53.714306677741135
            ],
            [
              -1.684350140876944,
              53.7113347404144
            ],
            [
              -1.6865330470173543,
              53.71021821596736
            ],
            [
              -1.6875301769827271,
              53.709149514814314
            ],
            [
              -1.6895603695248373,
              53.707814929487746
            ],
            [
              -1.69010834184815,
              53.70753843639755
            ],
            [
              -1.6928482034647145,
              53.70693758937973
            ],
            [
              -1.6938453334300874,
              53.70643244586759
            ],
            [
              -1.694851446548301,
              53.705703965071585
            ],
            [
              -1.695111957980696,
              53.70511372685675
            ],
            [
              -1.6954084020244553,
              53.701258363708035
            ],
            [
              -1.695623997692644,
              53.70041811355391
            ],
            [
              -1.6968367233262052,
              53.698572695160166
            ],
            [
              -1.6980224995012432,
              53.69731755169456
            ],
            [
              -1.7045352853111095,
              53.692535963183445
            ],
            [
              -1.7064037811020782,
              53.69159447408649
            ],
            [
              -1.7073919279146097,
              53.6913178744182
            ],
            [
              -1.7134645392352577,
              53.69014762494441
            ],
            [
              -1.7150186246767845,
              53.689610363155204
            ],
            [
              -1.721351747429827,
              53.6869133117768
            ],
            [
              -1.7232202432207957,
              53.68656752346509
            ],
            [
              -1.7270380831783034,
              53.686131294159594
            ],
            [
              -1.72701113371978,
              53.685918497736566
            ],
            [
              -1.7256546776407595,
              53.684992820783215
            ],
            [
              -1.724343137325945,
              53.684492733963346
            ],
            [
              -1.7272267293879688,
              53.6828115474979
            ],
            [
              -1.7321854297563084,
              53.68458317563662
            ],
            [
              -1.7317003395028838,
              53.685296062026254
            ],
            [
              -1.731152367179571,
              53.68555142137939
            ],
            [
              -1.7317003395028838,
              53.685929137583244
            ],
            [
              -1.7340179929359123,
              53.68808365114661
            ],
            [
              -1.73482647669162,
              53.68832835435763
            ],
            [
              -1.7346468136347961,
              53.6887007260805
            ],
            [
              -1.7355271626132331,
              53.689684835495676
            ],
            [
              -1.7342605380626246,
              53.69257319678274
            ],
            [
              -1.7339730771717063,
              53.69358912942704
            ],
            [
              -1.733236458638728,
              53.69480715247815
            ],
            [
              -1.733721548892153,
              53.695360304148316
            ],
            [
              -1.7362637811462112,
              53.69716331538143
            ],
            [
              -1.7372968437229486,
              53.69818445562864
            ],
            [
              -1.7380334622559264,
              53.69817913725403
            ],
            [
              -1.7385634682735571,
              53.69837059831667
            ],
            [
              -1.7392461878894878,
              53.69897156766158
            ],
            [
              -1.7395426319332474,
              53.69945552788768
            ],
            [
              -1.739255171042329,
              53.70000330033083
            ],
            [
              -1.7369554839149832,
              53.70227940460798
            ],
            [
              -1.7387521144832223,
              53.70233790099259
            ],
            [
              -1.7388239797059517,
              53.70288563592173
            ],
            [
              -1.7386443166491277,
              53.704103389977256
            ],
            [
              -1.7395965308502945,
              53.7040661665763
            ],
            [
              -1.7395875476974534,
              53.70462983169393
            ],
            [
              -1.7392821205008526,
              53.70479999326462
            ],
            [
              -1.7385275356621923,
              53.70562420363444
            ],
            [
              -1.7377909171292143,
              53.70662918669331
            ],
            [
              -1.737602270919549,
              53.70711837611051
            ],
            [
              -1.7367937871638417,
              53.70811268924527
            ],
            [
              -1.7358595392683573,
              53.70899532185983
            ],
            [
              -1.7357876740456277,
              53.70933029204132
            ],
            [
              -1.7360392023251814,
              53.71029265185237
            ],
            [
              -1.7388239797059517,
              53.712158822785376
            ],
            [
              -1.7376561698365964,
              53.71252566716453
            ],
            [
              -1.7377549845178495,
              53.713020104527196
            ],
            [
              -1.7358685224211985,
              53.7132433969152
            ],
            [
              -1.7368207366223654,
              53.714131238256236
            ],
            [
              -1.7344761337308132,
              53.71466818709972
            ],
            [
              -1.7346288473291134,
              53.71504032584131
            ],
            [
              -1.7360212360194989,
              53.71574738038034
            ],
            [
              -1.7362188653820052,
              53.71633215335028
            ],
            [
              -1.7348444429973022,
              53.71620988331058
            ],
            [
              -1.733182559721681,
              53.71649695153708
            ],
            [
              -1.7324639074943855,
              53.71652353182934
            ],
            [
              -1.729355736611332,
              53.716326837269
            ],
            [
              -1.7284214887158476,
              53.716177986720055
            ],
            [
              -1.7254300988197298,
              53.71479577789629
            ],
            [
              -1.7246844971339104,
              53.714099340089454
            ],
            [
              -1.7234268557361432,
              53.713562383984915
            ],
            [
              -1.7220793828099639,
              53.71263199827064
            ],
            [
              -1.7207947919536728,
              53.71242996893925
            ],
            [
              -1.7201390217962655,
              53.71277022830678
            ],
            [
              -1.7201390217962655,
              53.71331782744779
            ],
            [
              -1.7193574874990816,
              53.713254029856486
            ],
            [
              -1.718827481481451,
              53.71336035912159
            ],
            [
              -1.7183693406865503,
              53.71471603369379
            ],
            [
              -1.7178393346689198,
              53.71488615447638
            ],
            [
              -1.715225237192132,
              53.715242342636635
            ],
            [
              -1.7152881192620202,
              53.71562510864079
            ],
            [
              -1.714641332257454,
              53.716018503404506
            ],
            [
              -1.7140035284057293,
              53.71610356124806
            ],
            [
              -1.7134555560824165,
              53.71603445176325
            ],
            [
              -1.7126650386323912,
              53.71643315876717
            ],
            [
              -1.7127728364664856,
              53.71672554150144
            ],
            [
              -1.7095568677493378,
              53.71756015012532
            ],
            [
              -1.7086765187709008,
              53.71707108211257
            ],
            [
              -1.7074278605259745,
              53.717432567713736
            ],
            [
              -1.705433600595229,
              53.71754420234506
            ],
            [
              -1.705011392411693,
              53.71763457302006
            ],
            [
              -1.7050024092588516,
              53.717708995783084
            ],
            [
              -1.7030530650923124,
              53.717974790290434
            ],
            [
              -1.7022535644894459,
              53.717900367997665
            ],
            [
              -1.7003850686984774,
              53.71744319959615
            ],
            [
              -1.7000706583490355,
              53.71763988893607
            ],
            [
              -1.7012474513712321,
              53.718426637098084
            ],
            [
              -1.6993430229688988,
              53.71944726143301
            ],
            [
              -1.6996664164711817,
              53.719787464040884
            ],
            [
              -1.699495736567199,
              53.71985656735934
            ],
            [
              -1.7009060915632668,
              53.7211535624256
            ],
            [
              -1.7022535644894459,
              53.72272691258353
            ],
            [
              -1.7035201890400546,
              53.723497620066134
            ],
            [
              -1.7038974814593848,
              53.72424705310681
            ],
            [
              -1.7033854417474366,
              53.72453938152288
            ],
            [
              -1.7047329146736159,
              53.725575802259115
            ],
            [
              -1.7049574934946456,
              53.72556517243251
            ],
            [
              -1.7048946114247574,
              53.7258840660619
            ],
            [
              -1.705972589765701,
              53.72695765683708
            ],
            [
              -1.7065924273117432,
              53.72805779320341
            ],
            [
              -1.7066103936174257,
              53.72880183046688
            ],
            [
              -1.7063858147963957,
              53.7294183085106
            ],
            [
              -1.7066822588401553,
              53.72942362293718
            ],
            [
              -1.7064936126304902,
              53.729880661111316
            ],
            [
              -1.7064756463248076,
              53.730885064757295
            ],
            [
              -1.7062241180452542,
              53.731804418488274
            ],
            [
              -1.7058647919316063,
              53.731894758521456
            ],
            [
              -1.7053527522196583,
              53.73246336486215
            ],
            [
              -1.7041310434332557,
              53.733313602985646
            ],
            [
              -1.703690868944037,
              53.73321795205524
            ],
            [
              -1.7034573069701662,
              53.73331891691985
            ],
            [
              -1.703583071109943,
              53.73344645113902
            ],
            [
              -1.7034662901230073,
              53.733616496162725
            ],
            [
              -1.7024242443934285,
              53.73414256859886
            ],
            [
              -1.7012744008297558,
              53.734546417719166
            ],
            [
              -1.6984626739904618,
              53.73516812522802
            ],
            [
              -1.6975733418591832,
              53.735083105940525
            ],
            [
              -1.6973038472739475,
              53.73517343892778
            ],
            [
              -1.6968367233262052,
              53.73473771331668
            ],
            [
              -1.6953006041903609,
              53.73521594850168
            ],
            [
              -1.691806157735136,
              53.736082071708275
            ],
            [
              -1.6919229387220716,
              53.736225538246515
            ],
            [
              -1.6914558147743293,
              53.73635306364717
            ],
            [
              -1.6920846354732129,
              53.73709695410639
            ],
            [
              -1.6917702251237712,
              53.73717134242821
            ],
            [
              -1.691806157735136,
              53.737251044055476
            ],
            [
              -1.691994803944801,
              53.737320118676884
            ],
            [
              -1.6922553153771958,
              53.73728292466407
            ],
            [
              -1.6927943045476674,
              53.73780895121457
            ],
            [
              -1.6930188833686974,
              53.738090558682416
            ],
            [
              -1.692399045822655,
              53.738366850968056
            ],
            [
              -1.6930907485914268,
              53.739126645388254
            ],
            [
              -1.6932165127312035,
              53.73908413976943
            ],
            [
              -1.693423125246551,
              53.739238222433166
            ],
            [
              -1.6928122708533497,
              53.739429496678085
            ],
            [
              -1.6937644850545166,
              53.74046555037659
            ],
            [
              -1.694519069893177,
              53.740088323525214
            ],
            [
              -1.6952287389676315,
              53.74124124565603
            ],
            [
              -1.694896362312507,
              53.74132625248738
            ],
            [
              -1.6933422768709803,
              53.74214443444679
            ],
            [
              -1.6915097136913764,
              53.741735345458295
            ]
          ]
        ]
      }
    }
  ]
}
