{
  "type": "FeatureCollection",
  "features": [
    {
      "type": "Feature",
      "properties": {
        "WardName": "Mirfield",
        "NoCllrs": 3,
        "Number": 22
      },
      "geometry": {
        "type": "Polygon",
        "coordinates": [
          [
            [
              -1.69852555606035,
              53.696572957375174
            ],
            [
              -1.6978069038330545,
              53.69555177803294
            ],
            [
              -1.6977170723046424,
              53.69502522275449
            ],
            [
              -1.6966750265750639,
              53.69484970286468
            ],
            [
              -1.694752631867048,
              53.69350934502792
            ],
            [
              -1.6938632997357697,
              53.69369018944885
            ],
            [
              -1.6920037870976423,
              53.694493342049164
            ],
            [
              -1.6908539435339691,
              53.69441887821416
            ],
            [
              -1.6896591842060904,
              53.69461567520649
            ],
            [
              -1.6896322347475667,
              53.69470609513775
            ],
            [
              -1.6885991721708293,
              53.69491352836383
            ],
            [
              -1.6867666089912254,
              53.69478055846471
            ],
            [
              -1.6865240638645131,
              53.694902890787375
            ],
            [
              -1.6859850746940415,
              53.69489225320821
            ],
            [
              -1.6855628665105054,
              53.69504649784293
            ],
            [
              -1.6835147076627128,
              53.695275204364464
            ],
            [
              -1.6803616210154533,
              53.694977353766205
            ],
            [
              -1.6787536366568794,
              53.694599718727865
            ],
            [
              -1.6781068496523133,
              53.69454653042213
            ],
            [
              -1.6776666751630946,
              53.694679501060484
            ],
            [
              -1.6763551348482801,
              53.694727370387454
            ],
            [
              -1.675879027747697,
              53.69461567520649
            ],
            [
              -1.6755466510925727,
              53.694652906966404
            ],
            [
              -1.6742081613192346,
              53.69448802320818
            ],
            [
              -1.673031368297038,
              53.69388167093009
            ],
            [
              -1.671189821964593,
              53.69341360354939
            ],
            [
              -1.6704621865844562,
              53.69349338812997
            ],
            [
              -1.6697255680514782,
              53.69339764661515
            ],
            [
              -1.669024882129865,
              53.69354657776633
            ],
            [
              -1.668252330985522,
              53.693535939844416
            ],
            [
              -1.6677313081207328,
              53.69383380064142
            ],
            [
              -1.6674348640769734,
              53.693780611367956
            ],
            [
              -1.6664377341116008,
              53.69390294659648
            ],
            [
              -1.6663209531246652,
              53.693743378836565
            ],
            [
              -1.6661502732206823,
              53.69374869777164
            ],
            [
              -1.665719081884305,
              53.69266894017256
            ],
            [
              -1.6641200806785723,
              53.69141893989228
            ],
            [
              -1.6634553273683237,
              53.69063168662595
            ],
            [
              -1.6643177100410786,
              53.68942950120852
            ],
            [
              -1.6650633117268978,
              53.688791158716214
            ],
            [
              -1.6658717954826054,
              53.68833367397686
            ],
            [
              -1.6652878905479276,
              53.68761019959218
            ],
            [
              -1.665296873700769,
              53.68736549220756
            ],
            [
              -1.6648566992115503,
              53.687179300853565
            ],
            [
              -1.6648836486700738,
              53.68702502739367
            ],
            [
              -1.664712968766091,
              53.686886712776705
            ],
            [
              -1.663634990425148,
              53.68682287510794
            ],
            [
              -1.6624312479444276,
              53.686407927901925
            ],
            [
              -1.6616946294114496,
              53.686370688850175
            ],
            [
              -1.6610029266426776,
              53.68553546146517
            ],
            [
              -1.661200556005184,
              53.68468957735649
            ],
            [
              -1.6622066691233979,
              53.68482789919041
            ],
            [
              -1.6632576980058176,
              53.68440761221107
            ],
            [
              -1.663778720870607,
              53.68464701670081
            ],
            [
              -1.664659069849044,
              53.68431185003407
            ],
            [
              -1.6659256943996525,
              53.68511518154758
            ],
            [
              -1.6665275656400127,
              53.68491302009315
            ],
            [
              -1.667327066242879,
              53.68558866115567
            ],
            [
              -1.667919954330398,
              53.68537586199047
            ],
            [
              -1.6683152130554104,
              53.685790819366545
            ],
            [
              -1.6704891360429799,
              53.68553014149245
            ],
            [
              -1.6716030469952878,
              53.68299775816468
            ],
            [
              -1.671836608969159,
              53.68282218812961
            ],
            [
              -1.6720072888731417,
              53.682428482965804
            ],
            [
              -1.6714952491611936,
              53.68225823094424
            ],
            [
              -1.671656945912335,
              53.6819762495196
            ],
            [
              -1.6715311817725584,
              53.681949647400955
            ],
            [
              -1.6710999904361812,
              53.68185387963465
            ],
            [
              -1.6706687990998037,
              53.682194386258715
            ],
            [
              -1.6701837088463791,
              53.68200285162145
            ],
            [
              -1.6715042323140348,
              53.68135375553939
            ],
            [
              -1.671279653493005,
              53.68114625550138
            ],
            [
              -1.673211031353862,
              53.68023643557433
            ],
            [
              -1.6745854537385647,
              53.677725017756536
            ],
            [
              -1.6752951228130193,
              53.67678319746896
            ],
            [
              -1.676067673957362,
              53.67604356112521
            ],
            [
              -1.6778822708312833,
              53.67501124120717
            ],
            [
              -1.6767324272676105,
              53.67491545766423
            ],
            [
              -1.6757173309965552,
              53.67503252640935
            ],
            [
              -1.6753400385772252,
              53.674617463026784
            ],
            [
              -1.6748190157124359,
              53.67445250080321
            ],
            [
              -1.6743878243760584,
              53.675096381951406
            ],
            [
              -1.6739835824982048,
              53.67530923305911
            ],
            [
              -1.6735344248561448,
              53.67535712441015
            ],
            [
              -1.6727349242532785,
              53.67506977548731
            ],
            [
              -1.671791693204953,
              53.67400018171502
            ],
            [
              -1.669114713658277,
              53.67299441951412
            ],
            [
              -1.6680277521644922,
              53.67279752145803
            ],
            [
              -1.667048588504802,
              53.67276027037093
            ],
            [
              -1.6656831492729403,
              53.673106172055526
            ],
            [
              -1.6648836486700738,
              53.67344674940093
            ],
            [
              -1.6639853333859544,
              53.67288798824674
            ],
            [
              -1.6635990578137831,
              53.671754478568864
            ],
            [
              -1.663976350233113,
              53.67084977759989
            ],
            [
              -1.6634014284512766,
              53.67006213976155
            ],
            [
              -1.6627007425296634,
              53.66857197384253
            ],
            [
              -1.6624402310972688,
              53.66785880436385
            ],
            [
              -1.6625390457785219,
              53.667715104574974
            ],
            [
              -1.662404298485904,
              53.66723077945513
            ],
            [
              -1.661892258773956,
              53.66629404694511
            ],
            [
              -1.6621168375949857,
              53.66513906967446
            ],
            [
              -1.662035989219415,
              53.66471326361608
            ],
            [
              -1.6613173369921193,
              53.663877606719616
            ],
            [
              -1.6610119097955187,
              53.66320694015466
            ],
            [
              -1.6611017413239308,
              53.662935476844126
            ],
            [
              -1.6622515848876038,
              53.6622754411088
            ],
            [
              -1.6623953153330628,
              53.661961388218415
            ],
            [
              -1.664659069849044,
              53.66110438452683
            ],
            [
              -1.6663209531246652,
              53.660162192656784
            ],
            [
              -1.6670306221991196,
              53.65998120423637
            ],
            [
              -1.6690877641997532,
              53.659140130203134
            ],
            [
              -1.6691596294224829,
              53.65887928737827
            ],
            [
              -1.6704711697372974,
              53.65834162666703
            ],
            [
              -1.6704801528901385,
              53.658203217849234
            ],
            [
              -1.6723306823754247,
              53.65729822591696
            ],
            [
              -1.6728247557816904,
              53.65774540082949
            ],
            [
              -1.673588323773192,
              53.65722369630368
            ],
            [
              -1.672887637851579,
              53.6561110599811
            ],
            [
              -1.6745315548215176,
              53.655589335228235
            ],
            [
              -1.674145279249346,
              53.655200699328326
            ],
            [
              -1.6746034200442472,
              53.65483867910256
            ],
            [
              -1.6746034200442472,
              53.65441809287765
            ],
            [
              -1.6744237569874232,
              53.65434888208416
            ],
            [
              -1.6752771565073368,
              53.653949586826094
            ],
            [
              -1.6761305560272504,
              53.6538111635872
            ],
            [
              -1.6774241300363826,
              53.65285283639138
            ],
            [
              -1.677549894176159,
              53.65162827549611
            ],
            [
              -1.6779631192068543,
              53.65105325202149
            ],
            [
              -1.680208907417153,
              53.65122895447076
            ],
            [
              -1.6806221324478479,
              53.65111181958595
            ],
            [
              -1.680909593338766,
              53.65119700862538
            ],
            [
              -1.6813946835921907,
              53.65163892400501
            ],
            [
              -1.681960622221186,
              53.65166554526551
            ],
            [
              -1.682275032570628,
              53.651931756946006
            ],
            [
              -1.682697240754164,
              53.65202226853446
            ],
            [
              -1.6854910012877757,
              53.651521790259146
            ],
            [
              -1.6895154537606314,
              53.65120765724319
            ],
            [
              -1.6906922467828278,
              53.65168684226179
            ],
            [
              -1.690746145699875,
              53.65184124516323
            ],
            [
              -1.6909886908265872,
              53.651915784292584
            ],
            [
              -1.6920307365561658,
              53.65197435065889
            ],
            [
              -1.6928212540061909,
              53.652240560389586
            ],
            [
              -1.6933602431766628,
              53.65269311307425
            ],
            [
              -1.6956778966096913,
              53.655291203899026
            ],
            [
              -1.6968996053960936,
              53.65588214073148
            ],
            [
              -1.698624370741603,
              53.65614300210315
            ],
            [
              -1.7006455801308722,
              53.655695810192
            ],
            [
              -1.7025949242974114,
              53.655482859995544
            ],
            [
              -1.703403408053119,
              53.65545091737331
            ],
            [
              -1.7042478244201913,
              53.65559998273672
            ],
            [
              -1.7048047798963455,
              53.655914083027
            ],
            [
              -1.7054425837480705,
              53.656579542012096
            ],
            [
              -1.70611632021116,
              53.656771192251426
            ],
            [
              -1.707832102403828,
              53.65783589993699
            ],
            [
              -1.7104641661862985,
              53.65866635326333
            ],
            [
              -1.7110121385096113,
              53.65870361681108
            ],
            [
              -1.7121619820732843,
              53.658996400682994
            ],
            [
              -1.7124224935056789,
              53.65929982909518
            ],
            [
              -1.712512325034091,
              53.659853447236415
            ],
            [
              -1.7116499423613363,
              53.660476258953686
            ],
            [
              -1.7126380891738675,
              53.66132795238725
            ],
            [
              -1.7173542444154952,
              53.66331871865667
            ],
            [
              -1.716473895437058,
              53.6637179251722
            ],
            [
              -1.71491082684269,
              53.6631856489778
            ],
            [
              -1.7145694670347247,
              53.663387914723614
            ],
            [
              -1.7149287931483725,
              53.66372857062752
            ],
            [
              -1.7150455741353081,
              53.66479842517195
            ],
            [
              -1.714632349104613,
              53.66566599871529
            ],
            [
              -1.7146682817159777,
              53.665857607642046
            ],
            [
              -1.7144077702835832,
              53.665900187285224
            ],
            [
              -1.7143179387551712,
              53.66605986056401
            ],
            [
              -1.7143179387551712,
              53.66660806754996
            ],
            [
              -1.7139855621000468,
              53.666980631334084
            ],
            [
              -1.7127189375494383,
              53.66770446012667
            ],
            [
              -1.7123146956715847,
              53.66813555813203
            ],
            [
              -1.7119823190164603,
              53.66883275668277
            ],
            [
              -1.7121619820732843,
              53.66975346686318
            ],
            [
              -1.7112546836363236,
              53.670482569899235
            ],
            [
              -1.7105539977147104,
              53.671658687621125
            ],
            [
              -1.7095568677493378,
              53.67213764018189
            ],
            [
              -1.7088921144390894,
              53.6722653599452
            ],
            [
              -1.7088022829106775,
              53.672504833457815
            ],
            [
              -1.709017878578866,
              53.67284009408867
            ],
            [
              -1.708092613836223,
              53.673499964362435
            ],
            [
              -1.7069876860367559,
              53.67402678885464
            ],
            [
              -1.705972589765701,
              53.67479306726465
            ],
            [
              -1.706062421294113,
              53.67570832598739
            ],
            [
              -1.7056222468048943,
              53.67674062882297
            ],
            [
              -1.7082632937402056,
              53.677139708190296
            ],
            [
              -1.7093861878453551,
              53.67751217885529
            ],
            [
              -1.7111468858022292,
              53.67837949063989
            ],
            [
              -1.7136442022920815,
              53.67993315789778
            ],
            [
              -1.715225237192132,
              53.680683367117275
            ],
            [
              -1.7161415187819338,
              53.68084298437612
            ],
            [
              -1.7172733960399245,
              53.68086958719377
            ],
            [
              -1.7185220542848505,
              53.68120478125664
            ],
            [
              -1.7194832516388583,
              53.68172618894088
            ],
            [
              -1.7203186848530896,
              53.682380599654316
            ],
            [
              -1.721396663194033,
              53.68382771569494
            ],
            [
              -1.7235975356401259,
              53.684492733963346
            ],
            [
              -1.724343137325945,
              53.684492733963346
            ],
            [
              -1.7245766992998162,
              53.6846416966158
            ],
            [
              -1.7253761999026824,
              53.68482789919041
            ],
            [
              -1.72701113371978,
              53.685918497736566
            ],
            [
              -1.7270380831783034,
              53.686131294159594
            ],
            [
              -1.7232202432207957,
              53.68656752346509
            ],
            [
              -1.721351747429827,
              53.6869133117768
            ],
            [
              -1.7150186246767845,
              53.689610363155204
            ],
            [
              -1.7134645392352577,
              53.69014762494441
            ],
            [
              -1.7073919279146097,
              53.6913178744182
            ],
            [
              -1.7064037811020782,
              53.69159447408649
            ],
            [
              -1.7045352853111095,
              53.692535963183445
            ],
            [
              -1.6987052191171739,
              53.696806974152004
            ],
            [
              -1.69852555606035,
              53.696572957375174
            ]
          ]
        ]
      }
    }
  ]
}
