{
  "type": "FeatureCollection",
  "features": [
    {
      "type": "Feature",
      "properties": {
        "WardName": "Netherton & Newsome",
        "NoCllrs": 3,
        "Number": 23
      },
      "geometry": {
        "type": "Polygon",
        "coordinates": [
          [
            [
              -1.7758076199531525,
              53.64481267813809
            ],
            [
              -1.7730587751837468,
              53.64364646166274
            ],
            [
              -1.7715136728950611,
              53.64330031814645
            ],
            [
              -1.7685402493046254,
              53.64290091825137
            ],
            [
              -1.7672915910596994,
              53.64282636318538
            ],
            [
              -1.7641834201766458,
              53.6430660039999
            ],
            [
              -1.7640846054953927,
              53.642725181099294
            ],
            [
              -1.7642103696351694,
              53.642395006287884
            ],
            [
              -1.7637522288402685,
              53.64235772832421
            ],
            [
              -1.7638330772158393,
              53.64159086004672
            ],
            [
              -1.762808997791943,
              53.64165476626905
            ],
            [
              -1.7620633961061238,
              53.6415855345238
            ],
            [
              -1.7613896596430343,
              53.64132458307803
            ],
            [
              -1.7609315188481331,
              53.64088788521022
            ],
            [
              -1.760563209581644,
              53.6409571181006
            ],
            [
              -1.7599972709526488,
              53.640120990208025
            ],
            [
              -1.7600242204111725,
              53.63981209800418
            ],
            [
              -1.7602937149964082,
              53.63974286323437
            ],
            [
              -1.7599074394242367,
              53.63919430681032
            ],
            [
              -1.7595211638520654,
              53.63894931814174
            ],
            [
              -1.7597996415901425,
              53.638709653936935
            ],
            [
              -1.7601410013981078,
              53.63877889040264
            ],
            [
              -1.7605811758873264,
              53.638193039797805
            ],
            [
              -1.7603026981492496,
              53.6379693492386
            ],
            [
              -1.7603565970662964,
              53.637676419331626
            ],
            [
              -1.7601230350924255,
              53.63727164011273
            ],
            [
              -1.760329647607773,
              53.63685087864969
            ],
            [
              -1.7600152372583315,
              53.6362436964826
            ],
            [
              -1.7595840459219538,
              53.63607858403106
            ],
            [
              -1.7589103094588643,
              53.63472037644084
            ],
            [
              -1.7581377583145217,
              53.63407055185454
            ],
            [
              -1.7580569099389507,
              53.63382020692515
            ],
            [
              -1.7581826740787274,
              53.63351659512395
            ],
            [
              -1.7577424995895088,
              53.63268564639027
            ],
            [
              -1.7574460555457496,
              53.632392679793604
            ],
            [
              -1.7570418136678956,
              53.63228614598138
            ],
            [
              -1.7569340158338014,
              53.632152978337814
            ],
            [
              -1.7567363864712948,
              53.631071641509315
            ],
            [
              -1.757158594654831,
              53.630256625486425
            ],
            [
              -1.7580479267861098,
              53.62931374417249
            ],
            [
              -1.7580030110219036,
              53.62915393169218
            ],
            [
              -1.7622340760101063,
              53.628669163466064
            ],
            [
              -1.76496495447383,
              53.62860523757006
            ],
            [
              -1.7659800507448848,
              53.62802457291336
            ],
            [
              -1.7673185405182228,
              53.62744390026645
            ],
            [
              -1.7681809231909777,
              53.62693247553781
            ],
            [
              -1.7695373792699984,
              53.62561126630156
            ],
            [
              -1.7719358810785975,
              53.624391242009175
            ],
            [
              -1.7743972649570847,
              53.621993711612184
            ],
            [
              -1.776562204791813,
              53.62065636326654
            ],
            [
              -1.7776491662855973,
              53.61948415058783
            ],
            [
              -1.777765947272533,
              53.61903124151642
            ],
            [
              -1.7763286428179417,
              53.61882343455147
            ],
            [
              -1.774549978555385,
              53.61825329224022
            ],
            [
              -1.7742804839701494,
              53.61839716065264
            ],
            [
              -1.7729958931138583,
              53.61769912784777
            ],
            [
              -1.773445050755918,
              53.617033055249614
            ],
            [
              -1.774226585053102,
              53.61642558787732
            ],
            [
              -1.7759064346344058,
              53.61614316585922
            ],
            [
              -1.776481356416242,
              53.61595665971713
            ],
            [
              -1.7767688173071603,
              53.61570087852525
            ],
            [
              -1.7771550928793318,
              53.61564759058189
            ],
            [
              -1.777029328739555,
              53.61493352565156
            ],
            [
              -1.776571187944654,
              53.61431537013808
            ],
            [
              -1.7766250868617013,
              53.614048921004716
            ],
            [
              -1.7769664466696664,
              53.61356930832716
            ],
            [
              -1.7780803576219748,
              53.61308969020133
            ],
            [
              -1.7783857848185753,
              53.61255677478272
            ],
            [
              -1.7794278305481541,
              53.612434203285005
            ],
            [
              -1.7799219039544198,
              53.612727308448505
            ],
            [
              -1.7798769881902141,
              53.613190943370476
            ],
            [
              -1.7802452974567027,
              53.61339877806217
            ],
            [
              -1.7814670062431053,
              53.61297244938637
            ],
            [
              -1.783461266173851,
              53.612668687578584
            ],
            [
              -1.7839553395801167,
              53.612434203285005
            ],
            [
              -1.7850602673795835,
              53.61221570538487
            ],
            [
              -1.7855992565500551,
              53.611656132436046
            ],
            [
              -1.7874228365768179,
              53.61141098385574
            ],
            [
              -1.7880516572757017,
              53.61062756472044
            ],
            [
              -1.7889769220183447,
              53.61079810617804
            ],
            [
              -1.7891206524638037,
              53.61060091755548
            ],
            [
              -1.7895518438001812,
              53.61048899927895
            ],
            [
              -1.790045917206447,
              53.61048899927895
            ],
            [
              -1.7899021867609877,
              53.6103504333828
            ],
            [
              -1.7902076139575884,
              53.61046235202656
            ],
            [
              -1.7920042445258273,
              53.61036109231402
            ],
            [
              -1.7945195273213619,
              53.60984413104997
            ],
            [
              -1.7961544611384594,
              53.60997203958082
            ],
            [
              -1.7991817836459423,
              53.6090073865199
            ],
            [
              -1.8021552072363782,
              53.60883683782996
            ],
            [
              -1.8033589497170983,
              53.608986067971315
            ],
            [
              -1.804095568250076,
              53.60824524172328
            ],
            [
              -1.8044009954466769,
              53.60810133871441
            ],
            [
              -1.8072217054388118,
              53.60821859305493
            ],
            [
              -1.8087578245746565,
              53.608730244549
            ],
            [
              -1.8098088534570764,
              53.60931117466761
            ],
            [
              -1.8103927583917538,
              53.60883683782996
            ],
            [
              -1.8102849605576596,
              53.608703596186686
            ],
            [
              -1.8104197078502777,
              53.60861299162915
            ],
            [
              -1.8105993709071015,
              53.60865029941169
            ],
            [
              -1.810850899186655,
              53.60842645222206
            ],
            [
              -1.81119225899462,
              53.60787748861488
            ],
            [
              -1.8122612541827228,
              53.607973424517105
            ],
            [
              -1.8128541422702416,
              53.607904137498466
            ],
            [
              -1.8143453456418799,
              53.60817595515061
            ],
            [
              -1.8146507728384806,
              53.60842645222206
            ],
            [
              -1.8149921326464462,
              53.608517057179846
            ],
            [
              -1.8162587571970545,
              53.607728254555944
            ],
            [
              -1.8164474034067197,
              53.607728254555944
            ],
            [
              -1.8171391061754918,
              53.6080373816642
            ],
            [
              -1.817884707861311,
              53.60784018014957
            ],
            [
              -1.8189447198965718,
              53.607872158836145
            ],
            [
              -1.8208132156875405,
              53.60944441439383
            ],
            [
              -1.8213881374693768,
              53.60917260490639
            ],
            [
              -1.8227984924654446,
              53.60964693797247
            ],
            [
              -1.8229871386751093,
              53.60988143774484
            ],
            [
              -1.8228793408410153,
              53.610057311719494
            ],
            [
              -1.82313985227341,
              53.61022785548024
            ],
            [
              -1.8247298703263017,
              53.60934848183334
            ],
            [
              -1.8259515791127043,
              53.60890612331833
            ],
            [
              -1.8289160195502987,
              53.60837848481277
            ],
            [
              -1.8293292445809934,
              53.60812265770965
            ],
            [
              -1.829670604388959,
              53.60818661463072
            ],
            [
              -1.8305779028259195,
              53.60907134210104
            ],
            [
              -1.830694683812855,
              53.60970023348965
            ],
            [
              -1.8303892566162545,
              53.60988143774484
            ],
            [
              -1.8313414708174212,
              53.61112319892361
            ],
            [
              -1.83231165132427,
              53.61175738904298
            ],
            [
              -1.833722006320338,
              53.613137652259084
            ],
            [
              -1.8344406585476336,
              53.61432602806845
            ],
            [
              -1.8343508270192217,
              53.61473102742842
            ],
            [
              -1.83584203039086,
              53.615066747637066
            ],
            [
              -1.8371805201641982,
              53.61621776808536
            ],
            [
              -1.8353389738317532,
              53.6167772805793
            ],
            [
              -1.8351682939277705,
              53.61698509761698
            ],
            [
              -1.839057999108008,
              53.618993942905725
            ],
            [
              -1.838177650129571,
              53.620880145622884
            ],
            [
              -1.8385010436318538,
              53.6211252392233
            ],
            [
              -1.8346203216044574,
              53.62267036176305
            ],
            [
              -1.8344855743118396,
              53.62259044301886
            ],
            [
              -1.8293831434980405,
              53.623219133052864
            ],
            [
              -1.8294190761094054,
              53.62328839494158
            ],
            [
              -1.8286465249650627,
              53.62341093492773
            ],
            [
              -1.8285387271309683,
              53.623091264652054
            ],
            [
              -1.828062620030385,
              53.62303798603739
            ],
            [
              -1.8277392265281016,
              53.622835526688235
            ],
            [
              -1.8264366693661287,
              53.6236187193086
            ],
            [
              -1.8259875117240691,
              53.62404494047822
            ],
            [
              -1.825430556247915,
              53.62418346143159
            ],
            [
              -1.8252419100382498,
              53.62383183043146
            ],
            [
              -1.822223570683608,
              53.62282487090612
            ],
            [
              -1.8221067896966727,
              53.6229367564842
            ],
            [
              -1.8217564467358658,
              53.62285683824442
            ],
            [
              -1.8217564467358658,
              53.62274495245446
            ],
            [
              -1.8204898221852577,
              53.62239863741533
            ],
            [
              -1.8212444070239178,
              53.621482220834444
            ],
            [
              -1.8209299966744756,
              53.62094408322106
            ],
            [
              -1.8208850809102701,
              53.62034200033345
            ],
            [
              -1.8190255682721426,
              53.62037929775301
            ],
            [
              -1.8185943769357653,
              53.62014485628263
            ],
            [
              -1.8186303095471301,
              53.62004894803308
            ],
            [
              -1.8180553877652936,
              53.61997435257722
            ],
            [
              -1.8156029870396473,
              53.62001165032164
            ],
            [
              -1.8147046717555277,
              53.619782535085406
            ],
            [
              -1.8142285646549443,
              53.619409554133874
            ],
            [
              -1.8140309352924378,
              53.619500135525094
            ],
            [
              -1.811686332400886,
              53.6183438761126
            ],
            [
              -1.8114258209684915,
              53.61851971483943
            ],
            [
              -1.8107341181997194,
              53.61834920456965
            ],
            [
              -1.8102490279462948,
              53.61879146415837
            ],
            [
              -1.8086769761990857,
              53.61835986148168
            ],
            [
              -1.8062694912376456,
              53.618770150549516
            ],
            [
              -1.805425074870573,
              53.619244375802424
            ],
            [
              -1.805200496049543,
              53.619745237138574
            ],
            [
              -1.8050747319097662,
              53.620683004085464
            ],
            [
              -1.8056316873859206,
              53.62151951724648
            ],
            [
              -1.8035565790796046,
              53.62145558051996
            ],
            [
              -1.8034397980926689,
              53.62218019108303
            ],
            [
              -1.802541482808549,
              53.62286749401845
            ],
            [
              -1.8031074214375444,
              53.623560113561155
            ],
            [
              -1.8030445393676564,
              53.623693308323986
            ],
            [
              -1.8028828426165149,
              53.62360273593101
            ],
            [
              -1.8027391121710559,
              53.62376256943454
            ],
            [
              -1.802523516502867,
              53.62499326713768
            ],
            [
              -1.8032691181886862,
              53.62511047457107
            ],
            [
              -1.8039608209574582,
              53.62538218146015
            ],
            [
              -1.8044818438222476,
              53.625787074755074
            ],
            [
              -1.804472860669406,
              53.62720417069661
            ],
            [
              -1.8030714888261796,
              53.62784344652316
            ],
            [
              -1.8022899545289957,
              53.628072518004146
            ],
            [
              -1.7999902674016501,
              53.62816840802232
            ],
            [
              -1.79954110975959,
              53.6287330892652
            ],
            [
              -1.7974839677589562,
              53.63009148960304
            ],
            [
              -1.7972683720907676,
              53.630384472178086
            ],
            [
              -1.796397006265172,
              53.630922489427086
            ],
            [
              -1.7948519039764863,
              53.63231277945966
            ],
            [
              -1.7932529027707538,
              53.63293067143619
            ],
            [
              -1.7918964466917329,
              53.633777594874324
            ],
            [
              -1.7905579569183951,
              53.63436350680049
            ],
            [
              -1.787845044760354,
              53.63706392295296
            ],
            [
              -1.7874497860353415,
              53.63766044127818
            ],
            [
              -1.7870365610046464,
              53.6379320673634
            ],
            [
              -1.7861292625676857,
              53.63821434359872
            ],
            [
              -1.7854645092574375,
              53.63913572269293
            ],
            [
              -1.784161952095464,
              53.639146374356685
            ],
            [
              -1.7859495995108619,
              53.64003577879152
            ],
            [
              -1.7848087391000302,
              53.64179322941861
            ],
            [
              -1.7842787330823995,
              53.64228849773283
            ],
            [
              -1.784305682540923,
              53.64256009401668
            ],
            [
              -1.7839463564272753,
              53.64266660188588
            ],
            [
              -1.7821227764005125,
              53.642496189166074
            ],
            [
              -1.7814310736317407,
              53.642623998770496
            ],
            [
              -1.7808741181555865,
              53.64300742525988
            ],
            [
              -1.7805147920419386,
              53.64374764153862
            ],
            [
              -1.7802363143038618,
              53.64399260233813
            ],
            [
              -1.778736127779382,
              53.64432276464281
            ],
            [
              -1.7776132336742327,
              53.64490320500881
            ],
            [
              -1.7773347559361556,
              53.64515348416952
            ],
            [
              -1.7769125477526193,
              53.64520673486314
            ],
            [
              -1.7767867836128426,
              53.64532388615243
            ],
            [
              -1.7758076199531525,
              53.64481267813809
            ]
          ]
        ]
      }
    }
  ]
}